BusinessName,BusinessType,PostCode,RatingValue,RatingKey,RatingDate,LocalAuthorityName,Longitude,Latitude,ImagePath
212  Lounge Romford Ltd,Restaurant/Cafe/Canteen,RM6 6LS,3,fhrs_3_en-GB,2024-07-17,Barking and Dagenham,0.1411341,51.572008,images/test\fhrs_3_en-GB.png
3 Luanet Restaurant & Shisha Lounge,Restaurant/Cafe/Canteen,RM6 6AP,4,fhrs_4_en-GB,2023-11-02,Barking and Dagenham,0.143009006977081,51.5721969604492,images/test\fhrs_4_en-GB.png
5G Burger,Restaurant/Cafe/Canteen,RM9 6RT,5,fhrs_5_en-GB,2023-04-19,Barking and Dagenham,0.1469348,51.5318386,images/test\fhrs_5_en-GB.png
7even Restaurant,Restaurant/Cafe/Canteen,RM6 6AP,4,fhrs_4_en-GB,2023-11-01,Barking and Dagenham,0.1423516,51.5721207,images/test\fhrs_4_en-GB.png
Aafio Kenkey Market,Restaurant/Cafe/Canteen,RM9 4QS,1,fhrs_1_en-GB,2024-11-22,Barking and Dagenham,0.110776998102665,51.534984588623,images/test\fhrs_1_en-GB.png
Abbey Kebab & Pizza,Takeaway/sandwich shop,RM8 2XT,5,fhrs_5_en-GB,2024-07-13,Barking and Dagenham,0.128666,51.55093,images/test\fhrs_5_en-GB.png
Abigails Cafe,Restaurant/Cafe/Canteen,RM6 4BE,4,fhrs_4_en-GB,2024-06-22,Barking and Dagenham,0.1306,51.570095,images/test\fhrs_4_en-GB.png
Abike Oloogun Ebi Kitchen,Restaurant/Cafe/Canteen,RM8 1QH,5,fhrs_5_en-GB,2022-07-22,Barking and Dagenham,0.1425003,51.567947,images/test\fhrs_5_en-GB.png
Adetoks Kitchen Ltd,Takeaway/sandwich shop,RM10 8UB,5,fhrs_5_en-GB,2023-11-25,Barking and Dagenham,0.1701691,51.5428773,images/test\fhrs_5_en-GB.png
Ali Baba,Takeaway/sandwich shop,RM8 3NH,5,fhrs_5_en-GB,2024-02-23,Barking and Dagenham,0.142421,51.554493,images/test\fhrs_5_en-GB.png
Ali's Kitchen,Takeaway/sandwich shop,RM10 7XJ,4,fhrs_4_en-GB,2024-01-31,Barking and Dagenham,0.1650587,51.5458135,images/test\fhrs_4_en-GB.png
Ali's Plaice,Takeaway/sandwich shop,RM10 9XB,4,fhrs_4_en-GB,2024-08-09,Barking and Dagenham,0.158103,51.539889,images/test\fhrs_4_en-GB.png
Aliza Kitchen Cafe,Restaurant/Cafe/Canteen,IG11 0JH,5,fhrs_5_en-GB,2024-08-08,Barking and Dagenham,0.0985438,51.5239554,images/test\fhrs_5_en-GB.png
ANDHRA SPICE PRIVATE LIMITED,Restaurant/Cafe/Canteen,IG11 8AA,1,fhrs_1_en-GB,2024-10-23,Barking and Dagenham,0.078572,51.537997,images/test\fhrs_1_en-GB.png
Andy's Fish Bar,Takeaway/sandwich shop,RM7 0TL,5,fhrs_5_en-GB,2024-09-20,Barking and Dagenham,0.176142,51.564016,images/test\fhrs_5_en-GB.png
Angelos Balkans LTD,Restaurant/Cafe/Canteen,IG11 8UN,4,fhrs_4_en-GB,2024-10-24,Barking and Dagenham,0.0937445,51.5453542,images/test\fhrs_4_en-GB.png
Angels Bakery,Takeaway/sandwich shop,RM9 5AQ,4,fhrs_4_en-GB,2024-03-23,Barking and Dagenham,0.1475988,51.5419706,images/test\fhrs_4_en-GB.png
Angies Cafe and Kebab Ltd,Takeaway/sandwich shop,RM9 4TP,5,fhrs_5_en-GB,2024-02-17,Barking and Dagenham,0.127901,51.539793,images/test\fhrs_5_en-GB.png
Anteiku Coffeeshop,Restaurant/Cafe/Canteen,IG11 8QA,5,fhrs_5_en-GB,2024-10-19,Barking and Dagenham,0.0779597,51.5436294,images/test\fhrs_5_en-GB.png
Arens Food & Beverages Ltd,Restaurant/Cafe/Canteen,IG11 8DQ,5,fhrs_5_en-GB,2024-12-12,Barking and Dagenham,0.081221,51.537905,images/test\fhrs_5_en-GB.png
Ariana Restaurant Limited,Restaurant/Cafe/Canteen,IG11 8SF,3,fhrs_3_en-GB,2024-04-09,Barking and Dagenham,0.084551,51.541353,images/test\fhrs_3_en-GB.png
Aroma,Takeaway/sandwich shop,RM6 6PP,4,fhrs_4_en-GB,2024-03-12,Barking and Dagenham,0.133509,51.571184,images/test\fhrs_4_en-GB.png
Aroma,Takeaway/sandwich shop,RM9 4QS,2,fhrs_2_en-GB,2024-07-22,Barking and Dagenham,0.110777,51.534985,images/test\fhrs_2_en-GB.png
ARP Chicken & Pizza Ltd,Takeaway/sandwich shop,IG11 7PR,3,fhrs_3_en-GB,2024-06-17,Barking and Dagenham,0.085834,51.534083,images/test\fhrs_3_en-GB.png
Asli Butt Karahi,Restaurant/Cafe/Canteen,RM8 1YT,3,fhrs_3_en-GB,2024-08-31,Barking and Dagenham,0.123053,51.562039,images/test\fhrs_3_en-GB.png
Atlantic Fish Bar,Takeaway/sandwich shop,IG11 0NY,4,fhrs_4_en-GB,2023-09-18,Barking and Dagenham,0.104121,51.528837,images/test\fhrs_4_en-GB.png
Aunty's Cahi Khana,Restaurant/Cafe/Canteen,RM8 1XU,1,fhrs_1_en-GB,2024-11-01,Barking and Dagenham,0.120558,51.562992,images/test\fhrs_1_en-GB.png
B Square Grill Ltd,Takeaway/sandwich shop,RM10 7YA,4,fhrs_4_en-GB,2023-05-20,Barking and Dagenham,0.1531428,51.5515725,images/test\fhrs_4_en-GB.png
Balti Cottage,Restaurant/Cafe/Canteen,RM9 6UR,3,fhrs_3_en-GB,2024-02-24,Barking and Dagenham,0.146885,51.532253,images/test\fhrs_3_en-GB.png
Bambino City,Takeaway/sandwich shop,RM9 6FJ,5,fhrs_5_en-GB,2023-12-08,Barking and Dagenham,0.1453945,51.5301681,images/test\fhrs_5_en-GB.png
Barking Cafe,Restaurant/Cafe/Canteen,IG11 8ER,4,fhrs_4_en-GB,2023-09-02,Barking and Dagenham,0.077709,51.536781,images/test\fhrs_4_en-GB.png
Barking Cafe Ltd,Restaurant/Cafe/Canteen,IG11 8EJ,4,fhrs_4_en-GB,2021-08-12,Barking and Dagenham,0.0792597,51.5379769,images/test\fhrs_4_en-GB.png
Barking Chaiiwala,Restaurant/Cafe/Canteen,IG11 0NY,4,fhrs_4_en-GB,2024-11-02,Barking and Dagenham,0.104121,51.528837,images/test\fhrs_4_en-GB.png
Barking Chunky,Takeaway/sandwich shop,IG11 8SF,4,fhrs_4_en-GB,2024-08-28,Barking and Dagenham,0.084551,51.541354,images/test\fhrs_4_en-GB.png
Barking Community Hospital,Restaurant/Cafe/Canteen,IG11 9LX,5,fhrs_5_en-GB,2023-11-20,Barking and Dagenham,0.098657,51.538881,images/test\fhrs_5_en-GB.png
Barking Sportshouse & Gym,Restaurant/Cafe/Canteen,RM8 2JR,5,fhrs_5_en-GB,2024-07-11,Barking and Dagenham,0.11296,51.545378,images/test\fhrs_5_en-GB.png
Bartlett Mitchell Ltd T/A Hapag Lloyd Cafe,Restaurant/Cafe/Canteen,IG11 8NW,5,fhrs_5_en-GB,2024-01-17,Barking and Dagenham,0.078544,51.539923,images/test\fhrs_5_en-GB.png
Bayleaf,Takeaway/sandwich shop,RM8 2AJ,3,fhrs_3_en-GB,2023-10-05,Barking and Dagenham,0.115259,51.551406,images/test\fhrs_3_en-GB.png
Beadles Parade Fish & Chips,Takeaway/sandwich shop,RM10 8YL,5,fhrs_5_en-GB,2024-07-12,Barking and Dagenham,0.165924,51.542712,images/test\fhrs_5_en-GB.png
Becontree BBQ Turkish Kebab & Fish Bar,Takeaway/sandwich shop,RM8 1DJ,3,fhrs_3_en-GB,2024-05-23,Barking and Dagenham,0.140757,51.561456,images/test\fhrs_3_en-GB.png
Becontree Heath Leisure Centre,Restaurant/Cafe/Canteen,RM10 7FH,5,fhrs_5_en-GB,2024-03-09,Barking and Dagenham,0.14884,51.560895,images/test\fhrs_5_en-GB.png
BEKS ZONE,Restaurant/Cafe/Canteen,IG11 9RS,5,fhrs_5_en-GB,2023-09-02,Barking and Dagenham,0.0945565,51.5353937,images/test\fhrs_5_en-GB.png
Bela Lisbaa,Restaurant/Cafe/Canteen,IG11 9RS,3,fhrs_3_en-GB,2024-07-31,Barking and Dagenham,0.0942990034818649,51.5353622436523,images/test\fhrs_3_en-GB.png
Best Bite Chicken,Takeaway/sandwich shop,RM8 3NT,5,fhrs_5_en-GB,2023-08-28,Barking and Dagenham,0.147467,51.559616,images/test\fhrs_5_en-GB.png
Best Cafe,Restaurant/Cafe/Canteen,RM8 1RX,3,fhrs_3_en-GB,2024-07-19,Barking and Dagenham,0.136754,51.56653,images/test\fhrs_3_en-GB.png
Best Doner and Fish,Takeaway/sandwich shop,RM8 1YX,1,fhrs_1_en-GB,2024-11-23,Barking and Dagenham,0.1193671,51.5629063,images/test\fhrs_1_en-GB.png
Best Fish & Chips,Takeaway/sandwich shop,IG11 8RQ,0,fhrs_0_en-GB,2024-01-13,Barking and Dagenham,0.0794292,51.5432797,images/test\fhrs_0_en-GB.png
Best Fish Bar Ltd,Takeaway/sandwich shop,RM9 5AW,5,fhrs_5_en-GB,2024-10-19,Barking and Dagenham,0.147668,51.541222,images/test\fhrs_5_en-GB.png
BGR Romford,Takeaway/sandwich shop,RM8 1UU,5,fhrs_5_en-GB,2024-11-23,Barking and Dagenham,0.122884,51.562447,images/test\fhrs_5_en-GB.png
Big Breakfast Cafe,Restaurant/Cafe/Canteen,RM8 2NT,4,fhrs_4_en-GB,2024-07-13,Barking and Dagenham,0.129532,51.551553,images/test\fhrs_4_en-GB.png
Big Fry,Takeaway/sandwich shop,RM9 4QS,5,fhrs_5_en-GB,2023-09-15,Barking and Dagenham,0.110777,51.534985,images/test\fhrs_5_en-GB.png
Blanca Lounge N Shisha,Restaurant/Cafe/Canteen,RM9 4QS,5,fhrs_5_en-GB,2023-12-18,Barking and Dagenham,0.1105693,51.534612,images/test\fhrs_5_en-GB.png
Bloom's Cafe,Restaurant/Cafe/Canteen,RM6 4BE,5,fhrs_5_en-GB,2022-08-06,Barking and Dagenham,0.1306743,51.5705255,images/test\fhrs_5_en-GB.png
Bo Ji Takeway Limited,Takeaway/sandwich shop,RM10 9XB,2,fhrs_2_en-GB,2023-10-04,Barking and Dagenham,0.1581285,51.5398709,images/test\fhrs_2_en-GB.png
Bodrum Fish & Chips,Takeaway/sandwich shop,RM10 8EH,3,fhrs_3_en-GB,2024-11-16,Barking and Dagenham,0.16055,51.545257,images/test\fhrs_3_en-GB.png
Bon Appetit,Restaurant/Cafe/Canteen,RM6 6PB,4,fhrs_4_en-GB,2024-06-22,Barking and Dagenham,0.133554,51.571543,images/test\fhrs_4_en-GB.png
Brewers Fayre & Premier Inn,Restaurant/Cafe/Canteen,RM9 6YS,5,fhrs_5_en-GB,2023-09-16,Barking and Dagenham,0.149903,51.530822,images/test\fhrs_5_en-GB.png
Brook Pie & Mash,Restaurant/Cafe/Canteen,RM10 7UP,5,fhrs_5_en-GB,2024-07-13,Barking and Dagenham,0.164409,51.552425,images/test\fhrs_5_en-GB.png
Brothers Cafe,Restaurant/Cafe/Canteen,IG11 0HZ,3,fhrs_3_en-GB,2024-05-29,Barking and Dagenham,0.104474,51.524622,images/test\fhrs_3_en-GB.png
Brothers Fish Bar,Takeaway/sandwich shop,RM6 4BE,4,fhrs_4_en-GB,2022-09-29,Barking and Dagenham,0.1306,51.570094,images/test\fhrs_4_en-GB.png
BSQUARE GRILL,Takeaway/sandwich shop,RM6 6PS,5,fhrs_5_en-GB,2024-12-12,Barking and Dagenham,0.1325129,51.5709597,images/test\fhrs_5_en-GB.png
Bubbly Bubbly,Takeaway/sandwich shop,IG11 8AW,3,fhrs_3_en-GB,2023-03-02,Barking and Dagenham,0.0766505,51.5368661,images/test\fhrs_3_en-GB.png
Buddha Kitchen,Takeaway/sandwich shop,RM8 1SL,5,fhrs_5_en-GB,2024-03-12,Barking and Dagenham,0.1331322,51.5641499,images/test\fhrs_5_en-GB.png
Burgers LDN,Restaurant/Cafe/Canteen,IG11 8TG,4,fhrs_4_en-GB,2024-04-30,Barking and Dagenham,0.0839584,51.5414007,images/test\fhrs_4_en-GB.png
Butter Buns,Restaurant/Cafe/Canteen,IG11 8AW,5,fhrs_5_en-GB,2024-08-24,Barking and Dagenham,0.076908,51.536597,images/test\fhrs_5_en-GB.png
Caffe Italiano Ltd,Restaurant/Cafe/Canteen,IG11 8DG,3,fhrs_3_en-GB,2024-03-02,Barking and Dagenham,0.081221,51.537905,images/test\fhrs_3_en-GB.png
Caffe Latte,Restaurant/Cafe/Canteen,IG11 8DG,4,fhrs_4_en-GB,2024-01-16,Barking and Dagenham,0.081221,51.537905,images/test\fhrs_4_en-GB.png
Castle Point Catering,Restaurant/Cafe/Canteen,RM8 3YJ,3,fhrs_3_en-GB,2024-03-07,Barking and Dagenham,0.12649,51.554369,images/test\fhrs_3_en-GB.png
Catering Niki Traditional Food,Restaurant/Cafe/Canteen,RM10 8TX,4,fhrs_4_en-GB,2024-02-28,Barking and Dagenham,0.159458994865417,51.5490264892578,images/test\fhrs_4_en-GB.png
Central Eating,Takeaway/sandwich shop,RM10 8TX,5,fhrs_5_en-GB,2024-03-22,Barking and Dagenham,0.1599011,51.5482676,images/test\fhrs_5_en-GB.png
Charcoal Grill,Takeaway/sandwich shop,RM8 3XP,5,fhrs_5_en-GB,2023-10-05,Barking and Dagenham,0.125839,51.554327,images/test\fhrs_5_en-GB.png
Charcoal Grill Hut & Pizzeria Di Roma,Takeaway/sandwich shop,RM10 9HX,5,fhrs_5_en-GB,2023-12-16,Barking and Dagenham,0.1513303,51.5348517,images/test\fhrs_5_en-GB.png
Cherry on Top,Takeaway/sandwich shop,RM10 8EH,5,fhrs_5_en-GB,2018-06-05,Barking and Dagenham,0.1606036,51.5452391,images/test\fhrs_5_en-GB.png
Chicken Guys,Takeaway/sandwich shop,IG11 8SF,4,fhrs_4_en-GB,2024-05-15,Barking and Dagenham,0.084551,51.541354,images/test\fhrs_4_en-GB.png
Chicken Spot,Takeaway/sandwich shop,RM10 9HX,5,fhrs_5_en-GB,2024-06-20,Barking and Dagenham,0.151302,51.534807,images/test\fhrs_5_en-GB.png
Chicken Spot,Takeaway/sandwich shop,RM6 6NX,4,fhrs_4_en-GB,2023-01-18,Barking and Dagenham,0.135093,51.571425,images/test\fhrs_4_en-GB.png
China Delights,Takeaway/sandwich shop,RM6 6LS,4,fhrs_4_en-GB,2024-10-19,Barking and Dagenham,0.141192,51.571934,images/test\fhrs_4_en-GB.png
China Friend Restaurant,Restaurant/Cafe/Canteen,IG11 8RY,2,fhrs_2_en-GB,2023-07-06,Barking and Dagenham,0.082574,51.540058,images/test\fhrs_2_en-GB.png
Chubby Friar Fish and Chips LTD,Takeaway/sandwich shop,IG11 9PN,5,fhrs_5_en-GB,2024-06-15,Barking and Dagenham,0.094059,51.535789,images/test\fhrs_5_en-GB.png
Chung Wah,Takeaway/sandwich shop,IG11 0NR,2,fhrs_2_en-GB,2024-06-27,Barking and Dagenham,0.09819,51.529051,images/test\fhrs_2_en-GB.png
Chunky Grill and Pizza,Takeaway/sandwich shop,IG11 8EB,1,fhrs_1_en-GB,2024-08-24,Barking and Dagenham,0.080525,51.539087,images/test\fhrs_1_en-GB.png
Claridges,Restaurant/Cafe/Canteen,RM8 1JX,4,fhrs_4_en-GB,2015-10-22,Barking and Dagenham,0.15606,51.562552,images/test\fhrs_4_en-GB.png
Cocoa Vanille,Takeaway/sandwich shop,RM10 7XD,5,fhrs_5_en-GB,2023-03-21,Barking and Dagenham,0.1649297,51.5467422,images/test\fhrs_5_en-GB.png
Costa,Restaurant/Cafe/Canteen,IG11 7BS,5,fhrs_5_en-GB,2017-07-28,Barking and Dagenham,0.070767,51.536319,images/test\fhrs_5_en-GB.png
Costa,Restaurant/Cafe/Canteen,RM10 7FQ,5,fhrs_5_en-GB,2023-05-26,Barking and Dagenham,0.1706176,51.5474494,images/test\fhrs_5_en-GB.png
Costa Coffee,Restaurant/Cafe/Canteen,IG11 8EA,5,fhrs_5_en-GB,2023-03-09,Barking and Dagenham,0.0815813,51.5392397,images/test\fhrs_5_en-GB.png
Cristina's,Restaurant/Cafe/Canteen,IG11 8AW,5,fhrs_5_en-GB,2023-10-21,Barking and Dagenham,0.076908,51.536597,images/test\fhrs_5_en-GB.png
Cristina's Far From Home LTD,Restaurant/Cafe/Canteen,IG11 8AW,5,fhrs_5_en-GB,2024-08-24,Barking and Dagenham,0.076908,51.536597,images/test\fhrs_5_en-GB.png
Crowlands Cafe,Restaurant/Cafe/Canteen,RM8 1JX,4,fhrs_4_en-GB,2024-07-12,Barking and Dagenham,0.15606,51.562552,images/test\fhrs_4_en-GB.png
Curry Mahal Tandoori,Restaurant/Cafe/Canteen,RM9 6UX,1,fhrs_1_en-GB,2024-06-24,Barking and Dagenham,0.1459267,51.5321718,images/test\fhrs_1_en-GB.png
D&D Hill Cafe,Restaurant/Cafe/Canteen,RM9 4TP,4,fhrs_4_en-GB,2024-03-28,Barking and Dagenham,0.127901,51.539793,images/test\fhrs_4_en-GB.png
Daddies,Restaurant/Cafe/Canteen,IG11 0DA,4,fhrs_4_en-GB,2023-03-03,Barking and Dagenham,0.095832,51.523842,images/test\fhrs_4_en-GB.png
DAGENHAM FIRE STATION,Restaurant/Cafe/Canteen,RM10 7ES,3,fhrs_3_en-GB,2024-07-09,Barking and Dagenham,0.156767,51.559517,images/test\fhrs_3_en-GB.png
Daily Munch Cafe,Restaurant/Cafe/Canteen,IG11 8UW,5,fhrs_5_en-GB,2023-05-11,Barking and Dagenham,0.094549,51.545834,images/test\fhrs_5_en-GB.png
De Roya,Restaurant/Cafe/Canteen,IG11 8ET,5,fhrs_5_en-GB,2024-04-20,Barking and Dagenham,0.0769170001149178,51.5364799499512,images/test\fhrs_5_en-GB.png
Deans Peri Peri,Takeaway/sandwich shop,RM9 5AW,3,fhrs_3_en-GB,2023-09-30,Barking and Dagenham,0.147668,51.541222,images/test\fhrs_3_en-GB.png
Deluxe Brew Coffee Co.,Restaurant/Cafe/Canteen,RM9 4TA,5,fhrs_5_en-GB,2024-09-18,Barking and Dagenham,0.1163425,51.5381499,images/test\fhrs_5_en-GB.png
Deshy Grill,Restaurant/Cafe/Canteen,IG11 8EJ,1,fhrs_1_en-GB,2024-08-28,Barking and Dagenham,0.078877,51.537722,images/test\fhrs_1_en-GB.png
Dessert Studio,Restaurant/Cafe/Canteen,IG11 8DH,4,fhrs_4_en-GB,2022-07-15,Barking and Dagenham,0.081658,51.5384093,images/test\fhrs_4_en-GB.png
Deuce Lounge,Restaurant/Cafe/Canteen,IG11 8AG,4,fhrs_4_en-GB,2020-08-11,Barking and Dagenham,0.0780770033597946,51.5382499694824,images/test\fhrs_4_en-GB.png
Dhaba family restaurant,Takeaway/sandwich shop,RM8 1XU,1,fhrs_1_en-GB,2024-08-31,Barking and Dagenham,0.1213672,51.5627892,images/test\fhrs_1_en-GB.png
Dinner Box,Takeaway/sandwich shop,RM8 2AR,5,fhrs_5_en-GB,2024-03-02,Barking and Dagenham,0.110629,51.551418,images/test\fhrs_5_en-GB.png
Dixy Chicken,Takeaway/sandwich shop,IG11 8EA,3,fhrs_3_en-GB,2024-05-23,Barking and Dagenham,0.081616,51.539293,images/test\fhrs_3_en-GB.png
Dixy Chicken,Takeaway/sandwich shop,RM10 7UU,3,fhrs_3_en-GB,2024-07-12,Barking and Dagenham,0.161954,51.550546,images/test\fhrs_3_en-GB.png
Dominos Pizza,Takeaway/sandwich shop,RM9 5AQ,5,fhrs_5_en-GB,2023-03-29,Barking and Dagenham,0.147453,51.542476,images/test\fhrs_5_en-GB.png
Domino's Pizza,Takeaway/sandwich shop,IG11 8RU,5,fhrs_5_en-GB,2024-03-26,Barking and Dagenham,0.0821259990334511,51.5397148132324,images/test\fhrs_5_en-GB.png
Domino's Pizza,Takeaway/sandwich shop,RM6 6NL,5,fhrs_5_en-GB,2024-03-23,Barking and Dagenham,0.137957,51.572191,images/test\fhrs_5_en-GB.png
Dora Gourmet Mama’s Kitchen,Restaurant/Cafe/Canteen,RM9 6RT,5,fhrs_5_en-GB,2024-09-19,Barking and Dagenham,0.14669,51.531789,images/test\fhrs_5_en-GB.png
Dubai Express Pizza,Takeaway/sandwich shop,RM8 3XU,4,fhrs_4_en-GB,2024-07-04,Barking and Dagenham,0.124477,51.561015,images/test\fhrs_4_en-GB.png
Early Birds Cafe,Restaurant/Cafe/Canteen,IG11 8BL,5,fhrs_5_en-GB,2023-01-06,Barking and Dagenham,0.068158,51.5389735,images/test\fhrs_5_en-GB.png
Eastbrook Cafe & Restaurant,Restaurant/Cafe/Canteen,RM10 7UU,4,fhrs_4_en-GB,2022-05-30,Barking and Dagenham,0.161954,51.550546,images/test\fhrs_4_en-GB.png
Eastbrook End Country Park Tea Room,Restaurant/Cafe/Canteen,RM7 0SS,3,fhrs_3_en-GB,2023-11-18,Barking and Dagenham,0.181728005409241,51.555061340332,images/test\fhrs_3_en-GB.png
Eastbury Manor House,Restaurant/Cafe/Canteen,IG11 9SN,4,fhrs_4_en-GB,2024-07-25,Barking and Dagenham,0.099386,51.534354,images/test\fhrs_4_en-GB.png
Eastern Paradise,Restaurant/Cafe/Canteen,IG11 9RS,0,fhrs_0_en-GB,2024-09-25,Barking and Dagenham,0.094299,51.535362,images/test\fhrs_0_en-GB.png
ECU FOOD TRUCK LIMITED,Restaurant/Cafe/Canteen,,4,fhrs_4_en-GB,2024-09-07,Barking and Dagenham,0.14758975,51.5241594,images/test\fhrs_4_en-GB.png
Eden Peri Peri,Restaurant/Cafe/Canteen,RM10 7XD,3,fhrs_3_en-GB,2024-03-25,Barking and Dagenham,0.165059,51.546676,images/test\fhrs_3_en-GB.png
Elior UK Ltd,Restaurant/Cafe/Canteen,IG11 9PH,5,fhrs_5_en-GB,2023-03-13,Barking and Dagenham,0.098811,51.539426,images/test\fhrs_5_en-GB.png
Elm Fish Bar,Takeaway/sandwich shop,RM10 9RL,5,fhrs_5_en-GB,2023-11-04,Barking and Dagenham,0.153794,51.53995,images/test\fhrs_5_en-GB.png
Empire Chinese Take Away,Takeaway/sandwich shop,IG11 0QA,3,fhrs_3_en-GB,2023-11-22,Barking and Dagenham,0.1138452,51.5271968,images/test\fhrs_3_en-GB.png
Enjoy Cafe,Restaurant/Cafe/Canteen,RM10 7XD,5,fhrs_5_en-GB,2024-10-30,Barking and Dagenham,0.165059,51.546676,images/test\fhrs_5_en-GB.png
Enjoy Cafe,Restaurant/Cafe/Canteen,RM9 6QJ,5,fhrs_5_en-GB,2024-02-27,Barking and Dagenham,0.1438238,51.5180913,images/test\fhrs_5_en-GB.png
Essex Kebabish Chadwell Heath,Takeaway/sandwich shop,RM6 6PS,4,fhrs_4_en-GB,2023-12-19,Barking and Dagenham,0.132721,51.571009,images/test\fhrs_4_en-GB.png
Eurest at Ford Dagenham Pitstop,Restaurant/Cafe/Canteen,RM9 6SA,5,fhrs_5_en-GB,2023-03-15,Barking and Dagenham,0.1533376,51.5211545,images/test\fhrs_5_en-GB.png
Eurest Food Services,Restaurant/Cafe/Canteen,IG11 8DJ,4,fhrs_4_en-GB,2023-10-14,Barking and Dagenham,0.082214,51.53849,images/test\fhrs_4_en-GB.png
Eurest Food Services Ford Dagenham - New Haven,Restaurant/Cafe/Canteen,RM9 6SA,5,fhrs_5_en-GB,2023-12-07,Barking and Dagenham,0.153349995613098,51.5143814086914,images/test\fhrs_5_en-GB.png
Eurest Food Servics Ford Dagenham - DDC Restaurant,Restaurant/Cafe/Canteen,RM9 6SA,4,fhrs_4_en-GB,2023-12-07,Barking and Dagenham,0.1516892,51.5121739,images/test\fhrs_4_en-GB.png
Express Chicken,Takeaway/sandwich shop,RM9 6UX,4,fhrs_4_en-GB,2024-09-19,Barking and Dagenham,0.146155,51.532068,images/test\fhrs_4_en-GB.png
"Expressa- Pizza, grill,kebabs,burger",Takeaway/sandwich shop,RM8 1UU,5,fhrs_5_en-GB,2023-07-31,Barking and Dagenham,0.123055003583431,51.5623893737793,images/test\fhrs_5_en-GB.png
Faircross Fish Bar,Takeaway/sandwich shop,IG11 8UN,5,fhrs_5_en-GB,2023-05-11,Barking and Dagenham,0.093127,51.545329,images/test\fhrs_5_en-GB.png
Family Cafe,Restaurant/Cafe/Canteen,RM8 3UH,5,fhrs_5_en-GB,2023-10-12,Barking and Dagenham,0.129283,51.558878,images/test\fhrs_5_en-GB.png
Farmhouse Venue,Restaurant/Cafe/Canteen,RM7 0QX,5,fhrs_5_en-GB,2024-03-12,Barking and Dagenham,0.174286,51.552944,images/test\fhrs_5_en-GB.png
Favorite Chicken & Ribs,Takeaway/sandwich shop,RM7 0TJ,5,fhrs_5_en-GB,2024-07-19,Barking and Dagenham,0.175648,51.564547,images/test\fhrs_5_en-GB.png
Favorite Chicken & Ribs,Takeaway/sandwich shop,RM9 4SH,5,fhrs_5_en-GB,2023-09-23,Barking and Dagenham,0.1266737,51.5388983,images/test\fhrs_5_en-GB.png
Favorite Chicken & Ribs,Takeaway/sandwich shop,IG11 8UW,5,fhrs_5_en-GB,2024-10-24,Barking and Dagenham,0.094549,51.545834,images/test\fhrs_5_en-GB.png
Favorite 'N' Tasty,Takeaway/sandwich shop,RM10 8YL,5,fhrs_5_en-GB,2024-07-12,Barking and Dagenham,0.165924,51.542712,images/test\fhrs_5_en-GB.png
Fiddlers Cafe,Takeaway/sandwich shop,RM8 3HD,4,fhrs_4_en-GB,2023-12-16,Barking and Dagenham,0.146705,51.559981,images/test\fhrs_4_en-GB.png
Fireaway Pizza,Takeaway/sandwich shop,RM10 9JD,5,fhrs_5_en-GB,2024-10-19,Barking and Dagenham,0.151336,51.534006,images/test\fhrs_5_en-GB.png
Flavour Hut,Takeaway/sandwich shop,RM9 4ND,4,fhrs_4_en-GB,2023-12-09,Barking and Dagenham,0.113899,51.541359,images/test\fhrs_4_en-GB.png
Flavours Gelato Dagenham Green Lane,Takeaway/sandwich shop,RM8 1YX,5,fhrs_5_en-GB,2022-07-11,Barking and Dagenham,0.1201817,51.5627387,images/test\fhrs_5_en-GB.png
Flavour's Peri Peri Chicken Dagenham,Takeaway/sandwich shop,RM8 1YT,5,fhrs_5_en-GB,2024-06-22,Barking and Dagenham,0.123053,51.562039,images/test\fhrs_5_en-GB.png
FoodCycle Barking,Restaurant/Cafe/Canteen,IG11 8PY,5,fhrs_5_en-GB,2024-04-21,Barking and Dagenham,0.0775523,51.5441852,images/test\fhrs_5_en-GB.png
Ford Dagenham Autotech - satellite to DDC,Restaurant/Cafe/Canteen,RM9 6SA,5,fhrs_5_en-GB,2023-12-07,Barking and Dagenham,0.150448992848396,51.528678894043,images/test\fhrs_5_en-GB.png
Fresh Wharf Patrol Base,Restaurant/Cafe/Canteen,IG11 7BG,5,fhrs_5_en-GB,2022-04-25,Barking and Dagenham,0.073854997754097,51.5306701660156,images/test\fhrs_5_en-GB.png
Frying Pan,Takeaway/sandwich shop,RM9 6UX,3,fhrs_3_en-GB,2024-02-24,Barking and Dagenham,0.146155,51.532068,images/test\fhrs_3_en-GB.png
Fu Min,Takeaway/sandwich shop,RM9 5SL,5,fhrs_5_en-GB,2023-09-07,Barking and Dagenham,0.131881,51.551807,images/test\fhrs_5_en-GB.png
Future Youth Zone,Restaurant/Cafe/Canteen,RM9 5YX,5,fhrs_5_en-GB,2023-10-06,Barking and Dagenham,0.1248636,51.5457585,images/test\fhrs_5_en-GB.png
Gah Moon House Take Away,Takeaway/sandwich shop,RM10 9XA,1,fhrs_1_en-GB,2023-10-05,Barking and Dagenham,0.159319,51.539372,images/test\fhrs_1_en-GB.png
Galleon Cafe Limited,Restaurant/Cafe/Canteen,IG11 7BT,4,fhrs_4_en-GB,2024-10-22,Barking and Dagenham,0.07574,51.532158,images/test\fhrs_4_en-GB.png
George's Fish Bar,Takeaway/sandwich shop,RM8 2DA,5,fhrs_5_en-GB,2024-03-02,Barking and Dagenham,0.114927,51.5517904,images/test\fhrs_5_en-GB.png
German Doner Kebab,Restaurant/Cafe/Canteen,IG11 7NT,5,fhrs_5_en-GB,2022-07-29,Barking and Dagenham,0.0816213,51.5366401,images/test\fhrs_5_en-GB.png
Goals Soccer Centre,Restaurant/Cafe/Canteen,RM9 6XW,5,fhrs_5_en-GB,2024-05-01,Barking and Dagenham,0.130539,51.532667,images/test\fhrs_5_en-GB.png
Golden Dragon,Takeaway/sandwich shop,IG11 7PR,3,fhrs_3_en-GB,2023-09-21,Barking and Dagenham,0.085834,51.534083,images/test\fhrs_3_en-GB.png
Golden Fish,Takeaway/sandwich shop,RM8 3HH,5,fhrs_5_en-GB,2024-06-21,Barking and Dagenham,0.146297,51.560213,images/test\fhrs_5_en-GB.png
Good Friend,Takeaway/sandwich shop,RM9 6UX,1,fhrs_1_en-GB,2024-02-24,Barking and Dagenham,0.146155,51.532068,images/test\fhrs_1_en-GB.png
Good Luck,Takeaway/sandwich shop,RM10 8EH,5,fhrs_5_en-GB,2022-08-09,Barking and Dagenham,0.16055,51.545257,images/test\fhrs_5_en-GB.png
Great Wall,Takeaway/sandwich shop,RM10 9JD,5,fhrs_5_en-GB,2023-05-26,Barking and Dagenham,0.151336,51.534006,images/test\fhrs_5_en-GB.png
Greedy Panda,Takeaway/sandwich shop,IG11 0NZ,4,fhrs_4_en-GB,2023-09-18,Barking and Dagenham,0.104667,51.5288,images/test\fhrs_4_en-GB.png
Greggs,Takeaway/sandwich shop,RM8 1YT,5,fhrs_5_en-GB,2023-10-07,Barking and Dagenham,0.123053,51.562039,images/test\fhrs_5_en-GB.png
Greggs,Takeaway/sandwich shop,IG11 8EJ,5,fhrs_5_en-GB,2024-01-17,Barking and Dagenham,0.078877,51.537722,images/test\fhrs_5_en-GB.png
Grilago,Takeaway/sandwich shop,IG11 8RQ,4,fhrs_4_en-GB,2024-03-01,Barking and Dagenham,0.079839,51.54302,images/test\fhrs_4_en-GB.png
Griller,Takeaway/sandwich shop,RM6 6QJ,3,fhrs_3_en-GB,2024-10-19,Barking and Dagenham,0.13172,51.571207,images/test\fhrs_3_en-GB.png
Grub Hub,Restaurant/Cafe/Canteen,RM8 1SP,5,fhrs_5_en-GB,2024-08-06,Barking and Dagenham,0.1334571,51.5670847,images/test\fhrs_5_en-GB.png
Gullylicious,Takeaway/sandwich shop,RM10 9RL,3,fhrs_3_en-GB,2023-11-04,Barking and Dagenham,0.153794,51.53995,images/test\fhrs_3_en-GB.png
Gunays Cafe,Restaurant/Cafe/Canteen,RM10 8YL,5,fhrs_5_en-GB,2023-05-26,Barking and Dagenham,0.165924,51.542712,images/test\fhrs_5_en-GB.png
Happy House,Takeaway/sandwich shop,RM6 6LS,4,fhrs_4_en-GB,2023-09-20,Barking and Dagenham,0.141192,51.571934,images/test\fhrs_4_en-GB.png
Hasi Restaurant,Restaurant/Cafe/Canteen,IG11 8TB,4,fhrs_4_en-GB,2024-07-20,Barking and Dagenham,0.084452,51.541715,images/test\fhrs_4_en-GB.png
Heathway Yum Yum,Takeaway/sandwich shop,RM9 5AN,3,fhrs_3_en-GB,2023-07-26,Barking and Dagenham,0.147654,51.540629,images/test\fhrs_3_en-GB.png
Ho Ho Chinese Takeaway,Takeaway/sandwich shop,RM10 8QS,5,fhrs_5_en-GB,2022-10-28,Barking and Dagenham,0.14813,51.541852,images/test\fhrs_5_en-GB.png
Hollywood Bowl Dagenham,Restaurant/Cafe/Canteen,RM9 6XW,5,fhrs_5_en-GB,2023-12-08,Barking and Dagenham,0.130539,51.532668,images/test\fhrs_5_en-GB.png
Honeyz Catering,Takeaway/sandwich shop,RM10 9ND,5,fhrs_5_en-GB,2024-11-16,Barking and Dagenham,0.1595007,51.527723,images/test\fhrs_5_en-GB.png
Hong Kong House,Takeaway/sandwich shop,RM9 4SH,5,fhrs_5_en-GB,2022-08-11,Barking and Dagenham,0.12701,51.538928,images/test\fhrs_5_en-GB.png
Hot Favourite,Takeaway/sandwich shop,RM8 3NH,1,fhrs_1_en-GB,2024-11-02,Barking and Dagenham,0.142421,51.554493,images/test\fhrs_1_en-GB.png
Humdum,Restaurant/Cafe/Canteen,IG11 8AA,3,fhrs_3_en-GB,2023-10-21,Barking and Dagenham,0.078572,51.537998,images/test\fhrs_3_en-GB.png
Hunky Panda,Takeaway/sandwich shop,RM10 9HX,4,fhrs_4_en-GB,2024-06-20,Barking and Dagenham,0.151302,51.534807,images/test\fhrs_4_en-GB.png
Iced Bubble Tea Dagenham,Takeaway/sandwich shop,RM7 0YU,5,fhrs_5_en-GB,2023-03-21,Barking and Dagenham,0.1816305,51.5572695,images/test\fhrs_5_en-GB.png
Indian Fusion,Restaurant/Cafe/Canteen,RM6 4BE,4,fhrs_4_en-GB,2022-11-17,Barking and Dagenham,0.1306,51.570095,images/test\fhrs_4_en-GB.png
Indiana Curry & Grill,Takeaway/sandwich shop,IG11 9PG,3,fhrs_3_en-GB,2024-02-27,Barking and Dagenham,0.105558,51.533425,images/test\fhrs_3_en-GB.png
Indiano Pizza,Takeaway/sandwich shop,RM8 1YX,4,fhrs_4_en-GB,2024-04-26,Barking and Dagenham,0.119985,51.562769,images/test\fhrs_4_en-GB.png
Istanbul Kebab & Cafe,Restaurant/Cafe/Canteen,RM8 2HF,5,fhrs_5_en-GB,2022-08-03,Barking and Dagenham,0.112595,51.541841,images/test\fhrs_5_en-GB.png
Jerk Pit,Takeaway/sandwich shop,IG11 7NY,4,fhrs_4_en-GB,2023-10-14,Barking and Dagenham,0.082208,51.535838,images/test\fhrs_4_en-GB.png
Jerkpit Deliveries LTD,Takeaway/sandwich shop,RM10 7YX,5,fhrs_5_en-GB,2023-08-08,Barking and Dagenham,0.1549138,51.5508925,images/test\fhrs_5_en-GB.png
JR Juice Bar and Carribean Munch,Takeaway/sandwich shop,RM8 3HD,3,fhrs_3_en-GB,2024-06-20,Barking and Dagenham,0.146705,51.559981,images/test\fhrs_3_en-GB.png
Julienest Gardens,Restaurant/Cafe/Canteen,IG11 7LS,5,fhrs_5_en-GB,2023-02-18,Barking and Dagenham,0.0773328,51.5358797,images/test\fhrs_5_en-GB.png
K.F.C.,Takeaway/sandwich shop,IG11 8EB,5,fhrs_5_en-GB,2024-03-02,Barking and Dagenham,0.080525,51.539087,images/test\fhrs_5_en-GB.png
K.F.C.,Takeaway/sandwich shop,RM9 6SJ,5,fhrs_5_en-GB,2023-09-16,Barking and Dagenham,0.145621,51.5305766,images/test\fhrs_5_en-GB.png
Kebabish Green lane Ltd,Takeaway/sandwich shop,RM8 1XU,2,fhrs_2_en-GB,2024-09-12,Barking and Dagenham,0.1214532,51.5627786,images/test\fhrs_2_en-GB.png
Kebabish Original,Takeaway/sandwich shop,IG11 8TB,3,fhrs_3_en-GB,2024-08-28,Barking and Dagenham,0.084452,51.541715,images/test\fhrs_3_en-GB.png
Keith Davis Cue Sports Club,Restaurant/Cafe/Canteen,RM9 4TP,5,fhrs_5_en-GB,2024-02-17,Barking and Dagenham,0.127901,51.539793,images/test\fhrs_5_en-GB.png
Kennedy Fried Chicken,Takeaway/sandwich shop,IG11 8EA,3,fhrs_3_en-GB,2024-03-02,Barking and Dagenham,0.081616,51.539293,images/test\fhrs_3_en-GB.png
Khyber Grill,Restaurant/Cafe/Canteen,RM8 1YT,5,fhrs_5_en-GB,2023-10-07,Barking and Dagenham,0.123053,51.562039,images/test\fhrs_5_en-GB.png
Kingdom Pizza Limited,Takeaway/sandwich shop,RM8 2AQ,3,fhrs_3_en-GB,2024-09-25,Barking and Dagenham,0.130016,51.551427,images/test\fhrs_3_en-GB.png
Kings Doner Kebab,Takeaway/sandwich shop,RM8 1YX,3,fhrs_3_en-GB,2022-01-16,Barking and Dagenham,0.119984,51.562768,images/test\fhrs_3_en-GB.png
King's Flavour,Takeaway/sandwich shop,RM8 1BB,5,fhrs_5_en-GB,2024-02-23,Barking and Dagenham,0.146641,51.56384,images/test\fhrs_5_en-GB.png
Kitchen to Haven LTD,Takeaway/sandwich shop,IG11 8EG,1,fhrs_1_en-GB,2024-04-13,Barking and Dagenham,0.0791605,51.5380146,images/test\fhrs_1_en-GB.png
KL Ammalu's Kitchen Limited,Takeaway/sandwich shop,RM8 1SL,5,fhrs_5_en-GB,2023-08-22,Barking and Dagenham,0.1334112,51.5642528,images/test\fhrs_5_en-GB.png
KTC Barking Ltd,Takeaway/sandwich shop,IG11 7PG,3,fhrs_3_en-GB,2024-06-08,Barking and Dagenham,0.0813172,51.5362947,images/test\fhrs_3_en-GB.png
La Masa,Restaurant/Cafe/Canteen,IG11 8RX,3,fhrs_3_en-GB,2023-12-05,Barking and Dagenham,0.082574,51.540057,images/test\fhrs_3_en-GB.png
Lady Tee/s Nigerian Food,Restaurant/Cafe/Canteen,RM8 1BB,3,fhrs_3_en-GB,2024-02-24,Barking and Dagenham,0.146695002913475,51.5637664794922,images/test\fhrs_3_en-GB.png
Lakers,Restaurant/Cafe/Canteen,RM6 6PS,4,fhrs_4_en-GB,2024-10-25,Barking and Dagenham,0.132721,51.571009,images/test\fhrs_4_en-GB.png
Lara Grill,Restaurant/Cafe/Canteen,RM8 1BJ,5,fhrs_5_en-GB,2023-10-14,Barking and Dagenham,0.147331,51.56255,images/test\fhrs_5_en-GB.png
LDF Chicken,Takeaway/sandwich shop,RM8 1YT,5,fhrs_5_en-GB,2023-08-01,Barking and Dagenham,0.123053,51.562039,images/test\fhrs_5_en-GB.png
Lezet Kebab House,Takeaway/sandwich shop,RM8 1YX,1,fhrs_1_en-GB,2024-12-04,Barking and Dagenham,0.119985,51.562769,images/test\fhrs_1_en-GB.png
Lick'n Chick'n & Pizza,Takeaway/sandwich shop,RM10 9LS,2,fhrs_2_en-GB,2023-09-04,Barking and Dagenham,0.153941,51.529929,images/test\fhrs_2_en-GB.png
London Home Food Limited,Takeaway/sandwich shop,RM10 9JD,4,fhrs_4_en-GB,2024-10-30,Barking and Dagenham,0.151336,51.534006,images/test\fhrs_4_en-GB.png
Lotus House,Takeaway/sandwich shop,RM10 7YA,3,fhrs_3_en-GB,2024-09-04,Barking and Dagenham,0.153637,51.55159,images/test\fhrs_3_en-GB.png
Lucky Inn,Takeaway/sandwich shop,IG11 8UN,5,fhrs_5_en-GB,2023-01-19,Barking and Dagenham,0.093127,51.545329,images/test\fhrs_5_en-GB.png
Magic Doner,Takeaway/sandwich shop,IG11 7NY,5,fhrs_5_en-GB,2024-01-17,Barking and Dagenham,0.082208,51.535837,images/test\fhrs_5_en-GB.png
Mali Restaurant,Restaurant/Cafe/Canteen,IG11 8SF,4,fhrs_4_en-GB,2023-10-21,Barking and Dagenham,0.084551,51.541354,images/test\fhrs_4_en-GB.png
Mama's Peri Peri,Takeaway/sandwich shop,IG11 9PN,5,fhrs_5_en-GB,2023-12-06,Barking and Dagenham,0.094059,51.535788,images/test\fhrs_5_en-GB.png
Mario Grill,Takeaway/sandwich shop,RM10 7YA,4,fhrs_4_en-GB,2024-06-26,Barking and Dagenham,0.153637,51.55159,images/test\fhrs_4_en-GB.png
Maza E Khana,Takeaway/sandwich shop,RM8 1BT,5,fhrs_5_en-GB,2024-04-17,Barking and Dagenham,0.1410107,51.5610839,images/test\fhrs_5_en-GB.png
Mazee's Kitchen,Takeaway/sandwich shop,RM10 7YU,1,fhrs_1_en-GB,2024-03-11,Barking and Dagenham,0.158826,51.551494,images/test\fhrs_1_en-GB.png
McDonalds,Restaurant/Cafe/Canteen,RM8 1AT,5,fhrs_5_en-GB,2024-03-27,Barking and Dagenham,0.14601065,51.56493913,images/test\fhrs_5_en-GB.png
McDonalds,Takeaway/sandwich shop,RM10 9LU,5,fhrs_5_en-GB,2023-11-11,Barking and Dagenham,0.1552903,51.5292393,images/test\fhrs_5_en-GB.png
McDonald's,Restaurant/Cafe/Canteen,RM6 5QT,5,fhrs_5_en-GB,2024-08-01,Barking and Dagenham,0.14259,51.59091,images/test\fhrs_5_en-GB.png
McDonald's,Takeaway/sandwich shop,RM10 8TX,5,fhrs_5_en-GB,2024-10-26,Barking and Dagenham,0.1599011,51.5482676,images/test\fhrs_5_en-GB.png
McDonalds Restaurants LTD,Restaurant/Cafe/Canteen,RM9 6UQ,5,fhrs_5_en-GB,2024-08-28,Barking and Dagenham,0.1367114,51.5318274,images/test\fhrs_5_en-GB.png
McDonald's Restaurants Ltd,Restaurant/Cafe/Canteen,RM8 1AT,5,fhrs_5_en-GB,2024-07-31,Barking and Dagenham,0.144977,51.566505,images/test\fhrs_5_en-GB.png
Menoa Restaurant,Restaurant/Cafe/Canteen,RM5 2BH,5,fhrs_5_en-GB,2024-06-22,Barking and Dagenham,0.147456,51.595516,images/test\fhrs_5_en-GB.png
Merhaba,Restaurant/Cafe/Canteen,RM8 1XU,1,fhrs_1_en-GB,2024-03-12,Barking and Dagenham,0.1213672,51.5627892,images/test\fhrs_1_en-GB.png
Metro’s,Restaurant/Cafe/Canteen,RM8 1BB,4,fhrs_4_en-GB,2024-06-19,Barking and Dagenham,0.146641,51.56384,images/test\fhrs_4_en-GB.png
MGP,Restaurant/Cafe/Canteen,IG11 8TN,4,fhrs_4_en-GB,2023-12-27,Barking and Dagenham,0.081962,51.54024,images/test\fhrs_4_en-GB.png
Milano Pizza,Takeaway/sandwich shop,RM8 3UH,5,fhrs_5_en-GB,2024-11-16,Barking and Dagenham,0.1292488,51.5588516,images/test\fhrs_5_en-GB.png
Millenium Centre Cafe,Restaurant/Cafe/Canteen,RM7 0SS,5,fhrs_5_en-GB,2020-10-15,Barking and Dagenham,0.181715995073318,51.5550727844238,images/test\fhrs_5_en-GB.png
Millennium Cafe,Restaurant/Cafe/Canteen,RM8 1BJ,3,fhrs_3_en-GB,2024-11-02,Barking and Dagenham,0.147331,51.56255,images/test\fhrs_3_en-GB.png
Millions Pizza,Restaurant/Cafe/Canteen,RM6 6PU,3,fhrs_3_en-GB,2023-12-19,Barking and Dagenham,0.1310464,51.5710763,images/test\fhrs_3_en-GB.png
Mirravale Kitchen,Takeaway/sandwich shop,RM8 1YY,4,fhrs_4_en-GB,2022-04-28,Barking and Dagenham,0.1393468,51.5680567,images/test\fhrs_4_en-GB.png
Mississippi Chicken & Pizza,Takeaway/sandwich shop,RM10 7YA,5,fhrs_5_en-GB,2024-06-25,Barking and Dagenham,0.153637,51.55159,images/test\fhrs_5_en-GB.png
MML Lounge,Restaurant/Cafe/Canteen,RM10 7YT,3,fhrs_3_en-GB,2024-10-26,Barking and Dagenham,0.15517,51.551373,images/test\fhrs_3_en-GB.png
MNM Pizza and grill,Takeaway/sandwich shop,RM10 9HX,4,fhrs_4_en-GB,2024-06-20,Barking and Dagenham,0.151302,51.534807,images/test\fhrs_4_en-GB.png
Monsoon Grill,Takeaway/sandwich shop,IG11 0NZ,3,fhrs_3_en-GB,2024-11-02,Barking and Dagenham,0.104667,51.5288,images/test\fhrs_3_en-GB.png
Moon Pizza,Takeaway/sandwich shop,RM10 9HX,2,fhrs_2_en-GB,2024-08-28,Barking and Dagenham,0.151302,51.534807,images/test\fhrs_2_en-GB.png
Morley's,Takeaway/sandwich shop,RM10 7UB,3,fhrs_3_en-GB,2024-03-08,Barking and Dagenham,0.162132,51.552171,images/test\fhrs_3_en-GB.png
Mr Wong Chinese,Takeaway/sandwich shop,RM8 3UA,5,fhrs_5_en-GB,2023-12-15,Barking and Dagenham,0.130771,51.558626,images/test\fhrs_5_en-GB.png
Munchies,Takeaway/sandwich shop,IG11 7PG,3,fhrs_3_en-GB,2024-08-08,Barking and Dagenham,0.081059,51.536569,images/test\fhrs_3_en-GB.png
Munchin,Restaurant/Cafe/Canteen,RM6 5NR,4,fhrs_4_en-GB,2024-02-14,Barking and Dagenham,0.135302,51.58482,images/test\fhrs_4_en-GB.png
Myla's Cafe and Restaurant,Restaurant/Cafe/Canteen,RM8 2UA,1,fhrs_1_en-GB,2024-05-23,Barking and Dagenham,0.117096,51.553684,images/test\fhrs_1_en-GB.png
Nali Restaurant,Restaurant/Cafe/Canteen,IG11 7NT,4,fhrs_4_en-GB,2024-08-31,Barking and Dagenham,0.0817733,51.5364935,images/test\fhrs_4_en-GB.png
Nando's Chickenland Ltd,Restaurant/Cafe/Canteen,IG11 8RR,5,fhrs_5_en-GB,2023-10-21,Barking and Dagenham,0.082424,51.539935,images/test\fhrs_5_en-GB.png
Nebula,Restaurant/Cafe/Canteen,RM6 6LS,1,fhrs_1_en-GB,2024-04-19,Barking and Dagenham,0.1413805,51.5720305,images/test\fhrs_1_en-GB.png
Nefis Charcoal Grill,Restaurant/Cafe/Canteen,IG11 9RS,5,fhrs_5_en-GB,2023-03-01,Barking and Dagenham,0.094299,51.535362,images/test\fhrs_5_en-GB.png
New Blossom Garden,Takeaway/sandwich shop,IG11 9RS,4,fhrs_4_en-GB,2024-06-21,Barking and Dagenham,0.094299,51.535362,images/test\fhrs_4_en-GB.png
New Central,Takeaway/sandwich shop,RM6 5NR,4,fhrs_4_en-GB,2022-08-06,Barking and Dagenham,0.135302,51.58482,images/test\fhrs_4_en-GB.png
New China Gold,Takeaway/sandwich shop,RM8 1DJ,5,fhrs_5_en-GB,2023-11-04,Barking and Dagenham,0.140758,51.561457,images/test\fhrs_5_en-GB.png
New Year Chinese,Takeaway/sandwich shop,RM8 2UB,3,fhrs_3_en-GB,2024-05-22,Barking and Dagenham,0.1149836,51.5520772,images/test\fhrs_3_en-GB.png
Nondi Pur Indian Kitchen,Restaurant/Cafe/Canteen,RM8 1DJ,5,fhrs_5_en-GB,2024-08-21,Barking and Dagenham,0.140757,51.561456,images/test\fhrs_5_en-GB.png
Nylah's Grill,Takeaway/sandwich shop,IG11 8AW,3,fhrs_3_en-GB,2024-04-20,Barking and Dagenham,0.0766574,51.5367529,images/test\fhrs_3_en-GB.png
Oak Tree Cafe,Restaurant/Cafe/Canteen,RM8 2DA,5,fhrs_5_en-GB,2023-08-26,Barking and Dagenham,0.115118,51.551787,images/test\fhrs_5_en-GB.png
One Love Caribbean Restaurant,Restaurant/Cafe/Canteen,RM6 6LU,4,fhrs_4_en-GB,2024-01-20,Barking and Dagenham,0.140266,51.5719608,images/test\fhrs_4_en-GB.png
Orange & Lemon Barking,Takeaway/sandwich shop,IG11 8LQ,5,fhrs_5_en-GB,2019-10-17,Barking and Dagenham,0.0706939995288849,51.5395774841309,images/test\fhrs_5_en-GB.png
Orange Restaurant & Bar,Restaurant/Cafe/Canteen,RM10 9LS,5,fhrs_5_en-GB,2024-09-07,Barking and Dagenham,0.153941,51.529929,images/test\fhrs_5_en-GB.png
Oriental Chef,Takeaway/sandwich shop,RM8 3UB,5,fhrs_5_en-GB,2024-06-21,Barking and Dagenham,0.129392,51.558435,images/test\fhrs_5_en-GB.png
Original Fried Chicken,Takeaway/sandwich shop,RM6 6LS,1,fhrs_1_en-GB,2024-06-04,Barking and Dagenham,0.141192,51.571934,images/test\fhrs_1_en-GB.png
Original Sizzling Chicken,Restaurant/Cafe/Canteen,RM6 6LS,1,fhrs_1_en-GB,2024-10-19,Barking and Dagenham,0.141192,51.571934,images/test\fhrs_1_en-GB.png
Oruci Coffe & Grill,Restaurant/Cafe/Canteen,RM8 3XU,4,fhrs_4_en-GB,2023-07-13,Barking and Dagenham,0.1242426,51.5616401,images/test\fhrs_4_en-GB.png
Osborne Centre,Restaurant/Cafe/Canteen,RM9 5AU,5,fhrs_5_en-GB,2023-09-29,Barking and Dagenham,0.144272,51.550286,images/test\fhrs_5_en-GB.png
Palwan Da Dera,Restaurant/Cafe/Canteen,RM8 1UT,3,fhrs_3_en-GB,2023-12-09,Barking and Dagenham,0.125023,51.561904,images/test\fhrs_3_en-GB.png
Papa Johns,Takeaway/sandwich shop,RM9 5AQ,5,fhrs_5_en-GB,2024-10-19,Barking and Dagenham,0.1476318,51.5426714,images/test\fhrs_5_en-GB.png
Papas Peri Peri Grill,Takeaway/sandwich shop,RM8 1YX,2,fhrs_2_en-GB,2022-04-10,Barking and Dagenham,0.119985,51.562769,images/test\fhrs_2_en-GB.png
Paprika Indian,Takeaway/sandwich shop,RM6 6PP,4,fhrs_4_en-GB,2024-10-21,Barking and Dagenham,0.133509,51.571184,images/test\fhrs_4_en-GB.png
Parsloes Park Hub,Restaurant/Cafe/Canteen,RM9 5PU,5,fhrs_5_en-GB,2024-03-16,Barking and Dagenham,0.1412986,51.5450893,images/test\fhrs_5_en-GB.png
Paul's Fish Bar,Takeaway/sandwich shop,RM8 3UA,3,fhrs_3_en-GB,2024-10-30,Barking and Dagenham,0.130771,51.558626,images/test\fhrs_3_en-GB.png
Peach Garden,Takeaway/sandwich shop,RM10 7UU,5,fhrs_5_en-GB,2024-03-11,Barking and Dagenham,0.161954,51.550546,images/test\fhrs_5_en-GB.png
Peri Peri Paradise,Takeaway/sandwich shop,RM6 6NY,3,fhrs_3_en-GB,2024-10-25,Barking and Dagenham,0.1410475,51.5723153,images/test\fhrs_3_en-GB.png
Pietros,Restaurant/Cafe/Canteen,RM10 9RR,5,fhrs_5_en-GB,2023-09-01,Barking and Dagenham,0.156728,51.540076,images/test\fhrs_5_en-GB.png
Pimento Hill Ltd,Takeaway/sandwich shop,IG11 7BT,5,fhrs_5_en-GB,2024-12-12,Barking and Dagenham,0.075739,51.532157,images/test\fhrs_5_en-GB.png
Pitta Santorini,Takeaway/sandwich shop,IG11 8SF,5,fhrs_5_en-GB,2024-08-09,Barking and Dagenham,0.0839997,51.5410403,images/test\fhrs_5_en-GB.png
Pizza Avenue,Takeaway/sandwich shop,RM10 8DP,5,fhrs_5_en-GB,2024-07-20,Barking and Dagenham,0.149161,51.542931,images/test\fhrs_5_en-GB.png
Pizza di Lengo,Restaurant/Cafe/Canteen,IG11 8SF,5,fhrs_5_en-GB,2023-05-11,Barking and Dagenham,0.0848724,51.5415194,images/test\fhrs_5_en-GB.png
Pizza Franco,Takeaway/sandwich shop,RM9 4QS,3,fhrs_3_en-GB,2024-11-22,Barking and Dagenham,0.110777,51.534985,images/test\fhrs_3_en-GB.png
Pizza Go Go,Takeaway/sandwich shop,RM10 9RR,5,fhrs_5_en-GB,2023-09-01,Barking and Dagenham,0.156728,51.540076,images/test\fhrs_5_en-GB.png
Pizza Go Go,Takeaway/sandwich shop,IG11 8TG,4,fhrs_4_en-GB,2024-02-22,Barking and Dagenham,0.083845,51.541366,images/test\fhrs_4_en-GB.png
Pizza Hut,Takeaway/sandwich shop,RM8 3RA,5,fhrs_5_en-GB,2022-07-12,Barking and Dagenham,0.130376,51.560351,images/test\fhrs_5_en-GB.png
Pizza Hut,Takeaway/sandwich shop,IG11 8TB,4,fhrs_4_en-GB,2022-07-15,Barking and Dagenham,0.084452,51.541715,images/test\fhrs_4_en-GB.png
Pizza Hut Delivery,Takeaway/sandwich shop,RM10 9HP,5,fhrs_5_en-GB,2022-07-12,Barking and Dagenham,0.150838,51.536587,images/test\fhrs_5_en-GB.png
Popeye's Fish & Chicken,Takeaway/sandwich shop,RM9 4NU,5,fhrs_5_en-GB,2024-02-17,Barking and Dagenham,0.127082,51.541094,images/test\fhrs_5_en-GB.png
Poppins Restaurant.,Restaurant/Cafe/Canteen,IG11 8EN,5,fhrs_5_en-GB,2023-12-04,Barking and Dagenham,0.078877,51.537722,images/test\fhrs_5_en-GB.png
Premier Inn,Restaurant/Cafe/Canteen,IG11 7BA,5,fhrs_5_en-GB,2023-12-04,Barking and Dagenham,0.071487,51.534391,images/test\fhrs_5_en-GB.png
Queens Fish & Kebab Bar,Takeaway/sandwich shop,RM10 7YA,5,fhrs_5_en-GB,2023-09-26,Barking and Dagenham,0.153637,51.55159,images/test\fhrs_5_en-GB.png
RAHAN CAFES LTD,Restaurant/Cafe/Canteen,IG11 8TN,4,fhrs_4_en-GB,2024-04-30,Barking and Dagenham,0.0821739,51.5402184,images/test\fhrs_4_en-GB.png
RCCG Jesus Church of God,Takeaway/sandwich shop,RM10 8PS,3,fhrs_3_en-GB,2023-02-03,Barking and Dagenham,0.156621,51.549718,images/test\fhrs_3_en-GB.png
Red Rooster,Takeaway/sandwich shop,RM10 8QS,5,fhrs_5_en-GB,2024-07-20,Barking and Dagenham,0.14813,51.541852,images/test\fhrs_5_en-GB.png
Ritchies Cafe Ltd,Restaurant/Cafe/Canteen,IG11 8UN,4,fhrs_4_en-GB,2024-06-20,Barking and Dagenham,0.093127,51.545329,images/test\fhrs_4_en-GB.png
Ritchies Fresh Bake,Takeaway/sandwich shop,IG11 8UN,5,fhrs_5_en-GB,2020-09-09,Barking and Dagenham,0.093127,51.545329,images/test\fhrs_5_en-GB.png
River Restaurant,Restaurant/Cafe/Canteen,IG11 0EG,5,fhrs_5_en-GB,2024-04-01,Barking and Dagenham,0.101981,51.516195,images/test\fhrs_5_en-GB.png
Rivers of Joy,Takeaway/sandwich shop,IG11 7FN,5,fhrs_5_en-GB,2022-08-11,Barking and Dagenham,0.0825251,51.5355899,images/test\fhrs_5_en-GB.png
Roadhouse Grill Ltd,Takeaway/sandwich shop,RM6 6AP,4,fhrs_4_en-GB,2024-01-19,Barking and Dagenham,0.142921,51.572181,images/test\fhrs_4_en-GB.png
Robin Hood Fish Bar,Takeaway/sandwich shop,RM8 2JA,4,fhrs_4_en-GB,2024-06-22,Barking and Dagenham,0.113481,51.550701,images/test\fhrs_4_en-GB.png
Robin Hood Fish Bar Ozzy's Crew,Takeaway/sandwich shop,RM8 2JA,4,fhrs_4_en-GB,2022-11-01,Barking and Dagenham,0.113481,51.550701,images/test\fhrs_4_en-GB.png
Romanian Traditional Food,Takeaway/sandwich shop,IG11 7LU,4,fhrs_4_en-GB,2024-03-01,Barking and Dagenham,0.078698,51.536025,images/test\fhrs_4_en-GB.png
Romford Fish & Chips,Takeaway/sandwich shop,RM6 6LU,3,fhrs_3_en-GB,2024-06-22,Barking and Dagenham,0.14008,51.571918,images/test\fhrs_3_en-GB.png
Rosielee Cafe & Restaurant,Restaurant/Cafe/Canteen,RM10 9HX,5,fhrs_5_en-GB,2022-08-11,Barking and Dagenham,0.1513108,51.5350499,images/test\fhrs_5_en-GB.png
Royal Dhaba Catering,Restaurant/Cafe/Canteen,IG11 0EY,5,fhrs_5_en-GB,2023-07-13,Barking and Dagenham,0.093188,51.529069,images/test\fhrs_5_en-GB.png
Royal Dolphin,Takeaway/sandwich shop,RM8 3NH,5,fhrs_5_en-GB,2024-02-23,Barking and Dagenham,0.142421,51.554493,images/test\fhrs_5_en-GB.png
Royal Fish Bar,Takeaway/sandwich shop,RM9 6BU,5,fhrs_5_en-GB,2023-09-23,Barking and Dagenham,0.129311,51.539093,images/test\fhrs_5_en-GB.png
Royal Spice,Takeaway/sandwich shop,RM10 9HX,5,fhrs_5_en-GB,2024-09-03,Barking and Dagenham,0.1513303,51.5348517,images/test\fhrs_5_en-GB.png
Royal Wings Hut,Takeaway/sandwich shop,RM10 7UP,1,fhrs_1_en-GB,2024-08-31,Barking and Dagenham,0.164409,51.552425,images/test\fhrs_1_en-GB.png
Royale Lahore,Takeaway/sandwich shop,RM10 8YS,4,fhrs_4_en-GB,2024-07-31,Barking and Dagenham,0.165833,51.540807,images/test\fhrs_4_en-GB.png
RS Chicken,Takeaway/sandwich shop,RM8 1UU,5,fhrs_5_en-GB,2022-09-13,Barking and Dagenham,0.122884,51.562447,images/test\fhrs_5_en-GB.png
Rs Chicken & Pizza,Takeaway/sandwich shop,RM8 2AR,3,fhrs_3_en-GB,2024-11-22,Barking and Dagenham,0.110629,51.551418,images/test\fhrs_3_en-GB.png
Sahara Parkside Ltd,Restaurant/Cafe/Canteen,IG11 8TB,4,fhrs_4_en-GB,2024-10-30,Barking and Dagenham,0.084452,51.541715,images/test\fhrs_4_en-GB.png
Saint Chads Church,Restaurant/Cafe/Canteen,RM6 6JB,4,fhrs_4_en-GB,2023-10-17,Barking and Dagenham,0.135777,51.570944,images/test\fhrs_4_en-GB.png
Samosa King,Takeaway/sandwich shop,RM6 6YU,4,fhrs_4_en-GB,2023-08-05,Barking and Dagenham,0.135516,51.579223,images/test\fhrs_4_en-GB.png
Sanaaz Kitchen Ltd,Takeaway/sandwich shop,IG11 0JP,1,fhrs_1_en-GB,2024-08-28,Barking and Dagenham,0.1036108,51.5253575,images/test\fhrs_1_en-GB.png
Sanjha Chulha,Restaurant/Cafe/Canteen,RM8 1YT,4,fhrs_4_en-GB,2024-06-22,Barking and Dagenham,0.123053,51.562039,images/test\fhrs_4_en-GB.png
Saphire Restaurant,Restaurant/Cafe/Canteen,RM8 1YT,2,fhrs_2_en-GB,2023-10-07,Barking and Dagenham,0.123053,51.562039,images/test\fhrs_2_en-GB.png
Say Cafe,Restaurant/Cafe/Canteen,RM8 1BB,4,fhrs_4_en-GB,2024-03-12,Barking and Dagenham,0.146641,51.56384,images/test\fhrs_4_en-GB.png
sck,Restaurant/Cafe/Canteen,RM8 1BB,5,fhrs_5_en-GB,2024-10-05,Barking and Dagenham,0.146641,51.56384,images/test\fhrs_5_en-GB.png
Seahorse Fish & Chips Shop,Takeaway/sandwich shop,RM9 5SL,3,fhrs_3_en-GB,2024-07-27,Barking and Dagenham,0.131881,51.551807,images/test\fhrs_3_en-GB.png
Sinani Caffe Ltd,Restaurant/Cafe/Canteen,RM8 2AJ,5,fhrs_5_en-GB,2024-03-07,Barking and Dagenham,0.115259,51.551406,images/test\fhrs_5_en-GB.png
Smokey Flame BBQ,Restaurant/Cafe/Canteen,RM9 4ND,5,fhrs_5_en-GB,2023-12-18,Barking and Dagenham,0.113899,51.541359,images/test\fhrs_5_en-GB.png
Snack Bar,Restaurant/Cafe/Canteen,RM9 5AW,4,fhrs_4_en-GB,2023-09-30,Barking and Dagenham,0.147668,51.541222,images/test\fhrs_4_en-GB.png
Spice Bite,Restaurant/Cafe/Canteen,IG11 8UN,5,fhrs_5_en-GB,2024-01-17,Barking and Dagenham,0.093127,51.545329,images/test\fhrs_5_en-GB.png
Spice Box,Restaurant/Cafe/Canteen,IG11 8UN,2,fhrs_2_en-GB,2024-08-31,Barking and Dagenham,0.093126,51.545328,images/test\fhrs_2_en-GB.png
Spice Hut,Restaurant/Cafe/Canteen,RM6 6PU,4,fhrs_4_en-GB,2024-09-23,Barking and Dagenham,0.1310294,51.5710226,images/test\fhrs_4_en-GB.png
Spice Hut,Takeaway/sandwich shop,IG11 7PG,5,fhrs_5_en-GB,2022-09-16,Barking and Dagenham,0.081059,51.536569,images/test\fhrs_5_en-GB.png
Spice Hut,Restaurant/Cafe/Canteen,RM10 7YA,5,fhrs_5_en-GB,2023-12-18,Barking and Dagenham,0.1540199,51.5515114,images/test\fhrs_5_en-GB.png
Star Pizza & Kebab,Takeaway/sandwich shop,RM6 6UP,3,fhrs_3_en-GB,2023-01-25,Barking and Dagenham,0.136624,51.574221,images/test\fhrs_3_en-GB.png
Starbucks,Restaurant/Cafe/Canteen,IG11 8EB,5,fhrs_5_en-GB,2022-06-06,Barking and Dagenham,0.0806381,51.5391125,images/test\fhrs_5_en-GB.png
Starbucks,Takeaway/sandwich shop,RM10 8RE,5,fhrs_5_en-GB,2021-06-13,Barking and Dagenham,0.148971006274223,51.5410919189453,images/test\fhrs_5_en-GB.png
Subway,Restaurant/Cafe/Canteen,RM9 6FH,5,fhrs_5_en-GB,2024-08-21,Barking and Dagenham,0.1447381,51.5301901,images/test\fhrs_5_en-GB.png
Subway,Restaurant/Cafe/Canteen,RM9 5AQ,5,fhrs_5_en-GB,2024-03-23,Barking and Dagenham,0.147452995181084,51.5424766540527,images/test\fhrs_5_en-GB.png
Subway,Takeaway/sandwich shop,IG11 8DH,4,fhrs_4_en-GB,2024-06-15,Barking and Dagenham,0.081221,51.537905,images/test\fhrs_4_en-GB.png
Sunflower,Takeaway/sandwich shop,RM8 3HH,3,fhrs_3_en-GB,2024-11-29,Barking and Dagenham,0.146297,51.560213,images/test\fhrs_3_en-GB.png
Sunny's Cafe,Restaurant/Cafe/Canteen,IG11 0RJ,5,fhrs_5_en-GB,2023-12-06,Barking and Dagenham,0.120667,51.53121,images/test\fhrs_5_en-GB.png
Supercook,Takeaway/sandwich shop,RM8 3NH,4,fhrs_4_en-GB,2024-11-29,Barking and Dagenham,0.142421,51.554493,images/test\fhrs_4_en-GB.png
Suyahut,Restaurant/Cafe/Canteen,IG11 8AG,4,fhrs_4_en-GB,2024-03-23,Barking and Dagenham,0.078065,51.538258,images/test\fhrs_4_en-GB.png
Suyahut,Takeaway/sandwich shop,IG11 8EU,5,fhrs_5_en-GB,2023-05-04,Barking and Dagenham,0.0777588,51.5363668,images/test\fhrs_5_en-GB.png
Sweet London,Restaurant/Cafe/Canteen,IG11 8RT,4,fhrs_4_en-GB,2022-04-01,Barking and Dagenham,0.083067,51.540427,images/test\fhrs_4_en-GB.png
Sweet Treats & Loads to eat,Takeaway/sandwich shop,RM8 2JA,3,fhrs_3_en-GB,2024-10-25,Barking and Dagenham,0.1135564,51.5514734,images/test\fhrs_3_en-GB.png
Take a Break,Restaurant/Cafe/Canteen,RM10 7YX,3,fhrs_3_en-GB,2023-11-11,Barking and Dagenham,0.15478,51.551047,images/test\fhrs_3_en-GB.png
Tandoori Hut,Takeaway/sandwich shop,RM6 5NR,4,fhrs_4_en-GB,2023-05-29,Barking and Dagenham,0.135302,51.58482,images/test\fhrs_4_en-GB.png
Tasty African Food,Restaurant/Cafe/Canteen,RM8 1YT,5,fhrs_5_en-GB,2024-11-01,Barking and Dagenham,0.123053,51.562039,images/test\fhrs_5_en-GB.png
Tasty African Restaurant,Restaurant/Cafe/Canteen,IG11 8TG,3,fhrs_3_en-GB,2023-08-26,Barking and Dagenham,0.083845,51.541366,images/test\fhrs_3_en-GB.png
Tasty Chicken,Restaurant/Cafe/Canteen,RM10 9RR,5,fhrs_5_en-GB,2023-05-29,Barking and Dagenham,0.156727,51.540075,images/test\fhrs_5_en-GB.png
Tasty Chicken and Pizza,Takeaway/sandwich shop,IG11 7NY,5,fhrs_5_en-GB,2023-09-22,Barking and Dagenham,0.082208,51.535838,images/test\fhrs_5_en-GB.png
Tasty Chicken and Ribs,Takeaway/sandwich shop,RM9 4ND,1,fhrs_1_en-GB,2024-02-28,Barking and Dagenham,0.113899,51.541359,images/test\fhrs_1_en-GB.png
Taz Kitchen,Restaurant/Cafe/Canteen,RM10 9HP,4,fhrs_4_en-GB,2023-09-07,Barking and Dagenham,0.1513383,51.5365512,images/test\fhrs_4_en-GB.png
TBC DESSERTS,Restaurant/Cafe/Canteen,RM9 6UR,5,fhrs_5_en-GB,2019-03-02,Barking and Dagenham,0.1472915,51.5320659,images/test\fhrs_5_en-GB.png
Thai & Pie,Takeaway/sandwich shop,RM6 6NX,5,fhrs_5_en-GB,2024-10-25,Barking and Dagenham,0.135093,51.571425,images/test\fhrs_5_en-GB.png
Thames Cafe,Takeaway/sandwich shop,IG11 0DA,4,fhrs_4_en-GB,2024-01-18,Barking and Dagenham,0.095691,51.5243032,images/test\fhrs_4_en-GB.png
Thames View Welcome Store,Takeaway/sandwich shop,IG11 0NY,2,fhrs_2_en-GB,2024-08-24,Barking and Dagenham,0.104121,51.528837,images/test\fhrs_2_en-GB.png
The Big Friendly Coffee (BFC),Restaurant/Cafe/Canteen,IG11 8UD,3,fhrs_3_en-GB,2024-08-31,Barking and Dagenham,0.0927530005574226,51.5469703674316,images/test\fhrs_3_en-GB.png
The BoatHouse Cafe,Restaurant/Cafe/Canteen,IG11 7BT,5,fhrs_5_en-GB,2024-01-25,Barking and Dagenham,0.075739,51.532157,images/test\fhrs_5_en-GB.png
The Chinese Gourmet Ltd,Takeaway/sandwich shop,RM8 1XU,5,fhrs_5_en-GB,2024-06-22,Barking and Dagenham,0.120558,51.562992,images/test\fhrs_5_en-GB.png
The Clay Oven,Takeaway/sandwich shop,RM8 1BB,5,fhrs_5_en-GB,2024-06-19,Barking and Dagenham,0.146641,51.56384,images/test\fhrs_5_en-GB.png
The Exchange,Restaurant/Cafe/Canteen,IG11 0YP,4,fhrs_4_en-GB,2024-04-20,Barking and Dagenham,0.1188342,51.5187004,images/test\fhrs_4_en-GB.png
The Fish Inn,Takeaway/sandwich shop,IG11 7PR,4,fhrs_4_en-GB,2023-09-21,Barking and Dagenham,0.085834,51.534083,images/test\fhrs_4_en-GB.png
The General Shish,Restaurant/Cafe/Canteen,RM8 2AR,5,fhrs_5_en-GB,2022-07-16,Barking and Dagenham,0.110629,51.551417,images/test\fhrs_5_en-GB.png
THE INDIANISH LTD / TIGER BURGER / PIZZA KING / TURBO WINGS / BOMBAY T,Takeaway/sandwich shop,IG11 0JP,5,fhrs_5_en-GB,2024-04-17,Barking and Dagenham,0.1048944,51.5253705,images/test\fhrs_5_en-GB.png
The Junakee Tandoori,Takeaway/sandwich shop,IG11 8AA,3,fhrs_3_en-GB,2024-06-11,Barking and Dagenham,0.078572,51.537997,images/test\fhrs_3_en-GB.png
The Lab Cafe,Restaurant/Cafe/Canteen,RM10 7FN,5,fhrs_5_en-GB,2023-11-07,Barking and Dagenham,0.165728002786636,51.5459060668945,images/test\fhrs_5_en-GB.png
The Perfect Fried Chicken,Takeaway/sandwich shop,RM8 2TS,5,fhrs_5_en-GB,2023-08-28,Barking and Dagenham,0.11904,51.55516,images/test\fhrs_5_en-GB.png
The PIZZERT & Grill Ltd,Takeaway/sandwich shop,RM8 1BJ,5,fhrs_5_en-GB,2024-03-27,Barking and Dagenham,0.1475166,51.5622871,images/test\fhrs_5_en-GB.png
The Prayerhouse Church International,Takeaway/sandwich shop,RM9 4UN,5,fhrs_5_en-GB,2024-04-21,Barking and Dagenham,0.1259378,51.5326976,images/test\fhrs_5_en-GB.png
The Round House Chinese Take Away,Takeaway/sandwich shop,RM9 4ND,5,fhrs_5_en-GB,2023-10-05,Barking and Dagenham,0.1142179,51.5414706,images/test\fhrs_5_en-GB.png
The Sip House,Restaurant/Cafe/Canteen,RM9 6FH,1,fhrs_1_en-GB,2024-06-24,Barking and Dagenham,0.1447381,51.5301901,images/test\fhrs_1_en-GB.png
The Source - Pitstop,Restaurant/Cafe/Canteen,IG11 7NB,4,fhrs_4_en-GB,2023-10-19,Barking and Dagenham,0.0797889977693558,51.5362319946289,images/test\fhrs_4_en-GB.png
The Toby Carvery,Restaurant/Cafe/Canteen,RM6 6QU,5,fhrs_5_en-GB,2024-03-22,Barking and Dagenham,0.140444,51.580581,images/test\fhrs_5_en-GB.png
The Vibe (Studio),Restaurant/Cafe/Canteen,RM8 3BX,5,fhrs_5_en-GB,2020-11-02,Barking and Dagenham,0.127532,51.558774,images/test\fhrs_5_en-GB.png
Timmis Ltd,Restaurant/Cafe/Canteen,IG11 7JA,4,fhrs_4_en-GB,2024-01-17,Barking and Dagenham,0.0778706,51.5309062,images/test\fhrs_4_en-GB.png
Top Deck Fish Bar,Takeaway/sandwich shop,IG11 8ED,4,fhrs_4_en-GB,2024-06-15,Barking and Dagenham,0.079936,51.538495,images/test\fhrs_4_en-GB.png
Top Diamond,Restaurant/Cafe/Canteen,IG11 8TN,5,fhrs_5_en-GB,2023-12-27,Barking and Dagenham,0.081962,51.54024,images/test\fhrs_5_en-GB.png
Top Dixie Chicken,Takeaway/sandwich shop,RM9 5PA,5,fhrs_5_en-GB,2023-10-06,Barking and Dagenham,0.147065,51.543131,images/test\fhrs_5_en-GB.png
Troy Cafe & Restaurant,Restaurant/Cafe/Canteen,RM8 1YT,4,fhrs_4_en-GB,2024-11-23,Barking and Dagenham,0.123053,51.562039,images/test\fhrs_4_en-GB.png
Tuckin Cafe,Takeaway/sandwich shop,IG11 0TJ,3,fhrs_3_en-GB,2023-01-04,Barking and Dagenham,0.10247,51.532769,images/test\fhrs_3_en-GB.png
Tulip Tree Tearoom,Restaurant/Cafe/Canteen,RM8 3HT,5,fhrs_5_en-GB,2023-11-14,Barking and Dagenham,0.13403,51.558593,images/test\fhrs_5_en-GB.png
Unc Saucy,Restaurant/Cafe/Canteen,IG11 0EQ,5,fhrs_5_en-GB,2023-10-24,Barking and Dagenham,0.10422601,51.51676791,images/test\fhrs_5_en-GB.png
Uncle Johns Kebab & Pizza House,Takeaway/sandwich shop,RM10 7LU,3,fhrs_3_en-GB,2023-10-14,Barking and Dagenham,0.151327,51.55674,images/test\fhrs_3_en-GB.png
Upney Fish Bar,Takeaway/sandwich shop,IG11 9JP,5,fhrs_5_en-GB,2023-05-11,Barking and Dagenham,0.101339,51.539813,images/test\fhrs_5_en-GB.png
Upper Grill Restaurant & Coffee Bar,Restaurant/Cafe/Canteen,RM8 1DJ,4,fhrs_4_en-GB,2021-11-19,Barking and Dagenham,0.140757,51.561456,images/test\fhrs_4_en-GB.png
Ur Chef,Restaurant/Cafe/Canteen,RM9 5YX,3,fhrs_3_en-GB,2023-10-06,Barking and Dagenham,0.1248636,51.5457585,images/test\fhrs_3_en-GB.png
Vending,Restaurant/Cafe/Canteen,RM9 6SA,5,fhrs_5_en-GB,2023-12-07,Barking and Dagenham,0.1516892,51.5121739,images/test\fhrs_5_en-GB.png
Ventidue LTD,Restaurant/Cafe/Canteen,RM10 9LH,5,fhrs_5_en-GB,2023-10-13,Barking and Dagenham,0.152281001210213,51.5329360961914,images/test\fhrs_5_en-GB.png
Vida & Sons Bistro,Restaurant/Cafe/Canteen,RM9 6UR,5,fhrs_5_en-GB,2023-09-09,Barking and Dagenham,0.146885,51.532253,images/test\fhrs_5_en-GB.png
Vidavina Kitchen,Takeaway/sandwich shop,RM8 1SL,4,fhrs_4_en-GB,2023-08-09,Barking and Dagenham,0.1334112,51.5642528,images/test\fhrs_4_en-GB.png
Viv's Snacks,Takeaway/sandwich shop,RM7 0SS,5,fhrs_5_en-GB,2019-07-13,Barking and Dagenham,0.177623003721237,51.5534057617188,images/test\fhrs_5_en-GB.png
Vue Cinema,Restaurant/Cafe/Canteen,RM9 6UQ,5,fhrs_5_en-GB,2023-09-16,Barking and Dagenham,0.135769,51.532573,images/test\fhrs_5_en-GB.png
West Ham Training Ground,Restaurant/Cafe/Canteen,RM6 6DT,4,fhrs_4_en-GB,2024-03-28,Barking and Dagenham,0.144394,51.570671,images/test\fhrs_4_en-GB.png
Whap Whap Kitchen,Takeaway/sandwich shop,RM9 4ND,5,fhrs_5_en-GB,2023-11-24,Barking and Dagenham,0.1140717,51.5414283,images/test\fhrs_5_en-GB.png
WingFixx Ltd,Restaurant/Cafe/Canteen,IG11 8QA,5,fhrs_5_en-GB,2023-05-10,Barking and Dagenham,0.0779828,51.5435031,images/test\fhrs_5_en-GB.png
Wings Roulette - Barking,Takeaway/sandwich shop,IG11 0JP,5,fhrs_5_en-GB,2023-03-04,Barking and Dagenham,0.1036108,51.5253575,images/test\fhrs_5_en-GB.png
Wingsurway,Takeaway/sandwich shop,RM8 1SL,5,fhrs_5_en-GB,2024-03-12,Barking and Dagenham,0.1334112,51.5642528,images/test\fhrs_5_en-GB.png
Wolf,Restaurant/Cafe/Canteen,RM8 3UU,3,fhrs_3_en-GB,2023-07-29,Barking and Dagenham,0.124607,51.552964,images/test\fhrs_3_en-GB.png
Wood Oven,Restaurant/Cafe/Canteen,IG11 8ED,2,fhrs_2_en-GB,2024-10-22,Barking and Dagenham,0.0803731,51.5386766,images/test\fhrs_2_en-GB.png
YMCA Thamesgateway Ltd,Restaurant/Cafe/Canteen,RM7 0PH,5,fhrs_5_en-GB,2024-07-19,Barking and Dagenham,0.184602,51.565045,images/test\fhrs_5_en-GB.png
Yongs Chinese Takeaway,Takeaway/sandwich shop,RM10 8EH,5,fhrs_5_en-GB,2022-08-08,Barking and Dagenham,0.16055,51.545257,images/test\fhrs_5_en-GB.png
Yummy Grill UK Ltd,Takeaway/sandwich shop,RM8 2NT,3,fhrs_3_en-GB,2023-11-22,Barking and Dagenham,0.1294851,51.5515542,images/test\fhrs_3_en-GB.png
01 Cafe Bar And Lounge,Restaurant/Cafe/Canteen,NW4 3XP,4,fhrs_4_en-GB,2021-09-01,Barnet,-0.229332,51.582714,images/test\fhrs_4_en-GB.png
2 Bro's,Takeaway/sandwich shop,N12 0EE,5,fhrs_5_en-GB,2024-12-17,Barnet,-0.176634,51.613695,images/test\fhrs_5_en-GB.png
4 Fratelli Caffe,Restaurant/Cafe/Canteen,HA8 8NP,3,fhrs_3_en-GB,2024-06-27,Barnet,-0.274728,51.6164981,images/test\fhrs_3_en-GB.png
4 In 1,Takeaway/sandwich shop,NW9 6AG,5,fhrs_5_en-GB,2024-12-17,Barnet,-0.240122,51.578398,images/test\fhrs_5_en-GB.png
67 Sourdough,Restaurant/Cafe/Canteen,N2 0NL,4,fhrs_4_en-GB,2024-07-11,Barnet,-0.162292685733203,51.5848837045463,images/test\fhrs_4_en-GB.png
805 Restaurant,Restaurant/Cafe/Canteen,NW4 3XH,4,fhrs_4_en-GB,2024-01-12,Barnet,-0.23049,51.582623,images/test\fhrs_4_en-GB.png
93ºC Coffee,Restaurant/Cafe/Canteen,N3 3LD,5,fhrs_5_en-GB,2022-05-14,Barnet,-0.1990675,51.5948096,images/test\fhrs_5_en-GB.png
Adam's Pizza & Grill,Restaurant/Cafe/Canteen,NW9 7AA,3,fhrs_3_en-GB,2024-03-28,Barnet,-0.23766,51.575996,images/test\fhrs_3_en-GB.png
Ahmed Tandoori,Takeaway/sandwich shop,HA8 9QW,4,fhrs_4_en-GB,2023-10-10,Barnet,-0.261142,51.616784,images/test\fhrs_4_en-GB.png
Ai Sushi,Restaurant/Cafe/Canteen,N12 9RA,3,fhrs_3_en-GB,2023-11-01,Barnet,-0.176588,51.61739,images/test\fhrs_3_en-GB.png
Aladins Kebabish,Restaurant/Cafe/Canteen,NW9 7EA,4,fhrs_4_en-GB,2024-07-22,Barnet,-0.2393,51.576875,images/test\fhrs_4_en-GB.png
Alaz Restaurant,Restaurant/Cafe/Canteen,NW11 0AL,4,fhrs_4_en-GB,2024-06-17,Barnet,-0.200084,51.587952,images/test\fhrs_4_en-GB.png
Alexanders,Restaurant/Cafe/Canteen,N20 0BA,4,fhrs_4_en-GB,2024-03-06,Barnet,-0.156668,51.630217,images/test\fhrs_4_en-GB.png
Alis Charcoal Grill,Takeaway/sandwich shop,HA8 9BX,5,fhrs_5_en-GB,2024-03-12,Barnet,-0.257046,51.610582,images/test\fhrs_5_en-GB.png
Alsdivine Cafe,Restaurant/Cafe/Canteen,NW9 7ED,4,fhrs_4_en-GB,2020-11-24,Barnet,-0.239566,51.577832,images/test\fhrs_4_en-GB.png
AM Bistro Café,Restaurant/Cafe/Canteen,N12 9RT,4,fhrs_4_en-GB,2024-06-04,Barnet,-0.1762502,51.6212369,images/test\fhrs_4_en-GB.png
Amaretto Restaurante & Pizzeria,Restaurant/Cafe/Canteen,NW4 3AS,5,fhrs_5_en-GB,2022-06-12,Barnet,-0.226746,51.583142,images/test\fhrs_5_en-GB.png
Amaretto Ristorante & Pizzeria,Restaurant/Cafe/Canteen,HA8 7JZ,5,fhrs_5_en-GB,2024-09-06,Barnet,-0.275632,51.615982,images/test\fhrs_5_en-GB.png
Amaretto Ristorante Pizzeria,Restaurant/Cafe/Canteen,NW11 8LN,3,fhrs_3_en-GB,2023-06-20,Barnet,-0.198859,51.572925,images/test\fhrs_3_en-GB.png
AMG Costa Fish N Chips,Takeaway/sandwich shop,N10 1HD,4,fhrs_4_en-GB,2024-04-03,Barnet,-0.148229,51.600787,images/test\fhrs_4_en-GB.png
Amin Charcoal & Pizza,Takeaway/sandwich shop,NW9 5XA,4,fhrs_4_en-GB,2023-05-30,Barnet,-0.245009,51.602516,images/test\fhrs_4_en-GB.png
Amnesia / Greek Boys / Korean Crunch,Takeaway/sandwich shop,N20 0RA,4,fhrs_4_en-GB,2024-02-13,Barnet,-0.174928,51.627076,images/test\fhrs_4_en-GB.png
Amors Take Away,Takeaway/sandwich shop,NW11 9NN,3,fhrs_3_en-GB,2024-03-27,Barnet,-0.207422,51.578299,images/test\fhrs_3_en-GB.png
Angel Cafe,Restaurant/Cafe/Canteen,NW4 1PX,5,fhrs_5_en-GB,2024-05-16,Barnet,-0.2284788,51.6021965,images/test\fhrs_5_en-GB.png
Angel Cafe,Restaurant/Cafe/Canteen,EN4 9BS,5,fhrs_5_en-GB,2023-03-31,Barnet,-0.1689872,51.6527399,images/test\fhrs_5_en-GB.png
Anuraag,Takeaway/sandwich shop,EN4 8SS,2,fhrs_2_en-GB,2023-04-27,Barnet,-0.164123,51.643129,images/test\fhrs_2_en-GB.png
Aramark @ Finchley Memorial Hospital Cafe,Restaurant/Cafe/Canteen,N12 0JE,4,fhrs_4_en-GB,2024-04-04,Barnet,-0.176461,51.605419,images/test\fhrs_4_en-GB.png
Ariya Kitchen,Restaurant/Cafe/Canteen,HA8 0LD,3,fhrs_3_en-GB,2024-08-27,Barnet,-0.264904,51.602219,images/test\fhrs_3_en-GB.png
Ashmole Academy Trust,Restaurant/Cafe/Canteen,N14 5RJ,5,fhrs_5_en-GB,2023-09-12,Barnet,-0.136193,51.632699,images/test\fhrs_5_en-GB.png
Ashpazbashi,Restaurant/Cafe/Canteen,N12 9RT,4,fhrs_4_en-GB,2024-10-31,Barnet,-0.176344,51.621307,images/test\fhrs_4_en-GB.png
Asil Bistro Kitchen Bar,Restaurant/Cafe/Canteen,EN4 8SY,5,fhrs_5_en-GB,2024-11-12,Barnet,-0.162646,51.641748,images/test\fhrs_5_en-GB.png
Ask Italian,Restaurant/Cafe/Canteen,N12 0GL,5,fhrs_5_en-GB,2022-10-20,Barnet,-0.173568,51.604808,images/test\fhrs_5_en-GB.png
At Nanas,Restaurant/Cafe/Canteen,HA8 7JX,5,fhrs_5_en-GB,2023-01-16,Barnet,-0.276049,51.615251,images/test\fhrs_5_en-GB.png
At Sophie's,Restaurant/Cafe/Canteen,EN4 8HG,4,fhrs_4_en-GB,2024-12-04,Barnet,-0.162315,51.643155,images/test\fhrs_4_en-GB.png
Atariya Foods Golders Green Shop,Restaurant/Cafe/Canteen,NW11 0AL,4,fhrs_4_en-GB,2024-12-10,Barnet,-0.200084,51.587952,images/test\fhrs_4_en-GB.png
Atariya Sushi Hendon,Restaurant/Cafe/Canteen,NW4 3UX,5,fhrs_5_en-GB,2023-03-10,Barnet,-0.229258,51.582389,images/test\fhrs_5_en-GB.png
Avenue House,Restaurant/Cafe/Canteen,N3 3QE,5,fhrs_5_en-GB,2024-05-30,Barnet,-0.196338,51.596878,images/test\fhrs_5_en-GB.png
Awesome Chips,Takeaway/sandwich shop,NW9 6RR,3,fhrs_3_en-GB,2023-06-20,Barnet,-0.250905,51.587362,images/test\fhrs_3_en-GB.png
Baba Wali LTD,Restaurant/Cafe/Canteen,NW9 7DY,4,fhrs_4_en-GB,2024-04-05,Barnet,-0.238842,51.576409,images/test\fhrs_4_en-GB.png
Bagels Bar,Restaurant/Cafe/Canteen,NW4 2ES,5,fhrs_5_en-GB,2021-12-30,Barnet,-0.219036,51.585049,images/test\fhrs_5_en-GB.png
Balady Alaesh,Restaurant/Cafe/Canteen,NW11 7TH,5,fhrs_5_en-GB,2022-01-11,Barnet,-0.19843,51.581227,images/test\fhrs_5_en-GB.png
Bali Satay House,Restaurant/Cafe/Canteen,EN5 1AD,4,fhrs_4_en-GB,2024-09-13,Barnet,-0.18696,51.646002,images/test\fhrs_4_en-GB.png
Balloon Soft Play   Cafe,Restaurant/Cafe/Canteen,N12 0DY,4,fhrs_4_en-GB,2024-11-19,Barnet,-0.17520802,51.60856587,images/test\fhrs_4_en-GB.png
Bang Bang Chicken,Takeaway/sandwich shop,HA8 9BU,5,fhrs_5_en-GB,2023-09-19,Barnet,-0.258101,51.61058,images/test\fhrs_5_en-GB.png
Bangkok Lounge,Restaurant/Cafe/Canteen,N2 9ED,5,fhrs_5_en-GB,2022-04-20,Barnet,-0.164383,51.590852,images/test\fhrs_5_en-GB.png
Bangkok Taste Thai Restaurant,Restaurant/Cafe/Canteen,N12 8LJ,5,fhrs_5_en-GB,2023-05-24,Barnet,-0.177201,51.613964,images/test\fhrs_5_en-GB.png
Bank Food And Drink,Restaurant/Cafe/Canteen,NW7 3BU,5,fhrs_5_en-GB,2024-04-11,Barnet,-0.2463388,51.6151639,images/test\fhrs_5_en-GB.png
Bar Hakuna Matata,Restaurant/Cafe/Canteen,N20 9HJ,5,fhrs_5_en-GB,2022-12-08,Barnet,-0.1752888,51.6327402,images/test\fhrs_5_en-GB.png
Bar Linda,Restaurant/Cafe/Canteen,NW11 7RN,5,fhrs_5_en-GB,2023-08-22,Barnet,-0.194847002625465,51.5722236633301,images/test\fhrs_5_en-GB.png
Baran Ocakbasi Restaurant,Restaurant/Cafe/Canteen,NW11 7TH,3,fhrs_3_en-GB,2024-02-27,Barnet,-0.19843,51.581227,images/test\fhrs_3_en-GB.png
Barnet Cafe,Restaurant/Cafe/Canteen,EN5 5SN,5,fhrs_5_en-GB,2023-12-06,Barnet,-0.200887,51.653473,images/test\fhrs_5_en-GB.png
Barnet Fish Bar,Takeaway/sandwich shop,EN5 2RD,5,fhrs_5_en-GB,2024-09-16,Barnet,-0.215201,51.646785,images/test\fhrs_5_en-GB.png
Barnet Food Share Coop,Restaurant/Cafe/Canteen,NW9 5XB,5,fhrs_5_en-GB,2019-10-25,Barnet,-0.244354,51.602264,images/test\fhrs_5_en-GB.png
Base Pizza,Takeaway/sandwich shop,HA8 8JS,5,fhrs_5_en-GB,2024-01-09,Barnet,-0.275287,51.621633,images/test\fhrs_5_en-GB.png
Basilico,Takeaway/sandwich shop,N3 1XY,3,fhrs_3_en-GB,2023-07-25,Barnet,-0.189687,51.604374,images/test\fhrs_3_en-GB.png
Baskin Robbins,Takeaway/sandwich shop,HA8 7JX,5,fhrs_5_en-GB,2022-10-18,Barnet,-0.276049,51.615251,images/test\fhrs_5_en-GB.png
BAW Pan Asian Cafe / Chachaji,Restaurant/Cafe/Canteen,NW7 3BU,5,fhrs_5_en-GB,2023-12-12,Barnet,-0.246385,51.615153,images/test\fhrs_5_en-GB.png
Bayleaf Restaurant,Restaurant/Cafe/Canteen,N20 9HH,5,fhrs_5_en-GB,2022-01-21,Barnet,-0.174648,51.630444,images/test\fhrs_5_en-GB.png
Bayleaf Takeaway,Takeaway/sandwich shop,N20 9HJ,5,fhrs_5_en-GB,2021-03-21,Barnet,-0.175051,51.631925,images/test\fhrs_5_en-GB.png
BB Grill House,Restaurant/Cafe/Canteen,NW4 2ES,5,fhrs_5_en-GB,2023-12-13,Barnet,-0.219036,51.585049,images/test\fhrs_5_en-GB.png
BBQ Grill,Restaurant/Cafe/Canteen,N20 9HH,4,fhrs_4_en-GB,2023-04-25,Barnet,-0.174648,51.630444,images/test\fhrs_4_en-GB.png
Bean Bistro,Restaurant/Cafe/Canteen,EN4 8SS,3,fhrs_3_en-GB,2024-09-05,Barnet,-0.164123,51.643129,images/test\fhrs_3_en-GB.png
Beheshte Barin,Restaurant/Cafe/Canteen,N20 9HJ,4,fhrs_4_en-GB,2024-06-13,Barnet,-0.175051,51.631925,images/test\fhrs_4_en-GB.png
Beit Cafe,Restaurant/Cafe/Canteen,NW11 8HR,4,fhrs_4_en-GB,2024-10-14,Barnet,-0.2008678,51.5736724,images/test\fhrs_4_en-GB.png
Bell Lane Cafe,Restaurant/Cafe/Canteen,NW4 2BP,5,fhrs_5_en-GB,2021-03-30,Barnet,-0.219039,51.586811,images/test\fhrs_5_en-GB.png
Bella,Restaurant/Cafe/Canteen,HA8 0LR,5,fhrs_5_en-GB,2023-07-28,Barnet,-0.2663544,51.6009575,images/test\fhrs_5_en-GB.png
Bella Mia,Restaurant/Cafe/Canteen,N12 8PT,2,fhrs_2_en-GB,2024-05-23,Barnet,-0.177108,51.61774,images/test\fhrs_2_en-GB.png
Bells Hill Cafe,Restaurant/Cafe/Canteen,EN5 2TB,5,fhrs_5_en-GB,2023-10-04,Barnet,-0.214902,51.647033,images/test\fhrs_5_en-GB.png
Belmont Childrens Farm,Restaurant/Cafe/Canteen,NW7 1QT,5,fhrs_5_en-GB,2024-02-27,Barnet,-0.231056,51.621937,images/test\fhrs_5_en-GB.png
Benso Cafe,Restaurant/Cafe/Canteen,HA8 9NY,3,fhrs_3_en-GB,2024-08-23,Barnet,-0.260696,51.616364,images/test\fhrs_3_en-GB.png
Bespoke Cafe,Restaurant/Cafe/Canteen,N3 1XY,4,fhrs_4_en-GB,2023-06-08,Barnet,-0.189687,51.604374,images/test\fhrs_4_en-GB.png
Best Fried Chicken,Restaurant/Cafe/Canteen,NW4 1RR,4,fhrs_4_en-GB,2024-01-25,Barnet,-0.223112,51.590083,images/test\fhrs_4_en-GB.png
Best Kebab & Charcoal Grill,Restaurant/Cafe/Canteen,N3 2SB,4,fhrs_4_en-GB,2023-11-30,Barnet,-0.193119,51.600497,images/test\fhrs_4_en-GB.png
Betty's Bike,Restaurant/Cafe/Canteen,N12 0BE,5,fhrs_5_en-GB,2022-11-29,Barnet,-0.179649,51.608013,images/test\fhrs_5_en-GB.png
Big Papas,Takeaway/sandwich shop,EN5 1QW,4,fhrs_4_en-GB,2023-04-13,Barnet,-0.174484,51.649648,images/test\fhrs_4_en-GB.png
Bim's,Restaurant/Cafe/Canteen,N12 9QR,5,fhrs_5_en-GB,2024-02-07,Barnet,-0.1764297,51.6160024,images/test\fhrs_5_en-GB.png
Bisse Patisserie & Cafe,Restaurant/Cafe/Canteen,N2 8AG,5,fhrs_5_en-GB,2024-04-23,Barnet,-0.164936,51.590744,images/test\fhrs_5_en-GB.png
Bluebelles Of Portobello,Restaurant/Cafe/Canteen,N3 1DN,4,fhrs_4_en-GB,2023-05-16,Barnet,-0.1948095,51.6007054,images/test\fhrs_4_en-GB.png
Bluebelles Of Portobello,Restaurant/Cafe/Canteen,NW7 3DA,5,fhrs_5_en-GB,2024-02-20,Barnet,-0.247702,51.614705,images/test\fhrs_5_en-GB.png
Bocatta House,Takeaway/sandwich shop,N3 2PT,3,fhrs_3_en-GB,2023-06-29,Barnet,-0.188363,51.604264,images/test\fhrs_3_en-GB.png
Bocca D Oro,Restaurant/Cafe/Canteen,N2 9AY,4,fhrs_4_en-GB,2024-05-13,Barnet,-0.166835993528366,51.5931968688965,images/test\fhrs_4_en-GB.png
Boga Grill,Restaurant/Cafe/Canteen,NW9 5HG,5,fhrs_5_en-GB,2022-06-29,Barnet,-0.251254,51.5952061,images/test\fhrs_5_en-GB.png
Bonoo Indian Tapas,Restaurant/Cafe/Canteen,NW2 2JP,4,fhrs_4_en-GB,2024-10-16,Barnet,-0.197408,51.561464,images/test\fhrs_4_en-GB.png
Boobas,Restaurant/Cafe/Canteen,HA8 9QW,5,fhrs_5_en-GB,2023-09-07,Barnet,-0.261142,51.616784,images/test\fhrs_5_en-GB.png
Booya Gelato,Takeaway/sandwich shop,NW11 8LN,4,fhrs_4_en-GB,2023-08-22,Barnet,-0.1993443,51.5732502,images/test\fhrs_4_en-GB.png
Boss Peri Peri,Restaurant/Cafe/Canteen,N12 8JT,1,fhrs_1_en-GB,2024-12-03,Barnet,-0.1770775,51.6161533,images/test\fhrs_1_en-GB.png
Boulangerie Bon Matin,Restaurant/Cafe/Canteen,N3 1XP,3,fhrs_3_en-GB,2024-04-25,Barnet,-0.19131900370121,51.6033363342285,images/test\fhrs_3_en-GB.png
Boulevard,Restaurant/Cafe/Canteen,N11 3EU,5,fhrs_5_en-GB,2022-03-05,Barnet,-0.149364,51.61477,images/test\fhrs_5_en-GB.png
BRIM,Restaurant/Cafe/Canteen,EN5 5UZ,4,fhrs_4_en-GB,2024-06-06,Barnet,-0.202198,51.655777,images/test\fhrs_4_en-GB.png
Brudis,Restaurant/Cafe/Canteen,N2 9ED,4,fhrs_4_en-GB,2024-02-20,Barnet,-0.164383,51.590852,images/test\fhrs_4_en-GB.png
Bubble Magik,Takeaway/sandwich shop,,5,fhrs_5_en-GB,2024-01-03,Barnet,-0.2237626,51.5764202,images/test\fhrs_5_en-GB.png
Building Cafe (Redrow Colindale Gardens),Restaurant/Cafe/Canteen,NW9 5JE,5,fhrs_5_en-GB,2023-02-23,Barnet,-0.240204,51.593839,images/test\fhrs_5_en-GB.png
Bullhen,Restaurant/Cafe/Canteen,NW2 1LT,4,fhrs_4_en-GB,2024-11-27,Barnet,-0.225738,51.570475,images/test\fhrs_4_en-GB.png
Buono Woodfire Pizza & Pasta,Takeaway/sandwich shop,EN5 1DN,3,fhrs_3_en-GB,2024-02-28,Barnet,-0.167768,51.638393,images/test\fhrs_3_en-GB.png
Burger King,Restaurant/Cafe/Canteen,NW7 3HU,5,fhrs_5_en-GB,2022-01-05,Barnet,-0.266371,51.632337,images/test\fhrs_5_en-GB.png
Burgrill/Burger Zone/Grill N Thrill/Grill Heist,Takeaway/sandwich shop,N12 9QD,5,fhrs_5_en-GB,2023-11-29,Barnet,-0.1759663,51.6142478,images/test\fhrs_5_en-GB.png
Busy Bee Cafe,Restaurant/Cafe/Canteen,HA8 9BX,5,fhrs_5_en-GB,2022-01-31,Barnet,-0.257046,51.610582,images/test\fhrs_5_en-GB.png
Cafe Anglais,Restaurant/Cafe/Canteen,NW9 6RS,5,fhrs_5_en-GB,2024-07-26,Barnet,-0.251565,51.588218,images/test\fhrs_5_en-GB.png
Cafe At Selco,Restaurant/Cafe/Canteen,NW2 6LW,5,fhrs_5_en-GB,2021-10-02,Barnet,-0.229727,51.570301,images/test\fhrs_5_en-GB.png
Cafe Broadway,Restaurant/Cafe/Canteen,NW7 3LL,3,fhrs_3_en-GB,2024-03-15,Barnet,-0.248186,51.614137,images/test\fhrs_3_en-GB.png
Cafe ChiBo,Restaurant/Cafe/Canteen,NW4 4EB,4,fhrs_4_en-GB,2023-11-30,Barnet,-0.2250903,51.5898264,images/test\fhrs_4_en-GB.png
Cafe De La Poste,Restaurant/Cafe/Canteen,HA8 7AU,5,fhrs_5_en-GB,2022-04-01,Barnet,-0.275329,51.615186,images/test\fhrs_5_en-GB.png
Cafe Gaya,Restaurant/Cafe/Canteen,N2 0EH,5,fhrs_5_en-GB,2022-02-25,Barnet,-0.18015,51.583571,images/test\fhrs_5_en-GB.png
Cafe Mona Lisa,Restaurant/Cafe/Canteen,N20 0LH,5,fhrs_5_en-GB,2023-08-04,Barnet,-0.174504,51.627923,images/test\fhrs_5_en-GB.png
Cafe No41,Restaurant/Cafe/Canteen,EN4 8SY,5,fhrs_5_en-GB,2022-02-15,Barnet,-0.162646,51.641748,images/test\fhrs_5_en-GB.png
Cafe Olive,Restaurant/Cafe/Canteen,HA8 7AW,2,fhrs_2_en-GB,2023-07-11,Barnet,-0.275554,51.613454,images/test\fhrs_2_en-GB.png
Cafe Pausa,Restaurant/Cafe/Canteen,N11 3PW,5,fhrs_5_en-GB,2023-11-06,Barnet,-0.14266,51.611624,images/test\fhrs_5_en-GB.png
Cafe Pausa,Restaurant/Cafe/Canteen,NW2 6LW,5,fhrs_5_en-GB,2022-02-21,Barnet,-0.229727,51.570301,images/test\fhrs_5_en-GB.png
Cafe Persia,Restaurant/Cafe/Canteen,NW11 7PH,3,fhrs_3_en-GB,2024-06-17,Barnet,-0.194444,51.571454,images/test\fhrs_3_en-GB.png
Cafe Rodi,Restaurant/Cafe/Canteen,N20 0DG,4,fhrs_4_en-GB,2023-10-27,Barnet,-0.158673,51.625671,images/test\fhrs_4_en-GB.png
Cafe Toulous,Restaurant/Cafe/Canteen,NW11 6NY,5,fhrs_5_en-GB,2024-04-17,Barnet,-0.184353,51.584967,images/test\fhrs_5_en-GB.png
Cafe Vert,Restaurant/Cafe/Canteen,NW4 1BN,5,fhrs_5_en-GB,2024-03-21,Barnet,-0.220959,51.589754,images/test\fhrs_5_en-GB.png
CafeGenic,Restaurant/Cafe/Canteen,NW4 3JS,5,fhrs_5_en-GB,2022-09-24,Barnet,-0.2277265,51.5828609,images/test\fhrs_5_en-GB.png
Caffe Nero,Restaurant/Cafe/Canteen,EN5 5XQ,5,fhrs_5_en-GB,2024-04-04,Barnet,-0.201337,51.654514,images/test\fhrs_5_en-GB.png
Caffe Nero,Restaurant/Cafe/Canteen,N12 9QH,5,fhrs_5_en-GB,2024-03-27,Barnet,-0.176348,51.615435,images/test\fhrs_5_en-GB.png
Cake Box Cricklewood LTD,Takeaway/sandwich shop,NW2 3EB,5,fhrs_5_en-GB,2024-02-20,Barnet,-0.215684,51.5572768,images/test\fhrs_5_en-GB.png
Cake Create,Restaurant/Cafe/Canteen,NW7 1LY,5,fhrs_5_en-GB,2023-01-24,Barnet,-0.208913,51.601306,images/test\fhrs_5_en-GB.png
Cakes By Aida,Takeaway/sandwich shop,HA8 8SX,5,fhrs_5_en-GB,2022-05-23,Barnet,-0.269018,51.62619,images/test\fhrs_5_en-GB.png
Captain's Cabin,Takeaway/sandwich shop,HA8 0BB,4,fhrs_4_en-GB,2023-11-13,Barnet,-0.267686,51.601217,images/test\fhrs_4_en-GB.png
Carpe Diem,Restaurant/Cafe/Canteen,N20 9BH,5,fhrs_5_en-GB,2023-06-29,Barnet,-0.175619,51.633615,images/test\fhrs_5_en-GB.png
Carthage Lounge,Restaurant/Cafe/Canteen,NW2 3EE,4,fhrs_4_en-GB,2023-12-06,Barnet,-0.21372,51.555689,images/test\fhrs_4_en-GB.png
Casa Pepe,Restaurant/Cafe/Canteen,N2 8AG,5,fhrs_5_en-GB,2022-05-03,Barnet,-0.164936,51.590744,images/test\fhrs_5_en-GB.png
CH &Co Catering Group Ltd.,Restaurant/Cafe/Canteen,NW9 5BG,4,fhrs_4_en-GB,2023-08-01,Barnet,-0.256197,51.595813,images/test\fhrs_4_en-GB.png
Cha Cha Chicken,Takeaway/sandwich shop,HA8 7EJ,3,fhrs_3_en-GB,2023-04-25,Barnet,-0.278403,51.610313,images/test\fhrs_3_en-GB.png
Cha Wan Jia,Restaurant/Cafe/Canteen,EN5 5SN,4,fhrs_4_en-GB,2022-05-13,Barnet,-0.2010989,51.6536167,images/test\fhrs_4_en-GB.png
Chai House,Takeaway/sandwich shop,NW9 7DJ,3,fhrs_3_en-GB,2023-04-19,Barnet,-0.2423348,51.579716,images/test\fhrs_3_en-GB.png
Chaiiwala,Restaurant/Cafe/Canteen,NW4 3FY,5,fhrs_5_en-GB,2023-10-04,Barnet,-0.2237626,51.5764202,images/test\fhrs_5_en-GB.png
Champs American Fried Chicken,Restaurant/Cafe/Canteen,EN4 8TB,3,fhrs_3_en-GB,2024-03-20,Barnet,-0.16303,51.641566,images/test\fhrs_3_en-GB.png
Chandos Cafe,Restaurant/Cafe/Canteen,N2 0RZ,5,fhrs_5_en-GB,2024-05-21,Barnet,-0.180569,51.592228,images/test\fhrs_5_en-GB.png
CHARTWELLS - LIBRARY BUILDING,Restaurant/Cafe/Canteen,NW4 4BT,5,fhrs_5_en-GB,2022-11-08,Barnet,-0.228453,51.589723,images/test\fhrs_5_en-GB.png
CHARTWELLS - MDX.BUILDING GREGGS,Restaurant/Cafe/Canteen,NW4 4BT,5,fhrs_5_en-GB,2024-05-03,Barnet,-0.228453,51.589723,images/test\fhrs_5_en-GB.png
CHARTWELLS - QUADRANGLE BUILDING COSTA,Restaurant/Cafe/Canteen,NW4 4BT,5,fhrs_5_en-GB,2022-11-08,Barnet,-0.228453,51.589723,images/test\fhrs_5_en-GB.png
Cheatmeals,Restaurant/Cafe/Canteen,HA8 7AR,5,fhrs_5_en-GB,2023-06-08,Barnet,-0.2753395,51.6144899,images/test\fhrs_5_en-GB.png
Chick,Takeaway/sandwich shop,NW4 3FP,4,fhrs_4_en-GB,2024-11-14,Barnet,-0.224534,51.576185,images/test\fhrs_4_en-GB.png
Chicken Land,Restaurant/Cafe/Canteen,NW9 5EP,4,fhrs_4_en-GB,2024-02-28,Barnet,-0.254478,51.593575,images/test\fhrs_4_en-GB.png
Chicken Valley,Restaurant/Cafe/Canteen,NW4 4EB,3,fhrs_3_en-GB,2024-10-15,Barnet,-0.225214,51.589845,images/test\fhrs_3_en-GB.png
Chicken Valley,Restaurant/Cafe/Canteen,HA8 7EJ,2,fhrs_2_en-GB,2024-11-28,Barnet,-0.278403,51.610313,images/test\fhrs_2_en-GB.png
China Palace,Takeaway/sandwich shop,HA8 7AA,3,fhrs_3_en-GB,2024-04-18,Barnet,-0.2767698,51.6126724,images/test\fhrs_3_en-GB.png
Chit Chaat,Restaurant/Cafe/Canteen,EN5 5UZ,3,fhrs_3_en-GB,2024-01-09,Barnet,-0.202198,51.655777,images/test\fhrs_3_en-GB.png
Chopan Kabab,Restaurant/Cafe/Canteen,NW2 1EX,2,fhrs_2_en-GB,2024-04-26,Barnet,-0.214518,51.55705,images/test\fhrs_2_en-GB.png
Chopstix,Restaurant/Cafe/Canteen,,5,fhrs_5_en-GB,2023-04-05,Barnet,-0.2237626,51.5764202,images/test\fhrs_5_en-GB.png
Chu Chin Chow,Restaurant/Cafe/Canteen,EN4 8HG,5,fhrs_5_en-GB,2024-05-16,Barnet,-0.162315,51.643155,images/test\fhrs_5_en-GB.png
Chutneys,Takeaway/sandwich shop,EN5 5BY,3,fhrs_3_en-GB,2023-09-21,Barnet,-0.175437,51.651111,images/test\fhrs_3_en-GB.png
Ciao Pizza,Takeaway/sandwich shop,N3 2LN,4,fhrs_4_en-GB,2023-09-14,Barnet,-0.1945451,51.6003302,images/test\fhrs_4_en-GB.png
Cielo Prlr,Restaurant/Cafe/Canteen,NW9 5HG,1,fhrs_1_en-GB,2022-01-18,Barnet,-0.251254,51.5952061,images/test\fhrs_1_en-GB.png
Clouds Chippy,Restaurant/Cafe/Canteen,N12 9PT,4,fhrs_4_en-GB,2023-05-31,Barnet,-0.175543993711472,51.6128158569336,images/test\fhrs_4_en-GB.png
Cobans Grill,Takeaway/sandwich shop,NW7 2JU,3,fhrs_3_en-GB,2023-05-18,Barnet,-0.248553,51.613621,images/test\fhrs_3_en-GB.png
Coco Di Mama @Ramada Hotel,Restaurant/Cafe/Canteen,NW7 3HU,5,fhrs_5_en-GB,2022-12-05,Barnet,-0.266371,51.632337,images/test\fhrs_5_en-GB.png
Coco Pizza,Takeaway/sandwich shop,N20 0RU,5,fhrs_5_en-GB,2024-03-05,Barnet,-0.153462329587724,51.6233860143661,images/test\fhrs_5_en-GB.png
Cocorico,Restaurant/Cafe/Canteen,N20 9HJ,4,fhrs_4_en-GB,2022-09-23,Barnet,-0.175051,51.631925,images/test\fhrs_4_en-GB.png
Cod's Plaice,Takeaway/sandwich shop,EN4 8RN,5,fhrs_5_en-GB,2024-03-28,Barnet,-0.171066,51.64982,images/test\fhrs_5_en-GB.png
Coffee Bank,Restaurant/Cafe/Canteen,N2 8AD,1,fhrs_1_en-GB,2024-10-21,Barnet,-0.164547994732857,51.5903511047363,images/test\fhrs_1_en-GB.png
Colindale Skills Centre,Restaurant/Cafe/Canteen,NW9 4BR,5,fhrs_5_en-GB,2022-03-30,Barnet,-0.2456421,51.5975753,images/test\fhrs_5_en-GB.png
Coral Bay,Takeaway/sandwich shop,NW2 2QJ,5,fhrs_5_en-GB,2021-11-27,Barnet,-0.197958,51.562876,images/test\fhrs_5_en-GB.png
Costa Coffee,Restaurant/Cafe/Canteen,NW4 3AS,5,fhrs_5_en-GB,2021-03-03,Barnet,-0.2269575,51.5831564,images/test\fhrs_5_en-GB.png
Costa Coffee,Restaurant/Cafe/Canteen,NW4 3AS,5,fhrs_5_en-GB,2022-01-08,Barnet,-0.226746,51.583142,images/test\fhrs_5_en-GB.png
Costa Coffee,Takeaway/sandwich shop,NW2 2HR,5,fhrs_5_en-GB,2021-11-13,Barnet,-0.196924,51.561286,images/test\fhrs_5_en-GB.png
Costa Coffee,Takeaway/sandwich shop,N2 9PN,5,fhrs_5_en-GB,2023-06-08,Barnet,-0.163703,51.589106,images/test\fhrs_5_en-GB.png
Costa Coffee,Restaurant/Cafe/Canteen,NW2 1LS,5,fhrs_5_en-GB,2022-05-21,Barnet,-0.224742,51.571602,images/test\fhrs_5_en-GB.png
Costa Coffee,Restaurant/Cafe/Canteen,N12 0SH,5,fhrs_5_en-GB,2022-03-28,Barnet,-0.156384,51.60694,images/test\fhrs_5_en-GB.png
Costa Coffee,Restaurant/Cafe/Canteen,N11 3PW,5,fhrs_5_en-GB,2023-06-13,Barnet,-0.14266,51.611624,images/test\fhrs_5_en-GB.png
Costa Ltd,Restaurant/Cafe/Canteen,NW11 8DY,5,fhrs_5_en-GB,2021-04-15,Barnet,-0.196177,51.571769,images/test\fhrs_5_en-GB.png
Creams,Restaurant/Cafe/Canteen,N12 9QR,3,fhrs_3_en-GB,2023-11-14,Barnet,-0.176339998841286,51.6160011291504,images/test\fhrs_3_en-GB.png
Creams Cafe,Restaurant/Cafe/Canteen,HA8 7JG,5,fhrs_5_en-GB,2022-03-03,Barnet,-0.276451,51.613809,images/test\fhrs_5_en-GB.png
Cuisine King,Takeaway/sandwich shop,NW4 1RR,4,fhrs_4_en-GB,2023-04-12,Barnet,-0.223112,51.590083,images/test\fhrs_4_en-GB.png
Cup Of Joy,Restaurant/Cafe/Canteen,N2 8AG,4,fhrs_4_en-GB,2022-09-07,Barnet,-0.164936,51.590744,images/test\fhrs_4_en-GB.png
Curry Leaf,Takeaway/sandwich shop,EN5 4PD,3,fhrs_3_en-GB,2023-06-15,Barnet,-0.202194,51.656604,images/test\fhrs_3_en-GB.png
D & Q Restaurant & Takeaway,Takeaway/sandwich shop,N12 9PT,5,fhrs_5_en-GB,2022-09-27,Barnet,-0.175543993711472,51.6128158569336,images/test\fhrs_5_en-GB.png
Da Food Garden,Restaurant/Cafe/Canteen,NW9 6LH,5,fhrs_5_en-GB,2021-04-12,Barnet,-0.248075,51.584748,images/test\fhrs_5_en-GB.png
Da Franco,Restaurant/Cafe/Canteen,N11 3DA,5,fhrs_5_en-GB,2022-03-18,Barnet,-0.157333,51.613106,images/test\fhrs_5_en-GB.png
Damoa,Restaurant/Cafe/Canteen,NW11 8LL,2,fhrs_2_en-GB,2024-03-22,Barnet,-0.197378,51.572417,images/test\fhrs_2_en-GB.png
Dan And Decarlo,Restaurant/Cafe/Canteen,N2 9PJ,4,fhrs_4_en-GB,2023-05-05,Barnet,-0.16395,51.587995,images/test\fhrs_4_en-GB.png
Darna,Restaurant/Cafe/Canteen,NW11 8HB,4,fhrs_4_en-GB,2024-12-10,Barnet,-0.200481,51.573867,images/test\fhrs_4_en-GB.png
David Lloyd Leisure Cricklewood,Restaurant/Cafe/Canteen,NW2 2DS,5,fhrs_5_en-GB,2022-08-10,Barnet,-0.209726,51.559324,images/test\fhrs_5_en-GB.png
Day Of The Raj,Takeaway/sandwich shop,NW7 1HS,5,fhrs_5_en-GB,2023-02-14,Barnet,-0.208192,51.606043,images/test\fhrs_5_en-GB.png
DCafe,Restaurant/Cafe/Canteen,N12 8RP,5,fhrs_5_en-GB,2022-05-17,Barnet,-0.1773356,51.6174432,images/test\fhrs_5_en-GB.png
De Rada Brasserie,Restaurant/Cafe/Canteen,NW7 3TG,5,fhrs_5_en-GB,2024-05-16,Barnet,-0.245569005608559,51.6157073974609,images/test\fhrs_5_en-GB.png
Dee Dee Thai Food,Restaurant/Cafe/Canteen,EN5 5SN,3,fhrs_3_en-GB,2023-04-25,Barnet,-0.200887,51.653473,images/test\fhrs_3_en-GB.png
Delight Kitchen,Restaurant/Cafe/Canteen,N12 8LT,4,fhrs_4_en-GB,2024-10-04,Barnet,-0.177362,51.613553,images/test\fhrs_4_en-GB.png
DelisquareD,Restaurant/Cafe/Canteen,NW9 5EN,1,fhrs_1_en-GB,2024-07-11,Barnet,-0.243011,51.5963,images/test\fhrs_1_en-GB.png
Deman Turkish Cuisine,Takeaway/sandwich shop,EN5 1EU,3,fhrs_3_en-GB,2023-07-05,Barnet,-0.186262,51.64609,images/test\fhrs_3_en-GB.png
Desire,Restaurant/Cafe/Canteen,NW4 3AD,3,fhrs_3_en-GB,2023-02-23,Barnet,-0.227494,51.583567,images/test\fhrs_3_en-GB.png
Dilber Kebabs,Restaurant/Cafe/Canteen,EN5 5UW,4,fhrs_4_en-GB,2024-11-21,Barnet,-0.1997621,51.6528159,images/test\fhrs_4_en-GB.png
Diony & Adam,Takeaway/sandwich shop,N11 3DA,4,fhrs_4_en-GB,2024-10-22,Barnet,-0.157333,51.613106,images/test\fhrs_4_en-GB.png
Divan Turkish Restaurant,Restaurant/Cafe/Canteen,N3 1LJ,5,fhrs_5_en-GB,2022-04-22,Barnet,-0.18869,51.605114,images/test\fhrs_5_en-GB.png
Dixy Fried Chicken,Takeaway/sandwich shop,HA8 0LU,4,fhrs_4_en-GB,2023-12-18,Barnet,-0.264564,51.602052,images/test\fhrs_4_en-GB.png
Dolce Napoli,Restaurant/Cafe/Canteen,N2 0DN,5,fhrs_5_en-GB,2024-01-23,Barnet,-0.179931,51.585798,images/test\fhrs_5_en-GB.png
Dolphin Fish And Kebabs,Restaurant/Cafe/Canteen,HA8 9BX,4,fhrs_4_en-GB,2023-05-16,Barnet,-0.257046,51.610582,images/test\fhrs_4_en-GB.png
Dominos Pizza,Takeaway/sandwich shop,NW7 3TG,5,fhrs_5_en-GB,2024-06-27,Barnet,-0.2452333,51.6161694,images/test\fhrs_5_en-GB.png
Dominos Pizza,Takeaway/sandwich shop,NW11 9PN,5,fhrs_5_en-GB,2024-08-23,Barnet,-0.208098,51.578345,images/test\fhrs_5_en-GB.png
Dominos Pizza,Takeaway/sandwich shop,N2 9EB,5,fhrs_5_en-GB,2024-06-05,Barnet,-0.163801,51.589899,images/test\fhrs_5_en-GB.png
Dominos Pizza,Takeaway/sandwich shop,HA8 7HE,5,fhrs_5_en-GB,2024-08-20,Barnet,-0.279442,51.611101,images/test\fhrs_5_en-GB.png
Dominos Pizza,Takeaway/sandwich shop,N3 1UX,5,fhrs_5_en-GB,2024-06-11,Barnet,-0.19295,51.602203,images/test\fhrs_5_en-GB.png
Domino's Pizza,Takeaway/sandwich shop,N14 5JP,5,fhrs_5_en-GB,2022-05-21,Barnet,-0.142414,51.632159,images/test\fhrs_5_en-GB.png
Domino's Pizza,Takeaway/sandwich shop,EN5 5RU,5,fhrs_5_en-GB,2021-11-27,Barnet,-0.197981,51.652367,images/test\fhrs_5_en-GB.png
Doner & Grill,Restaurant/Cafe/Canteen,NW9 5WU,3,fhrs_3_en-GB,2023-09-07,Barnet,-0.249705001711845,51.594181060791,images/test\fhrs_3_en-GB.png
D'oro Pizzeria,Restaurant/Cafe/Canteen,N12 9QY,1,fhrs_1_en-GB,2024-05-21,Barnet,-0.17647,51.617082,images/test\fhrs_1_en-GB.png
Dorom Turkish Grill,Restaurant/Cafe/Canteen,NW9 7EE,3,fhrs_3_en-GB,2024-03-14,Barnet,-0.238972,51.577149,images/test\fhrs_3_en-GB.png
Dorys Cafe,Restaurant/Cafe/Canteen,EN5 4LN,3,fhrs_3_en-GB,2023-11-03,Barnet,-0.203848,51.657187,images/test\fhrs_3_en-GB.png
DR Hunger,Restaurant/Cafe/Canteen,N2 0RY,5,fhrs_5_en-GB,2023-05-04,Barnet,-0.178821,51.591545,images/test\fhrs_5_en-GB.png
Du Broz Cafe,Restaurant/Cafe/Canteen,NW7 3JR,4,fhrs_4_en-GB,2024-02-13,Barnet,-0.254624,51.621013,images/test\fhrs_4_en-GB.png
Durum Restaurant,Restaurant/Cafe/Canteen,N3 1LJ,5,fhrs_5_en-GB,2024-04-02,Barnet,-0.18869,51.605114,images/test\fhrs_5_en-GB.png
East End Tandoori,Restaurant/Cafe/Canteen,N2 0RZ,3,fhrs_3_en-GB,2024-09-24,Barnet,-0.180569,51.592228,images/test\fhrs_3_en-GB.png
Eat Tokyo,Restaurant/Cafe/Canteen,NW11 7PH,1,fhrs_1_en-GB,2024-11-27,Barnet,-0.194444,51.571454,images/test\fhrs_1_en-GB.png
Eat Tokyo,Takeaway/sandwich shop,NW2 1HD,4,fhrs_4_en-GB,2024-11-25,Barnet,-0.213488,51.557574,images/test\fhrs_4_en-GB.png
Eat Tokyo,Restaurant/Cafe/Canteen,NW11 7RR,3,fhrs_3_en-GB,2024-04-11,Barnet,-0.195092,51.571131,images/test\fhrs_3_en-GB.png
Egg And Bake,Restaurant/Cafe/Canteen,N2 9ED,4,fhrs_4_en-GB,2023-12-19,Barnet,-0.164383,51.590852,images/test\fhrs_4_en-GB.png
Eko Cafe,Restaurant/Cafe/Canteen,NW2 2HY,4,fhrs_4_en-GB,2023-07-04,Barnet,-0.197098,51.562359,images/test\fhrs_4_en-GB.png
El Vaquero,Restaurant/Cafe/Canteen,N20 0PT,5,fhrs_5_en-GB,2021-10-20,Barnet,-0.176355,51.625713,images/test\fhrs_5_en-GB.png
ELA KITCHEN,Restaurant/Cafe/Canteen,NW11 7PT,4,fhrs_4_en-GB,2024-10-22,Barnet,-0.193741,51.571336,images/test\fhrs_4_en-GB.png
Eli's Pizza,Restaurant/Cafe/Canteen,HA8 8LH,5,fhrs_5_en-GB,2024-03-18,Barnet,-0.276477,51.615787,images/test\fhrs_5_en-GB.png
El-Vaquero,Restaurant/Cafe/Canteen,NW7 3NX,5,fhrs_5_en-GB,2021-09-01,Barnet,-0.250971,51.614214,images/test\fhrs_5_en-GB.png
Emparo Pizza Limited,Takeaway/sandwich shop,NW2 2QJ,3,fhrs_3_en-GB,2024-05-28,Barnet,-0.197958,51.562876,images/test\fhrs_3_en-GB.png
Enjoy Cafe,Restaurant/Cafe/Canteen,N12 0EH,3,fhrs_3_en-GB,2023-06-08,Barnet,-0.176489,51.613369,images/test\fhrs_3_en-GB.png
Epic Cafe,Restaurant/Cafe/Canteen,EN5 1AD,5,fhrs_5_en-GB,2024-03-26,Barnet,-0.18696,51.646002,images/test\fhrs_5_en-GB.png
Falafel Bar,Takeaway/sandwich shop,N3 2PR,5,fhrs_5_en-GB,2023-06-08,Barnet,-0.188237,51.604513,images/test\fhrs_5_en-GB.png
Falafel Feast Ltd,Takeaway/sandwich shop,N3 1DE,5,fhrs_5_en-GB,2024-09-12,Barnet,-0.194264993071556,51.6011009216309,images/test\fhrs_5_en-GB.png
Falafel N2,Takeaway/sandwich shop,N2 8AQ,5,fhrs_5_en-GB,2024-03-01,Barnet,-0.164602,51.589722,images/test\fhrs_5_en-GB.png
Farnado Pizzeria,Restaurant/Cafe/Canteen,NW4 1RR,3,fhrs_3_en-GB,2024-02-28,Barnet,-0.223112,51.590083,images/test\fhrs_3_en-GB.png
Farsi Restaurant,Restaurant/Cafe/Canteen,N3 1XT,3,fhrs_3_en-GB,2023-11-16,Barnet,-0.190458,51.603864,images/test\fhrs_3_en-GB.png
FEAST With Us,Takeaway/sandwich shop,N3 2SY,4,fhrs_4_en-GB,2024-01-10,Barnet,-0.18934,51.595304,images/test\fhrs_4_en-GB.png
Finchley Chicken Hub,Restaurant/Cafe/Canteen,N12 9PT,3,fhrs_3_en-GB,2024-03-12,Barnet,-0.175543,51.612815,images/test\fhrs_3_en-GB.png
Finchley Kitchen,Restaurant/Cafe/Canteen,N3 1DP,5,fhrs_5_en-GB,2023-04-04,Barnet,-0.196039,51.599697,images/test\fhrs_5_en-GB.png
Fish 'n' Flame,Restaurant/Cafe/Canteen,N2 9EB,4,fhrs_4_en-GB,2023-08-21,Barnet,-0.163714,51.5898925,images/test\fhrs_4_en-GB.png
Five Guys,Restaurant/Cafe/Canteen,EN5 5XP,5,fhrs_5_en-GB,2024-09-05,Barnet,-0.2014798,51.6553091,images/test\fhrs_5_en-GB.png
Flamy Grill/ Five Star Pizza,Takeaway/sandwich shop,NW4 2DY,5,fhrs_5_en-GB,2023-04-25,Barnet,-0.22083,51.586776,images/test\fhrs_5_en-GB.png
Flip Out,Restaurant/Cafe/Canteen,NW2 6LW,4,fhrs_4_en-GB,2023-07-18,Barnet,-0.229727,51.570301,images/test\fhrs_4_en-GB.png
Footgolf,Restaurant/Cafe/Canteen,,3,fhrs_3_en-GB,2022-06-23,Barnet,-0.304714997487481,51.4411400002766,images/test\fhrs_3_en-GB.png
Fortune Cat,Takeaway/sandwich shop,EN5 5UZ,3,fhrs_3_en-GB,2024-06-14,Barnet,-0.202198,51.655777,images/test\fhrs_3_en-GB.png
Fortune Cat,Restaurant/Cafe/Canteen,EN4 8SX,3,fhrs_3_en-GB,2023-09-15,Barnet,-0.163065,51.642825,images/test\fhrs_3_en-GB.png
Foulis Cafe,Restaurant/Cafe/Canteen,N11 1JJ,3,fhrs_3_en-GB,2024-06-10,Barnet,-0.142388,51.619363,images/test\fhrs_3_en-GB.png
Franks Cafe,Restaurant/Cafe/Canteen,N11 1ND,3,fhrs_3_en-GB,2023-11-16,Barnet,-0.14352,51.616035,images/test\fhrs_3_en-GB.png
Fresh Fry,Restaurant/Cafe/Canteen,EN5 1AD,5,fhrs_5_en-GB,2023-12-12,Barnet,-0.18696,51.646002,images/test\fhrs_5_en-GB.png
Friends,Takeaway/sandwich shop,N12 9BD,3,fhrs_3_en-GB,2024-09-24,Barnet,-0.1592753,51.6128928,images/test\fhrs_3_en-GB.png
Frothy Coffee,Takeaway/sandwich shop,EN5 1QT,5,fhrs_5_en-GB,2020-08-14,Barnet,-0.172918,51.648689,images/test\fhrs_5_en-GB.png
Fry Days,Takeaway/sandwich shop,NW7 2NU,3,fhrs_3_en-GB,2023-03-14,Barnet,-0.22208,51.6095,images/test\fhrs_3_en-GB.png
Fu Sheng Restaurant,Restaurant/Cafe/Canteen,HA8 7JE,4,fhrs_4_en-GB,2024-08-22,Barnet,-0.278157,51.611838,images/test\fhrs_4_en-GB.png
Gail's Bakery,Restaurant/Cafe/Canteen,EN5 5XW,5,fhrs_5_en-GB,2022-10-11,Barnet,-0.2014514,51.6551804,images/test\fhrs_5_en-GB.png
Gani Restaurant And Bar,Restaurant/Cafe/Canteen,N10 1ER,4,fhrs_4_en-GB,2024-05-22,Barnet,-0.14665,51.599143,images/test\fhrs_4_en-GB.png
Gateway Cafe,Restaurant/Cafe/Canteen,N3 2PR,4,fhrs_4_en-GB,2023-09-06,Barnet,-0.188237,51.604513,images/test\fhrs_4_en-GB.png
Gee Gee's Cafe,Restaurant/Cafe/Canteen,N12 7BP,5,fhrs_5_en-GB,2021-04-22,Barnet,-0.203238,51.615939,images/test\fhrs_5_en-GB.png
Genzo Greek Restaurant,Restaurant/Cafe/Canteen,N2 9AY,5,fhrs_5_en-GB,2023-03-29,Barnet,-0.166917994618416,51.5931777954102,images/test\fhrs_5_en-GB.png
German Doner Kebab,Restaurant/Cafe/Canteen,N12 9QH,5,fhrs_5_en-GB,2023-08-14,Barnet,-0.1763637,51.6154148,images/test\fhrs_5_en-GB.png
Giacomo's Restaurant,Restaurant/Cafe/Canteen,NW2 2HY,5,fhrs_5_en-GB,2022-06-14,Barnet,-0.197098,51.562359,images/test\fhrs_5_en-GB.png
Global Kebab House,Takeaway/sandwich shop,NW4 3AD,3,fhrs_3_en-GB,2023-05-24,Barnet,-0.227494,51.583567,images/test\fhrs_3_en-GB.png
Goda London,Restaurant/Cafe/Canteen,N3 2PA,5,fhrs_5_en-GB,2023-12-20,Barnet,-0.18812382,51.60517071,images/test\fhrs_5_en-GB.png
Going Greek,Restaurant/Cafe/Canteen,N2 9ED,5,fhrs_5_en-GB,2022-10-04,Barnet,-0.164383,51.590852,images/test\fhrs_5_en-GB.png
Going Greek,Restaurant/Cafe/Canteen,NW9 6SG,5,fhrs_5_en-GB,2023-12-07,Barnet,-0.252161,51.588478,images/test\fhrs_5_en-GB.png
Gokyuzu Restaurant,Restaurant/Cafe/Canteen,N12 0QZ,5,fhrs_5_en-GB,2022-03-14,Barnet,-0.1742917,51.6052714,images/test\fhrs_5_en-GB.png
Golden Grill House,Restaurant/Cafe/Canteen,NW2 3EE,1,fhrs_1_en-GB,2024-06-06,Barnet,-0.21372,51.555689,images/test\fhrs_1_en-GB.png
Golden Wok,Takeaway/sandwich shop,NW2 1HR,3,fhrs_3_en-GB,2024-01-15,Barnet,-0.207767,51.560706,images/test\fhrs_3_en-GB.png
Good Fortune Club,Restaurant/Cafe/Canteen,N20 0LH,5,fhrs_5_en-GB,2024-08-29,Barnet,-0.174504,51.627923,images/test\fhrs_5_en-GB.png
Gospoda,Restaurant/Cafe/Canteen,N10 1LR,4,fhrs_4_en-GB,2024-02-16,Barnet,-0.1474041,51.5991857,images/test\fhrs_4_en-GB.png
Gourmet Grill,Takeaway/sandwich shop,NW7 3TG,5,fhrs_5_en-GB,2023-10-19,Barnet,-0.245569,51.615707,images/test\fhrs_5_en-GB.png
Grab Or Dine,Takeaway/sandwich shop,EN4 8RQ,3,fhrs_3_en-GB,2023-02-10,Barnet,-0.170937,51.649422,images/test\fhrs_3_en-GB.png
Greek Art Bakery,Restaurant/Cafe/Canteen,EN5 5UJ,2,fhrs_2_en-GB,2024-11-13,Barnet,-0.1980824,51.6516967,images/test\fhrs_2_en-GB.png
"Grill Hub, Late Nite Delivery, Mac Junkies, U Vegan Dog",Takeaway/sandwich shop,N12 0EE,4,fhrs_4_en-GB,2022-03-22,Barnet,-0.176634,51.613695,images/test\fhrs_4_en-GB.png
Gupta's Indian Sweets & Savouries,Takeaway/sandwich shop,NW4 4UJ,4,fhrs_4_en-GB,2024-05-03,Barnet,-0.233721,51.593103,images/test\fhrs_4_en-GB.png
Habiba's Smokehouse,Restaurant/Cafe/Canteen,NW11 0AA,1,fhrs_1_en-GB,2024-10-14,Barnet,-0.2001742,51.5843567,images/test\fhrs_1_en-GB.png
Hadley House Restaurant And Bar,Restaurant/Cafe/Canteen,EN5 5SU,4,fhrs_4_en-GB,2023-06-02,Barnet,-0.201496,51.657808,images/test\fhrs_4_en-GB.png
Haida Sandwich,Takeaway/sandwich shop,N12 8JT,2,fhrs_2_en-GB,2023-11-14,Barnet,-0.177012,51.6160716,images/test\fhrs_2_en-GB.png
Hampstead Grill,Restaurant/Cafe/Canteen,NW2 2HN,3,fhrs_3_en-GB,2024-09-24,Barnet,-0.197324,51.561013,images/test\fhrs_3_en-GB.png
Happy Face Pizza,Restaurant/Cafe/Canteen,NW2 1AJ,5,fhrs_5_en-GB,2024-01-19,Barnet,-0.2197308,51.5715429,images/test\fhrs_5_en-GB.png
Happy Villa,Restaurant/Cafe/Canteen,NW2 2HY,5,fhrs_5_en-GB,2022-06-25,Barnet,-0.197098,51.562359,images/test\fhrs_5_en-GB.png
Harmony Coffee House & Soft Play,Restaurant/Cafe/Canteen,N10 1HD,3,fhrs_3_en-GB,2023-12-04,Barnet,-0.1482119,51.6007764,images/test\fhrs_3_en-GB.png
Har's Coffee,Restaurant/Cafe/Canteen,NW7 2JU,5,fhrs_5_en-GB,2022-02-11,Barnet,-0.248553,51.613621,images/test\fhrs_5_en-GB.png
Hasty Tasty Pizza,Takeaway/sandwich shop,NW4 3FP,5,fhrs_5_en-GB,2021-06-09,Barnet,-0.224534,51.576185,images/test\fhrs_5_en-GB.png
Hatch Cafe And Gelateria,Restaurant/Cafe/Canteen,N10 1HD,5,fhrs_5_en-GB,2024-02-23,Barnet,-0.148229,51.600787,images/test\fhrs_5_en-GB.png
Haven Bistro And Bar,Restaurant/Cafe/Canteen,N20 9LN,4,fhrs_4_en-GB,2023-12-20,Barnet,-0.1761697,51.6328091,images/test\fhrs_4_en-GB.png
Head Room Cafe,Restaurant/Cafe/Canteen,NW11 8EN,4,fhrs_4_en-GB,2023-08-16,Barnet,-0.199417,51.572691,images/test\fhrs_4_en-GB.png
Heaven,Restaurant/Cafe/Canteen,EN5 5UE,4,fhrs_4_en-GB,2024-10-22,Barnet,-0.1973045,51.6513692,images/test\fhrs_4_en-GB.png
Hefaure,Restaurant/Cafe/Canteen,NW4 4EB,5,fhrs_5_en-GB,2023-08-29,Barnet,-0.225214,51.589845,images/test\fhrs_5_en-GB.png
Helen's Kitchen,Takeaway/sandwich shop,EN5 4HZ,2,fhrs_2_en-GB,2023-06-12,Barnet,-0.203924000263214,51.654167175293,images/test\fhrs_2_en-GB.png
Hello Pizzas,Restaurant/Cafe/Canteen,NW4 4AX,5,fhrs_5_en-GB,2022-10-12,Barnet,-0.2298603,51.5874307,images/test\fhrs_5_en-GB.png
Hendon Park Cafe,Restaurant/Cafe/Canteen,,5,fhrs_5_en-GB,2022-06-02,Barnet,-0.219120793187726,51.5843418942668,images/test\fhrs_5_en-GB.png
HK HOUSE,Takeaway/sandwich shop,N14 5JP,4,fhrs_4_en-GB,2024-03-15,Barnet,-0.142414,51.632159,images/test\fhrs_4_en-GB.png
Hollywood Bowl Kitchen,Restaurant/Cafe/Canteen,N12 0GL,4,fhrs_4_en-GB,2023-04-25,Barnet,-0.173568,51.604808,images/test\fhrs_4_en-GB.png
Holybella,Restaurant/Cafe/Canteen,N12 9RH,5,fhrs_5_en-GB,2022-08-13,Barnet,-0.176431,51.618772,images/test\fhrs_5_en-GB.png
HOLYBELLA Cafe,Restaurant/Cafe/Canteen,N10 1ET,4,fhrs_4_en-GB,2024-11-05,Barnet,-0.147108,51.5996641,images/test\fhrs_4_en-GB.png
Homestore Cafe,Restaurant/Cafe/Canteen,NW9 5DS,5,fhrs_5_en-GB,2022-03-11,Barnet,-0.255881,51.59312,images/test\fhrs_5_en-GB.png
Hope Cafe,Restaurant/Cafe/Canteen,N12 8QJ,5,fhrs_5_en-GB,2021-09-30,Barnet,-0.1770228,51.619637,images/test\fhrs_5_en-GB.png
Hope Corner Community Centre,Restaurant/Cafe/Canteen,EN5 2DY,5,fhrs_5_en-GB,2021-06-22,Barnet,-0.2029835,51.6458527,images/test\fhrs_5_en-GB.png
Hosh,Restaurant/Cafe/Canteen,NW11 8LL,3,fhrs_3_en-GB,2024-12-10,Barnet,-0.197378,51.572417,images/test\fhrs_3_en-GB.png
Hot Cut,Restaurant/Cafe/Canteen,NW11 8HB,3,fhrs_3_en-GB,2023-10-10,Barnet,-0.200481,51.573867,images/test\fhrs_3_en-GB.png
Hot Milk,Restaurant/Cafe/Canteen,EN4 8RN,5,fhrs_5_en-GB,2024-12-18,Barnet,-0.171066,51.64982,images/test\fhrs_5_en-GB.png
Hot Slice Pizza & Pasta,Takeaway/sandwich shop,HA8 7EJ,5,fhrs_5_en-GB,2023-05-25,Barnet,-0.278403,51.610313,images/test\fhrs_5_en-GB.png
Hotel Chocolat,Restaurant/Cafe/Canteen,NW4 3FP,5,fhrs_5_en-GB,2019-11-19,Barnet,-0.224534,51.576185,images/test\fhrs_5_en-GB.png
Huddle Caffe,Restaurant/Cafe/Canteen,EN5 5SZ,5,fhrs_5_en-GB,2024-01-31,Barnet,-0.2011272,51.6575669,images/test\fhrs_5_en-GB.png
Hummus Bar,Restaurant/Cafe/Canteen,NW4 2DX,3,fhrs_3_en-GB,2023-11-09,Barnet,-0.221264,51.587501,images/test\fhrs_3_en-GB.png
Hummus Bar,Restaurant/Cafe/Canteen,NW11 8LN,4,fhrs_4_en-GB,2023-08-29,Barnet,-0.198859,51.572925,images/test\fhrs_4_en-GB.png
Hyderabadi Dum Biryani,Restaurant/Cafe/Canteen,NW9 7EE,4,fhrs_4_en-GB,2024-08-15,Barnet,-0.238972,51.577149,images/test\fhrs_4_en-GB.png
Ijinle,Takeaway/sandwich shop,EN5 1AU,4,fhrs_4_en-GB,2024-02-27,Barnet,-0.183861,51.6428015,images/test\fhrs_4_en-GB.png
Il Cortile,Restaurant/Cafe/Canteen,,4,fhrs_4_en-GB,2023-03-23,Barnet,-0.2237626,51.5764202,images/test\fhrs_4_en-GB.png
Il Funghetto,Restaurant/Cafe/Canteen,N12 0EE,5,fhrs_5_en-GB,2023-11-30,Barnet,-0.176634,51.613695,images/test\fhrs_5_en-GB.png
IL Piccolo Villaggio,Restaurant/Cafe/Canteen,N2 8DR,5,fhrs_5_en-GB,2023-10-04,Barnet,-0.171824,51.593207,images/test\fhrs_5_en-GB.png
Il Tocco D'Artista,Restaurant/Cafe/Canteen,N12 0EY,3,fhrs_3_en-GB,2024-01-16,Barnet,-0.178154,51.611821,images/test\fhrs_3_en-GB.png
Imperial Spices,Takeaway/sandwich shop,N2 8JL,3,fhrs_3_en-GB,2024-07-24,Barnet,-0.173338,51.593618,images/test\fhrs_3_en-GB.png
Indian Ace,Takeaway/sandwich shop,N20 0RU,3,fhrs_3_en-GB,2023-08-10,Barnet,-0.153557,51.623576,images/test\fhrs_3_en-GB.png
Indian Orchid,Restaurant/Cafe/Canteen,N12 0EY,5,fhrs_5_en-GB,2021-12-04,Barnet,-0.178154,51.611821,images/test\fhrs_5_en-GB.png
Inky's Stables Cafe,Takeaway/sandwich shop,N3 3QE,2,fhrs_2_en-GB,2024-05-30,Barnet,-0.196338,51.596878,images/test\fhrs_2_en-GB.png
International Phoneline,Restaurant/Cafe/Canteen,HA8 0LD,4,fhrs_4_en-GB,2020-01-23,Barnet,-0.264904,51.602219,images/test\fhrs_4_en-GB.png
"Iroko Restaurant, Lounge And Bar",Restaurant/Cafe/Canteen,HA8 0AS,4,fhrs_4_en-GB,2024-03-26,Barnet,-0.269945,51.602958,images/test\fhrs_4_en-GB.png
Istanbul Restaurant,Restaurant/Cafe/Canteen,N12 9RH,5,fhrs_5_en-GB,2023-12-12,Barnet,-0.176431,51.618772,images/test\fhrs_5_en-GB.png
ITJL,Restaurant/Cafe/Canteen,NW9 5WU,3,fhrs_3_en-GB,2024-03-07,Barnet,-0.2506697,51.595527,images/test\fhrs_3_en-GB.png
ITJL,Restaurant/Cafe/Canteen,NW9 4EW,4,fhrs_4_en-GB,2024-05-01,Barnet,-0.2449966,51.5976187,images/test\fhrs_4_en-GB.png
Its Pizza Time,Takeaway/sandwich shop,NW4 4DP,3,fhrs_3_en-GB,2024-07-16,Barnet,-0.222692,51.589735,images/test\fhrs_3_en-GB.png
Izgara Finchley,Restaurant/Cafe/Canteen,N3 1RT,5,fhrs_5_en-GB,2022-05-14,Barnet,-0.196148,51.599851,images/test\fhrs_5_en-GB.png
Izgara Restaurant,Restaurant/Cafe/Canteen,N20 9HH,4,fhrs_4_en-GB,2022-04-13,Barnet,-0.174648,51.630444,images/test\fhrs_4_en-GB.png
Izgara Restaurant,Restaurant/Cafe/Canteen,HA8 7JU,5,fhrs_5_en-GB,2023-12-19,Barnet,-0.276094,51.614829,images/test\fhrs_5_en-GB.png
Izmir Kebab,Takeaway/sandwich shop,EN5 1QW,5,fhrs_5_en-GB,2024-04-05,Barnet,-0.174484,51.649648,images/test\fhrs_5_en-GB.png
Jakarta,Restaurant/Cafe/Canteen,NW9 6RS,5,fhrs_5_en-GB,2023-10-03,Barnet,-0.251565,51.588218,images/test\fhrs_5_en-GB.png
Janine's Homemade Meals,Restaurant/Cafe/Canteen,N12 0PD,4,fhrs_4_en-GB,2023-12-14,Barnet,-0.172783,51.606027,images/test\fhrs_4_en-GB.png
Japanico,Restaurant/Cafe/Canteen,NW11 6JY,3,fhrs_3_en-GB,2024-09-16,Barnet,-0.182548,51.586054,images/test\fhrs_3_en-GB.png
Jels Cafe,Restaurant/Cafe/Canteen,NW2 2QJ,4,fhrs_4_en-GB,2023-05-23,Barnet,-0.197958,51.562876,images/test\fhrs_4_en-GB.png
Jenny's Cafe,Restaurant/Cafe/Canteen,HA8 7HX,5,fhrs_5_en-GB,2024-03-18,Barnet,-0.277675,51.61237,images/test\fhrs_5_en-GB.png
JM Oriental,Restaurant/Cafe/Canteen,NW9 5GE,5,fhrs_5_en-GB,2022-11-10,Barnet,-0.24314,51.595555,images/test\fhrs_5_en-GB.png
Johns Pizza,Takeaway/sandwich shop,N10 1LR,5,fhrs_5_en-GB,2024-09-09,Barnet,-0.147603,51.5995,images/test\fhrs_5_en-GB.png
Joice Cafe,Restaurant/Cafe/Canteen,NW7 3DA,4,fhrs_4_en-GB,2023-09-08,Barnet,-0.247702,51.614705,images/test\fhrs_4_en-GB.png
Joie De Vie,Restaurant/Cafe/Canteen,NW11 0QS,5,fhrs_5_en-GB,2023-05-26,Barnet,-0.199846,51.583002,images/test\fhrs_5_en-GB.png
Jollof Zone,Restaurant/Cafe/Canteen,HA8 7AU,4,fhrs_4_en-GB,2023-09-12,Barnet,-0.2752336,51.6152948,images/test\fhrs_4_en-GB.png
Jordan Grill,Restaurant/Cafe/Canteen,N3 2HX,3,fhrs_3_en-GB,2024-01-09,Barnet,-0.183161,51.600721,images/test\fhrs_3_en-GB.png
Jp Chinese Restaurant,Restaurant/Cafe/Canteen,NW4 4BD,3,fhrs_3_en-GB,2023-08-29,Barnet,-0.228291,51.588318,images/test\fhrs_3_en-GB.png
Juice & More,Takeaway/sandwich shop,EN5 4HZ,3,fhrs_3_en-GB,2024-02-09,Barnet,-0.2021358,51.6542883,images/test\fhrs_3_en-GB.png
Juicy Plus,Restaurant/Cafe/Canteen,N3 1LJ,5,fhrs_5_en-GB,2023-06-20,Barnet,-0.18869,51.605114,images/test\fhrs_5_en-GB.png
Jun Peking Chinese Restaurant,Restaurant/Cafe/Canteen,NW4 1RR,3,fhrs_3_en-GB,2023-08-18,Barnet,-0.223112,51.590083,images/test\fhrs_3_en-GB.png
Junction Cafe,Restaurant/Cafe/Canteen,NW2 2DX,4,fhrs_4_en-GB,2024-02-23,Barnet,-0.207332,51.560393,images/test\fhrs_4_en-GB.png
K - Cook,Restaurant/Cafe/Canteen,NW4 3AL,4,fhrs_4_en-GB,2024-02-13,Barnet,-0.227994,51.584078,images/test\fhrs_4_en-GB.png
Kabul Kebab,Restaurant/Cafe/Canteen,NW9 7DY,4,fhrs_4_en-GB,2022-12-13,Barnet,-0.238842,51.576409,images/test\fhrs_4_en-GB.png
Kabul Kebab Restaurant Edgware,Restaurant/Cafe/Canteen,HA8 7HF,3,fhrs_3_en-GB,2024-05-30,Barnet,-0.280059,51.611587,images/test\fhrs_3_en-GB.png
Kaifeng Chinese Restaurant,Restaurant/Cafe/Canteen,NW4 4DU,3,fhrs_3_en-GB,2023-03-09,Barnet,-0.223857,51.589861,images/test\fhrs_3_en-GB.png
Kasa Bar & Grill,Restaurant/Cafe/Canteen,NW11 6JJ,4,fhrs_4_en-GB,2021-03-03,Barnet,-0.182709,51.585643,images/test\fhrs_4_en-GB.png
Katya & Sons Bakery,Restaurant/Cafe/Canteen,EN4 8TF,5,fhrs_5_en-GB,2024-12-04,Barnet,-0.1646732,51.6429467,images/test\fhrs_5_en-GB.png
Kennedy's Fish   Chips,Takeaway/sandwich shop,N11 1ND,4,fhrs_4_en-GB,2023-09-21,Barnet,-0.14352,51.616035,images/test\fhrs_4_en-GB.png
Kentucky Grill,Restaurant/Cafe/Canteen,NW4 3JH,5,fhrs_5_en-GB,2023-05-04,Barnet,-0.2285662,51.5837635,images/test\fhrs_5_en-GB.png
Kenya Kitchen,Restaurant/Cafe/Canteen,HA8 9NY,5,fhrs_5_en-GB,2022-03-15,Barnet,-0.260696,51.616364,images/test\fhrs_5_en-GB.png
KFC,Takeaway/sandwich shop,NW11 8LL,5,fhrs_5_en-GB,2021-12-11,Barnet,-0.197378,51.572417,images/test\fhrs_5_en-GB.png
KFC,Takeaway/sandwich shop,NW4 3JL,5,fhrs_5_en-GB,2024-10-17,Barnet,-0.227984,51.583215,images/test\fhrs_5_en-GB.png
KFC,Takeaway/sandwich shop,EN5 5UZ,5,fhrs_5_en-GB,2024-02-28,Barnet,-0.2021895,51.6558612,images/test\fhrs_5_en-GB.png
KFC,Restaurant/Cafe/Canteen,HA8 7AA,5,fhrs_5_en-GB,2022-09-12,Barnet,-0.2766708,51.6126823,images/test\fhrs_5_en-GB.png
KFC,Takeaway/sandwich shop,N2 9ED,5,fhrs_5_en-GB,2024-05-24,Barnet,-0.164383,51.590852,images/test\fhrs_5_en-GB.png
KFC,Takeaway/sandwich shop,NW2 3ED,5,fhrs_5_en-GB,2023-06-14,Barnet,-0.214864,51.556686,images/test\fhrs_5_en-GB.png
KFC,Takeaway/sandwich shop,N12 8JT,5,fhrs_5_en-GB,2024-07-03,Barnet,-0.177108004689217,51.6155891418457,images/test\fhrs_5_en-GB.png
KFC,Takeaway/sandwich shop,N3 1XY,5,fhrs_5_en-GB,2023-07-04,Barnet,-0.189687,51.604374,images/test\fhrs_5_en-GB.png
KFC,Takeaway/sandwich shop,NW4 3FQ,5,fhrs_5_en-GB,2022-03-16,Barnet,-0.224534,51.576185,images/test\fhrs_5_en-GB.png
KFC,Restaurant/Cafe/Canteen,NW7 3ET,5,fhrs_5_en-GB,2024-10-30,Barnet,-0.255223,51.622344,images/test\fhrs_5_en-GB.png
KFC,Takeaway/sandwich shop,NW9 5EB,4,fhrs_4_en-GB,2024-11-04,Barnet,-0.258308,51.59347,images/test\fhrs_4_en-GB.png
King Neptune,Takeaway/sandwich shop,HA8 9NY,5,fhrs_5_en-GB,2022-12-08,Barnet,-0.260696,51.616364,images/test\fhrs_5_en-GB.png
King Of Taste,Takeaway/sandwich shop,EN4 8RW,1,fhrs_1_en-GB,2024-11-28,Barnet,-0.174213,51.649923,images/test\fhrs_1_en-GB.png
Kings Cafe,Restaurant/Cafe/Canteen,N3 1TR,5,fhrs_5_en-GB,2022-03-25,Barnet,-0.196675,51.600039,images/test\fhrs_5_en-GB.png
Kioskcoffee,Takeaway/sandwich shop,NW4 2EL,3,fhrs_3_en-GB,2023-04-04,Barnet,-0.220287,51.5870072,images/test\fhrs_3_en-GB.png
Kiyoto Sushi,Restaurant/Cafe/Canteen,NW7 3BU,5,fhrs_5_en-GB,2023-09-14,Barnet,-0.246385,51.615153,images/test\fhrs_5_en-GB.png
Koba's Chicken & Pizza Hut,Restaurant/Cafe/Canteen,N12 0NB,5,fhrs_5_en-GB,2024-01-16,Barnet,-0.158813,51.612571,images/test\fhrs_5_en-GB.png
Koi Restaurant,Restaurant/Cafe/Canteen,NW7 3DA,4,fhrs_4_en-GB,2024-10-31,Barnet,-0.247702,51.614705,images/test\fhrs_4_en-GB.png
Komi Palm,Restaurant/Cafe/Canteen,HA8 7AX,5,fhrs_5_en-GB,2023-08-23,Barnet,-0.274851,51.615988,images/test\fhrs_5_en-GB.png
Krispy King,Takeaway/sandwich shop,N11 3DA,5,fhrs_5_en-GB,2024-10-14,Barnet,-0.157333,51.613106,images/test\fhrs_5_en-GB.png
Kroky,Takeaway/sandwich shop,HA8 0LD,5,fhrs_5_en-GB,2024-10-08,Barnet,-0.266834000077592,51.6009555000279,images/test\fhrs_5_en-GB.png
Kurk,Takeaway/sandwich shop,N3 1LJ,5,fhrs_5_en-GB,2022-01-25,Barnet,-0.18869,51.605114,images/test\fhrs_5_en-GB.png
Kurk Grilled Chicken,Takeaway/sandwich shop,HA8 7EJ,2,fhrs_2_en-GB,2023-11-14,Barnet,-0.278403,51.610313,images/test\fhrs_2_en-GB.png
L & S Coffee Bar,Restaurant/Cafe/Canteen,NW7 1RP,4,fhrs_4_en-GB,2023-11-23,Barnet,-0.2130915,51.6142607,images/test\fhrs_4_en-GB.png
La Esquina,Restaurant/Cafe/Canteen,NW2 1HD,5,fhrs_5_en-GB,2022-04-04,Barnet,-0.213488,51.557574,images/test\fhrs_5_en-GB.png
La Fiesta,Restaurant/Cafe/Canteen,NW11 9ES,5,fhrs_5_en-GB,2024-09-10,Barnet,-0.20777,51.57789,images/test\fhrs_5_en-GB.png
La Gourmandise,Restaurant/Cafe/Canteen,N2 8AG,4,fhrs_4_en-GB,2024-01-15,Barnet,-0.164936,51.590744,images/test\fhrs_4_en-GB.png
La Lluna,Restaurant/Cafe/Canteen,N20 9HH,5,fhrs_5_en-GB,2023-04-20,Barnet,-0.174648,51.630444,images/test\fhrs_5_en-GB.png
La Mia Pizza,Takeaway/sandwich shop,N12 8PT,4,fhrs_4_en-GB,2023-05-26,Barnet,-0.1770444,51.6176693,images/test\fhrs_4_en-GB.png
Lahore Tikka Masala,Restaurant/Cafe/Canteen,HA8 7HX,4,fhrs_4_en-GB,2023-11-20,Barnet,-0.277675,51.61237,images/test\fhrs_4_en-GB.png
Lara Grill Colindale,Restaurant/Cafe/Canteen,NW9 5WU,5,fhrs_5_en-GB,2022-12-22,Barnet,-0.2512271,51.5957912,images/test\fhrs_5_en-GB.png
L'Artista Restaurant,Takeaway/sandwich shop,NW11 7PE,4,fhrs_4_en-GB,2024-04-11,Barnet,-0.1959222,51.57307,images/test\fhrs_4_en-GB.png
Lavia,Takeaway/sandwich shop,N3 3LD,5,fhrs_5_en-GB,2023-06-15,Barnet,-0.199028,51.59495,images/test\fhrs_5_en-GB.png
Le Rose,Restaurant/Cafe/Canteen,EN5 5UW,5,fhrs_5_en-GB,2023-06-08,Barnet,-0.2000133,51.6528581,images/test\fhrs_5_en-GB.png
Lekki Kitchen,Restaurant/Cafe/Canteen,HA8 0LU,3,fhrs_3_en-GB,2024-02-08,Barnet,-0.264564,51.602052,images/test\fhrs_3_en-GB.png
Lemon Tree,Takeaway/sandwich shop,EN5 1ES,4,fhrs_4_en-GB,2024-01-03,Barnet,-0.186852,51.646531,images/test\fhrs_4_en-GB.png
Leon Restaurant,Restaurant/Cafe/Canteen,NW4 3FP,5,fhrs_5_en-GB,2022-03-19,Barnet,-0.224534,51.576185,images/test\fhrs_5_en-GB.png
Le-Vap,Restaurant/Cafe/Canteen,N3 2BU,5,fhrs_5_en-GB,2023-11-16,Barnet,-0.190658,51.603202,images/test\fhrs_5_en-GB.png
Lezzet Restaurant,Restaurant/Cafe/Canteen,N12 8LJ,3,fhrs_3_en-GB,2024-10-22,Barnet,-0.177201,51.613964,images/test\fhrs_3_en-GB.png
Likya Restaurant,Restaurant/Cafe/Canteen,NW11 8LN,5,fhrs_5_en-GB,2023-10-10,Barnet,-0.198859,51.572925,images/test\fhrs_5_en-GB.png
Li's Chinese Takeaway,Takeaway/sandwich shop,EN4 8SS,3,fhrs_3_en-GB,2024-02-29,Barnet,-0.164123,51.643129,images/test\fhrs_3_en-GB.png
Little Resham,Restaurant/Cafe/Canteen,HA8 7AB,4,fhrs_4_en-GB,2024-01-18,Barnet,-0.2782013,51.6111083,images/test\fhrs_4_en-GB.png
Little Tea House,Restaurant/Cafe/Canteen,N20 0RA,3,fhrs_3_en-GB,2024-01-10,Barnet,-0.174928,51.627076,images/test\fhrs_3_en-GB.png
L'Mour Restaurant & Lounge,Restaurant/Cafe/Canteen,N20 9HJ,3,fhrs_3_en-GB,2023-03-30,Barnet,-0.1748981,51.6312496,images/test\fhrs_3_en-GB.png
Lola's Cupcakes,Takeaway/sandwich shop,,5,fhrs_5_en-GB,2021-06-18,Barnet,-0.2237626,51.5764202,images/test\fhrs_5_en-GB.png
London BBQ,Restaurant/Cafe/Canteen,HA8 7AB,5,fhrs_5_en-GB,2022-10-18,Barnet,-0.278492,51.611015,images/test\fhrs_5_en-GB.png
London Underground Ltd,Restaurant/Cafe/Canteen,NW11 7RN,5,fhrs_5_en-GB,2021-12-19,Barnet,-0.194846,51.572225,images/test\fhrs_5_en-GB.png
Loon Wah,Takeaway/sandwich shop,EN5 4BX,3,fhrs_3_en-GB,2023-09-28,Barnet,-0.210316,51.652655,images/test\fhrs_3_en-GB.png
Ludettino,Restaurant/Cafe/Canteen,NW2 2DX,2,fhrs_2_en-GB,2023-12-04,Barnet,-0.2074512,51.5603755,images/test\fhrs_2_en-GB.png
Luga,Restaurant/Cafe/Canteen,HA8 7AU,5,fhrs_5_en-GB,2024-11-21,Barnet,-0.275329,51.615186,images/test\fhrs_5_en-GB.png
Macarong Gg,Restaurant/Cafe/Canteen,NW11 8LN,4,fhrs_4_en-GB,2024-03-19,Barnet,-0.1982634,51.5727213,images/test\fhrs_4_en-GB.png
Made In MDX,Takeaway/sandwich shop,NW4 4BT,5,fhrs_5_en-GB,2022-02-25,Barnet,-0.228453,51.589723,images/test\fhrs_5_en-GB.png
Madinah Shawarma,Restaurant/Cafe/Canteen,NW9 6AG,3,fhrs_3_en-GB,2024-07-26,Barnet,-0.240122,51.578398,images/test\fhrs_3_en-GB.png
Mah Cafe,Restaurant/Cafe/Canteen,EN4 8RD,3,fhrs_3_en-GB,2023-07-28,Barnet,-0.167951,51.64747,images/test\fhrs_3_en-GB.png
Majjo's,Restaurant/Cafe/Canteen,N2 9JR,5,fhrs_5_en-GB,2022-05-03,Barnet,-0.163269,51.589486,images/test\fhrs_5_en-GB.png
Mala Indian Brasserie,Restaurant/Cafe/Canteen,N20 9HR,4,fhrs_4_en-GB,2024-02-27,Barnet,-0.175915,51.632001,images/test\fhrs_4_en-GB.png
Mama Calabar Restaurant,Restaurant/Cafe/Canteen,NW4 3XP,4,fhrs_4_en-GB,2023-03-10,Barnet,-0.229332,51.582714,images/test\fhrs_4_en-GB.png
Mama Fifi,Restaurant/Cafe/Canteen,EN5 5XY,3,fhrs_3_en-GB,2023-12-08,Barnet,-0.203169,51.655351,images/test\fhrs_3_en-GB.png
Maman Cook,Restaurant/Cafe/Canteen,N3 1LJ,4,fhrs_4_en-GB,2024-07-23,Barnet,-0.18869,51.605114,images/test\fhrs_4_en-GB.png
Marshalls Dining,Restaurant/Cafe/Canteen,NW7 4DQ,4,fhrs_4_en-GB,2024-07-18,Barnet,-0.23504,51.618283,images/test\fhrs_4_en-GB.png
Marugame Udon & Tempura,Restaurant/Cafe/Canteen,NW4 3FZ,5,fhrs_5_en-GB,2022-06-29,Barnet,-0.224534,51.576185,images/test\fhrs_5_en-GB.png
Mascalzone,Restaurant/Cafe/Canteen,HA8 7AA,5,fhrs_5_en-GB,2022-03-15,Barnet,-0.2770398,51.6122309,images/test\fhrs_5_en-GB.png
Mat Cafe,Restaurant/Cafe/Canteen,NW4 2EL,4,fhrs_4_en-GB,2024-04-16,Barnet,-0.220121,51.587196,images/test\fhrs_4_en-GB.png
Matthews Kitchen,Restaurant/Cafe/Canteen,N20 9HJ,5,fhrs_5_en-GB,2023-11-16,Barnet,-0.175051,51.631925,images/test\fhrs_5_en-GB.png
Maya Lounge,Restaurant/Cafe/Canteen,N20 9HS,5,fhrs_5_en-GB,2023-03-16,Barnet,-0.1755668,51.6306278,images/test\fhrs_5_en-GB.png
Mayhek,Restaurant/Cafe/Canteen,EN5 5UW,4,fhrs_4_en-GB,2023-10-30,Barnet,-0.199829,51.6528,images/test\fhrs_4_en-GB.png
Mazza Grill And Pronto Grill House,Restaurant/Cafe/Canteen,NW4 3JH,5,fhrs_5_en-GB,2024-04-16,Barnet,-0.228595,51.583845,images/test\fhrs_5_en-GB.png
McDonalds,Restaurant/Cafe/Canteen,NW9 6DB,5,fhrs_5_en-GB,2024-11-15,Barnet,-0.254569,51.591571,images/test\fhrs_5_en-GB.png
McDonalds,Restaurant/Cafe/Canteen,N11 3PW,5,fhrs_5_en-GB,2024-04-15,Barnet,-0.14266,51.611624,images/test\fhrs_5_en-GB.png
McDonald's,Takeaway/sandwich shop,EN5 5XQ,5,fhrs_5_en-GB,2023-05-19,Barnet,-0.201337,51.654514,images/test\fhrs_5_en-GB.png
McDonald's,Restaurant/Cafe/Canteen,N12 9QH,5,fhrs_5_en-GB,2022-12-07,Barnet,-0.176348,51.615435,images/test\fhrs_5_en-GB.png
McDonalds Restaurants Ltd,Restaurant/Cafe/Canteen,N2 8AW,5,fhrs_5_en-GB,2022-07-22,Barnet,-0.164545,51.587914,images/test\fhrs_5_en-GB.png
McDonalds Restaurants Ltd,Restaurant/Cafe/Canteen,HA8 8AF,5,fhrs_5_en-GB,2022-09-12,Barnet,-0.291652,51.6214818,images/test\fhrs_5_en-GB.png
McDonald's Restaurants Ltd,Restaurant/Cafe/Canteen,NW2 3EE,5,fhrs_5_en-GB,2023-01-04,Barnet,-0.21372,51.555689,images/test\fhrs_5_en-GB.png
McDonald's Restaurants Ltd,Restaurant/Cafe/Canteen,NW4 3FQ,5,fhrs_5_en-GB,2024-05-16,Barnet,-0.224534,51.576185,images/test\fhrs_5_en-GB.png
McDonald's Restaurants Ltd,Restaurant/Cafe/Canteen,N12 0GL,5,fhrs_5_en-GB,2022-11-25,Barnet,-0.173568,51.604808,images/test\fhrs_5_en-GB.png
Meera's Express,Takeaway/sandwich shop,N3 1LJ,3,fhrs_3_en-GB,2024-10-01,Barnet,-0.18869,51.605114,images/test\fhrs_3_en-GB.png
Memoo Pizza / Nudo Pizza,Restaurant/Cafe/Canteen,N2 9PN,4,fhrs_4_en-GB,2024-05-28,Barnet,-0.163703,51.589106,images/test\fhrs_4_en-GB.png
Meraki Grill Restaurant,Restaurant/Cafe/Canteen,N14 5JR,4,fhrs_4_en-GB,2023-09-26,Barnet,-0.14362,51.632358,images/test\fhrs_4_en-GB.png
Meral's Cafe,Restaurant/Cafe/Canteen,NW2 1HD,2,fhrs_2_en-GB,2024-12-02,Barnet,-0.213488,51.557574,images/test\fhrs_2_en-GB.png
Mermaid Fish Bar,Takeaway/sandwich shop,N3 2RA,5,fhrs_5_en-GB,2022-05-19,Barnet,-0.181371,51.599273,images/test\fhrs_5_en-GB.png
Mero's,Takeaway/sandwich shop,NW7 1LB,4,fhrs_4_en-GB,2023-07-13,Barnet,-0.207548,51.60552,images/test\fhrs_4_en-GB.png
Met Su Yan,Restaurant/Cafe/Canteen,NW11 8HB,2,fhrs_2_en-GB,2023-12-12,Barnet,-0.200481,51.573867,images/test\fhrs_2_en-GB.png
Met Su Yan,Restaurant/Cafe/Canteen,HA8 7JZ,5,fhrs_5_en-GB,2023-10-12,Barnet,-0.275632,51.615982,images/test\fhrs_5_en-GB.png
Metro Piazza,Restaurant/Cafe/Canteen,NW4 1PX,5,fhrs_5_en-GB,2024-02-01,Barnet,-0.226812,51.605174,images/test\fhrs_5_en-GB.png
Meze & Shish,Restaurant/Cafe/Canteen,N2 9EB,5,fhrs_5_en-GB,2022-01-25,Barnet,-0.1638064,51.5902282,images/test\fhrs_5_en-GB.png
Milani Caffe,Restaurant/Cafe/Canteen,N3 2BU,4,fhrs_4_en-GB,2024-09-11,Barnet,-0.190658,51.603202,images/test\fhrs_4_en-GB.png
Mill And Brew / Burger Melt,Restaurant/Cafe/Canteen,NW7 3DA,4,fhrs_4_en-GB,2024-05-21,Barnet,-0.247702,51.614705,images/test\fhrs_4_en-GB.png
Mill Hill Kebab House,Takeaway/sandwich shop,HA8 9QP,4,fhrs_4_en-GB,2023-10-30,Barnet,-0.260049,51.61666,images/test\fhrs_4_en-GB.png
Mill Hill Park Cafe,Restaurant/Cafe/Canteen,,5,fhrs_5_en-GB,2023-12-12,Barnet,-0.2394173,51.6137617,images/test\fhrs_5_en-GB.png
Mill Hill Tandoori,Restaurant/Cafe/Canteen,NW7 3LL,3,fhrs_3_en-GB,2024-02-13,Barnet,-0.248186,51.614137,images/test\fhrs_3_en-GB.png
Miller & Carter,Restaurant/Cafe/Canteen,EN5 3JG,5,fhrs_5_en-GB,2021-11-27,Barnet,-0.254485011100769,51.6423492431641,images/test\fhrs_5_en-GB.png
Minas Mini Desserts,Restaurant/Cafe/Canteen,NW9 7ED,4,fhrs_4_en-GB,2024-05-10,Barnet,-0.239566,51.577832,images/test\fhrs_4_en-GB.png
Ming Chinese Takeaway,Takeaway/sandwich shop,HA8 0LT,4,fhrs_4_en-GB,2024-11-29,Barnet,-0.265378,51.601524,images/test\fhrs_4_en-GB.png
Miorita Mill Hill,Restaurant/Cafe/Canteen,NW7 3TG,5,fhrs_5_en-GB,2024-07-30,Barnet,-0.245569,51.615707,images/test\fhrs_5_en-GB.png
MKs Cafe,Restaurant/Cafe/Canteen,N12 8JT,5,fhrs_5_en-GB,2022-09-18,Barnet,-0.1770244,51.6155851,images/test\fhrs_5_en-GB.png
Moes Peri Peri,Restaurant/Cafe/Canteen,NW9 5FW,5,fhrs_5_en-GB,2022-09-29,Barnet,-0.2422369,51.5962461,images/test\fhrs_5_en-GB.png
Mon Sushi,Restaurant/Cafe/Canteen,N12 0EE,5,fhrs_5_en-GB,2024-11-12,Barnet,-0.177014472903519,51.6134506249798,images/test\fhrs_5_en-GB.png
Mooboo,Takeaway/sandwich shop,NW4 2DT,4,fhrs_4_en-GB,2022-07-04,Barnet,-0.2201775,51.5866921,images/test\fhrs_4_en-GB.png
Mooboo,Takeaway/sandwich shop,HA8 7HX,5,fhrs_5_en-GB,2022-07-26,Barnet,-0.2774735,51.6125876,images/test\fhrs_5_en-GB.png
Mooboo,Takeaway/sandwich shop,N12 0NL,5,fhrs_5_en-GB,2023-09-05,Barnet,-0.1754732,51.612176,images/test\fhrs_5_en-GB.png
Mooboo Barnet,Takeaway/sandwich shop,EN5 5SJ,4,fhrs_4_en-GB,2022-06-08,Barnet,-0.1992081,51.6529677,images/test\fhrs_4_en-GB.png
Mother Restaurant,Restaurant/Cafe/Canteen,N3 2BG,4,fhrs_4_en-GB,2023-01-17,Barnet,-0.1924717,51.6018865,images/test\fhrs_4_en-GB.png
MoyoLondon,Restaurant/Cafe/Canteen,NW4 4AX,4,fhrs_4_en-GB,2024-01-17,Barnet,-0.229899,51.587434,images/test\fhrs_4_en-GB.png
Mozzafellas,Restaurant/Cafe/Canteen,HA8 7EJ,4,fhrs_4_en-GB,2024-11-28,Barnet,-0.278403,51.610313,images/test\fhrs_4_en-GB.png
Mr Wings,Takeaway/sandwich shop,HA8 9NY,3,fhrs_3_en-GB,2024-09-20,Barnet,-0.260696,51.616364,images/test\fhrs_3_en-GB.png
Munch Burgers,Restaurant/Cafe/Canteen,HA8 0EL,2,fhrs_2_en-GB,2024-07-26,Barnet,-0.263121,51.602786,images/test\fhrs_2_en-GB.png
Munch N Crunch,Takeaway/sandwich shop,NW11 9NN,5,fhrs_5_en-GB,2022-06-08,Barnet,-0.207422,51.578299,images/test\fhrs_5_en-GB.png
Munchies,Restaurant/Cafe/Canteen,EN5 5UW,4,fhrs_4_en-GB,2024-04-11,Barnet,-0.199699997901917,51.6527824401855,images/test\fhrs_4_en-GB.png
My Caffe,Restaurant/Cafe/Canteen,N12 0BP,4,fhrs_4_en-GB,2024-09-11,Barnet,-0.17643,51.613746,images/test\fhrs_4_en-GB.png
N20 Kids Club,Restaurant/Cafe/Canteen,N20 0PT,5,fhrs_5_en-GB,2023-09-26,Barnet,-0.176355,51.625713,images/test\fhrs_5_en-GB.png
N3 Indian Tandoor & Bar,Restaurant/Cafe/Canteen,N3 2PT,5,fhrs_5_en-GB,2024-12-17,Barnet,-0.188363,51.604264,images/test\fhrs_5_en-GB.png
Nahling Ltd,Restaurant/Cafe/Canteen,N2 9EB,1,fhrs_1_en-GB,2024-12-12,Barnet,-0.163801,51.589899,images/test\fhrs_1_en-GB.png
Naijaspot,Takeaway/sandwich shop,HA8 0BB,3,fhrs_3_en-GB,2023-02-07,Barnet,-0.267619013786316,51.6011505126953,images/test\fhrs_3_en-GB.png
Nakhon Thai Kitchen,Takeaway/sandwich shop,NW2 3EB,2,fhrs_2_en-GB,2024-01-09,Barnet,-0.215635,51.557265,images/test\fhrs_2_en-GB.png
Nando's,Restaurant/Cafe/Canteen,HA8 7JG,5,fhrs_5_en-GB,2023-07-11,Barnet,-0.276451,51.613809,images/test\fhrs_5_en-GB.png
Nando's,Restaurant/Cafe/Canteen,,5,fhrs_5_en-GB,2022-04-08,Barnet,-0.2237626,51.5764202,images/test\fhrs_5_en-GB.png
Nando's,Restaurant/Cafe/Canteen,N12 0GL,5,fhrs_5_en-GB,2023-07-12,Barnet,-0.173568,51.604808,images/test\fhrs_5_en-GB.png
Nando's Chickenland Limited,Restaurant/Cafe/Canteen,N12 9QG,5,fhrs_5_en-GB,2022-03-12,Barnet,-0.176298007369041,51.6150321960449,images/test\fhrs_5_en-GB.png
Nawroz Lounge,Takeaway/sandwich shop,N3 1LJ,5,fhrs_5_en-GB,2024-12-10,Barnet,-0.18869,51.605114,images/test\fhrs_5_en-GB.png
Nayla Cafe,Restaurant/Cafe/Canteen,NW11 7ES,3,fhrs_3_en-GB,2024-08-13,Barnet,-0.198298,51.5792107,images/test\fhrs_3_en-GB.png
New Curry Centre,Restaurant/Cafe/Canteen,EN5 1ES,5,fhrs_5_en-GB,2023-10-27,Barnet,-0.186852,51.646531,images/test\fhrs_5_en-GB.png
Nez Cafe,Restaurant/Cafe/Canteen,NW7 2QJ,5,fhrs_5_en-GB,2022-09-20,Barnet,-0.235811,51.602513,images/test\fhrs_5_en-GB.png
Niko Pizza,Restaurant/Cafe/Canteen,NW4 4AX,3,fhrs_3_en-GB,2023-11-28,Barnet,-0.229899,51.587434,images/test\fhrs_3_en-GB.png
Nippon Izakaya,Restaurant/Cafe/Canteen,N12 8PT,4,fhrs_4_en-GB,2024-06-06,Barnet,-0.177108,51.61774,images/test\fhrs_4_en-GB.png
Nkora,Restaurant/Cafe/Canteen,EN5 5XY,3,fhrs_3_en-GB,2024-05-09,Barnet,-0.203169,51.655351,images/test\fhrs_3_en-GB.png
Noel Cafe,Restaurant/Cafe/Canteen,EN4 8RN,3,fhrs_3_en-GB,2023-08-01,Barnet,-0.171066,51.64982,images/test\fhrs_3_en-GB.png
Nostimo,Restaurant/Cafe/Canteen,NW11 8EL,4,fhrs_4_en-GB,2023-07-26,Barnet,-0.198736,51.572393,images/test\fhrs_4_en-GB.png
Novellino,Restaurant/Cafe/Canteen,NW11 8EN,4,fhrs_4_en-GB,2024-05-15,Barnet,-0.199417,51.572691,images/test\fhrs_4_en-GB.png
Novellino Bistro,Restaurant/Cafe/Canteen,NW11 8HR,5,fhrs_5_en-GB,2021-03-03,Barnet,-0.2004222,51.5733383,images/test\fhrs_5_en-GB.png
Nu Nosh,Restaurant/Cafe/Canteen,NW11 6XL,3,fhrs_3_en-GB,2023-10-23,Barnet,-0.199225,51.58302,images/test\fhrs_3_en-GB.png
Nu Nosh,Restaurant/Cafe/Canteen,NW4 4DP,4,fhrs_4_en-GB,2024-01-17,Barnet,-0.222692,51.589735,images/test\fhrs_4_en-GB.png
Numa,Restaurant/Cafe/Canteen,NW7 3LL,5,fhrs_5_en-GB,2023-01-26,Barnet,-0.2484421,51.6140258,images/test\fhrs_5_en-GB.png
O PLATONAS GREEK TAVERNA,Restaurant/Cafe/Canteen,N14 5JR,4,fhrs_4_en-GB,2024-07-09,Barnet,-0.14362,51.632358,images/test\fhrs_4_en-GB.png
Oak Caffe,Restaurant/Cafe/Canteen,N20 9HE,5,fhrs_5_en-GB,2023-12-13,Barnet,-0.17391,51.630126,images/test\fhrs_5_en-GB.png
Oak Hill Park Cafe,Restaurant/Cafe/Canteen,EN4 8JP,5,fhrs_5_en-GB,2023-02-06,Barnet,-0.151004999876022,51.634822845459,images/test\fhrs_5_en-GB.png
Oakleigh Cafe,Restaurant/Cafe/Canteen,N20 0SG,5,fhrs_5_en-GB,2023-11-02,Barnet,-0.154691,51.623756,images/test\fhrs_5_en-GB.png
Oasis,Restaurant/Cafe/Canteen,N2 8DX,4,fhrs_4_en-GB,2021-12-08,Barnet,-0.1693522,51.5943522,images/test\fhrs_4_en-GB.png
Ocean City,Takeaway/sandwich shop,N12 0RS,3,fhrs_3_en-GB,2023-11-24,Barnet,-0.162815,51.611474,images/test\fhrs_3_en-GB.png
OCS Food Co,Restaurant/Cafe/Canteen,NW9 5EQ,5,fhrs_5_en-GB,2024-04-30,Barnet,-0.254115,51.594766,images/test\fhrs_5_en-GB.png
Odos,Restaurant/Cafe/Canteen,EN5 5TD,5,fhrs_5_en-GB,2024-10-03,Barnet,-0.2009325,51.6579461,images/test\fhrs_5_en-GB.png
Oishii Sushi,Restaurant/Cafe/Canteen,NW4 3AL,5,fhrs_5_en-GB,2023-09-12,Barnet,-0.227855,51.5839232,images/test\fhrs_5_en-GB.png
Old Fold Manor Golf Club,Restaurant/Cafe/Canteen,EN5 4QN,5,fhrs_5_en-GB,2021-05-29,Barnet,-0.200276,51.664515,images/test\fhrs_5_en-GB.png
Olympus Fried Fish,Restaurant/Cafe/Canteen,N3 2PA,4,fhrs_4_en-GB,2023-05-25,Barnet,-0.18815309,51.60514628,images/test\fhrs_4_en-GB.png
One Ashbourne,Restaurant/Cafe/Canteen,NW11 0AD,5,fhrs_5_en-GB,2023-11-08,Barnet,-0.2001496,51.5861029,images/test\fhrs_5_en-GB.png
Open Palace Restaurant,Takeaway/sandwich shop,EN5 2DY,4,fhrs_4_en-GB,2024-09-10,Barnet,-0.202099,51.645848,images/test\fhrs_4_en-GB.png
Oriental Master Chef,Restaurant/Cafe/Canteen,N12 9AY,3,fhrs_3_en-GB,2024-07-17,Barnet,-0.16029,51.612487,images/test\fhrs_3_en-GB.png
Original Lahore,Restaurant/Cafe/Canteen,NW4 2DR,3,fhrs_3_en-GB,2023-05-25,Barnet,-0.220773,51.587512,images/test\fhrs_3_en-GB.png
Orkideh Restaurant,Takeaway/sandwich shop,N3 1RT,4,fhrs_4_en-GB,2023-08-31,Barnet,-0.1962377,51.5998232,images/test\fhrs_4_en-GB.png
Our Yard At Clitterhouse Farm,Restaurant/Cafe/Canteen,NW2 1AP,4,fhrs_4_en-GB,2023-09-08,Barnet,-0.217241,51.566425,images/test\fhrs_4_en-GB.png
Palmiye Kitchen,Restaurant/Cafe/Canteen,N20 9HJ,5,fhrs_5_en-GB,2022-07-19,Barnet,-0.175038993358612,51.6319160461426,images/test\fhrs_5_en-GB.png
Panda Oriental,Takeaway/sandwich shop,N3 2LN,3,fhrs_3_en-GB,2024-03-07,Barnet,-0.194821,51.600173,images/test\fhrs_3_en-GB.png
Panda Shawarma Grill,Restaurant/Cafe/Canteen,N12 8LJ,4,fhrs_4_en-GB,2023-10-31,Barnet,-0.1770445,51.6142867,images/test\fhrs_4_en-GB.png
Panda Village,Restaurant/Cafe/Canteen,N20 0RU,4,fhrs_4_en-GB,2023-12-08,Barnet,-0.153557,51.623576,images/test\fhrs_4_en-GB.png
Pandan Thai,Restaurant/Cafe/Canteen,NW11 0PU,5,fhrs_5_en-GB,2022-06-18,Barnet,-0.19882,51.580496,images/test\fhrs_5_en-GB.png
Papa Johns,Takeaway/sandwich shop,EN5 5RU,3,fhrs_3_en-GB,2024-05-29,Barnet,-0.197981,51.652367,images/test\fhrs_3_en-GB.png
Papa John's Pizza,Restaurant/Cafe/Canteen,N2 0RY,5,fhrs_5_en-GB,2023-06-26,Barnet,-0.178821,51.591545,images/test\fhrs_5_en-GB.png
Papa T's Cafe & Sandwich Bar,Restaurant/Cafe/Canteen,NW2 2QJ,4,fhrs_4_en-GB,2023-06-08,Barnet,-0.197958,51.562876,images/test\fhrs_4_en-GB.png
Paris- Brest Patisserie,Restaurant/Cafe/Canteen,N14 5JP,5,fhrs_5_en-GB,2023-09-27,Barnet,-0.142414,51.632159,images/test\fhrs_5_en-GB.png
Park Life Café Barnet Coptall Leisure,Restaurant/Cafe/Canteen,NW4 1PX,5,fhrs_5_en-GB,2022-05-09,Barnet,-0.2284788,51.6021965,images/test\fhrs_5_en-GB.png
Paro's Italian Food,Restaurant/Cafe/Canteen,NW9 6AG,5,fhrs_5_en-GB,2024-05-10,Barnet,-0.240122,51.578398,images/test\fhrs_5_en-GB.png
Passioni Limited,Restaurant/Cafe/Canteen,NW11 6JP,4,fhrs_4_en-GB,2021-11-30,Barnet,-0.181559,51.585508,images/test\fhrs_4_en-GB.png
Patisserie Valerie,Restaurant/Cafe/Canteen,NW4 3FN,3,fhrs_3_en-GB,2023-06-12,Barnet,-0.224534,51.576185,images/test\fhrs_3_en-GB.png
Peking Chef,Takeaway/sandwich shop,HA8 8TD,4,fhrs_4_en-GB,2024-02-05,Barnet,-0.269801,51.626489,images/test\fhrs_4_en-GB.png
Pentland Brands Ltd,Restaurant/Cafe/Canteen,N3 2QL,5,fhrs_5_en-GB,2022-05-19,Barnet,-0.186125,51.598825,images/test\fhrs_5_en-GB.png
Pepes Piri Piri,Restaurant/Cafe/Canteen,N3 2BJ,5,fhrs_5_en-GB,2024-04-23,Barnet,-0.191978,51.602323,images/test\fhrs_5_en-GB.png
Pepe's Piri Piri,Restaurant/Cafe/Canteen,NW4 3JL,5,fhrs_5_en-GB,2024-02-26,Barnet,-0.227984,51.583215,images/test\fhrs_5_en-GB.png
Peri Peri Grill,Takeaway/sandwich shop,NW2 3EB,1,fhrs_1_en-GB,2024-10-04,Barnet,-0.215635,51.557265,images/test\fhrs_1_en-GB.png
Peri Peri Original,Takeaway/sandwich shop,NW4 2DY,4,fhrs_4_en-GB,2023-06-08,Barnet,-0.22083,51.586776,images/test\fhrs_4_en-GB.png
Piani Pizza,Takeaway/sandwich shop,N3 1NT,5,fhrs_5_en-GB,2023-10-05,Barnet,-0.188929,51.609272,images/test\fhrs_5_en-GB.png
Pinch Of Salt,Restaurant/Cafe/Canteen,EN4 8SS,3,fhrs_3_en-GB,2024-05-09,Barnet,-0.164123,51.643129,images/test\fhrs_3_en-GB.png
Pink Crepes,Restaurant/Cafe/Canteen,NW7 3NU,5,fhrs_5_en-GB,2022-03-15,Barnet,-0.2505578,51.6135007,images/test\fhrs_5_en-GB.png
Pink Salt,Takeaway/sandwich shop,N12 9RA,3,fhrs_3_en-GB,2023-05-17,Barnet,-0.176588,51.61739,images/test\fhrs_3_en-GB.png
Pita,Restaurant/Cafe/Canteen,NW11 8HB,3,fhrs_3_en-GB,2024-08-20,Barnet,-0.200481,51.573867,images/test\fhrs_3_en-GB.png
Pita Time,Restaurant/Cafe/Canteen,N12 8JY,5,fhrs_5_en-GB,2023-07-06,Barnet,-0.177035,51.61523,images/test\fhrs_5_en-GB.png
Pizaza,Restaurant/Cafe/Canteen,NW11 8HB,3,fhrs_3_en-GB,2023-08-16,Barnet,-0.200481,51.573867,images/test\fhrs_3_en-GB.png
Pizaza,Restaurant/Cafe/Canteen,HA8 7AX,4,fhrs_4_en-GB,2024-08-27,Barnet,-0.274851,51.615988,images/test\fhrs_4_en-GB.png
Pizaza,Takeaway/sandwich shop,NW4 2EA,4,fhrs_4_en-GB,2024-10-10,Barnet,-0.220455,51.586032,images/test\fhrs_4_en-GB.png
Pizza 2 Night,Takeaway/sandwich shop,HA8 0LQ,2,fhrs_2_en-GB,2024-06-14,Barnet,-0.266819,51.60124,images/test\fhrs_2_en-GB.png
Pizza Al Metro Ltd ZIO PEPPE,Restaurant/Cafe/Canteen,N2 9ED,4,fhrs_4_en-GB,2024-07-16,Barnet,-0.164383,51.590852,images/test\fhrs_4_en-GB.png
Pizza Amore,Takeaway/sandwich shop,N12 0RG,5,fhrs_5_en-GB,2022-04-19,Barnet,-0.174486,51.61216,images/test\fhrs_5_en-GB.png
Pizza Day,Restaurant/Cafe/Canteen,EN5 5BX,4,fhrs_4_en-GB,2024-06-05,Barnet,-0.175779,51.650865,images/test\fhrs_4_en-GB.png
Pizza Garden,Restaurant/Cafe/Canteen,HA8 7JZ,5,fhrs_5_en-GB,2023-06-14,Barnet,-0.275632,51.615982,images/test\fhrs_5_en-GB.png
Pizza Go Go,Takeaway/sandwich shop,EN4 8RW,4,fhrs_4_en-GB,2024-05-21,Barnet,-0.174213,51.649923,images/test\fhrs_4_en-GB.png
Pizza Go Go,Takeaway/sandwich shop,NW4 1RR,4,fhrs_4_en-GB,2021-04-14,Barnet,-0.223112,51.590083,images/test\fhrs_4_en-GB.png
Pizza GoGo,Takeaway/sandwich shop,N12 0NB,4,fhrs_4_en-GB,2023-07-20,Barnet,-0.158813,51.612571,images/test\fhrs_4_en-GB.png
Pizza Hut,Takeaway/sandwich shop,NW7 3TG,5,fhrs_5_en-GB,2021-12-17,Barnet,-0.245569,51.615707,images/test\fhrs_5_en-GB.png
Pizza Hut,Takeaway/sandwich shop,N3 2PA,5,fhrs_5_en-GB,2021-12-04,Barnet,-0.18816,51.604998,images/test\fhrs_5_en-GB.png
Pizza Hut,Takeaway/sandwich shop,NW11 7PH,5,fhrs_5_en-GB,2021-12-12,Barnet,-0.194444,51.571454,images/test\fhrs_5_en-GB.png
Pizza Hut,Takeaway/sandwich shop,N14 5JR,5,fhrs_5_en-GB,2023-04-24,Barnet,-0.1438066,51.6321424,images/test\fhrs_5_en-GB.png
Pizza Hut,Takeaway/sandwich shop,EN4 8RQ,5,fhrs_5_en-GB,2024-03-26,Barnet,-0.1720803,51.6498838,images/test\fhrs_5_en-GB.png
Pizza Hut Restaurants - Dine In,Restaurant/Cafe/Canteen,N12 0GL,5,fhrs_5_en-GB,2024-05-21,Barnet,-0.173568,51.604808,images/test\fhrs_5_en-GB.png
Pizza Monster,Takeaway/sandwich shop,EN4 8TF,3,fhrs_3_en-GB,2023-05-26,Barnet,-0.16491,51.642962,images/test\fhrs_3_en-GB.png
Pizza Napolitano,Restaurant/Cafe/Canteen,EN4 9DD,3,fhrs_3_en-GB,2024-02-09,Barnet,-0.1610113,51.6523545,images/test\fhrs_3_en-GB.png
Pizza Nero,Takeaway/sandwich shop,NW7 3JR,4,fhrs_4_en-GB,2024-01-23,Barnet,-0.254624,51.621013,images/test\fhrs_4_en-GB.png
Pizza PepeY,Takeaway/sandwich shop,N3 2RA,4,fhrs_4_en-GB,2024-12-10,Barnet,-0.181371,51.599273,images/test\fhrs_4_en-GB.png
Pizza Treo,Restaurant/Cafe/Canteen,EN5 5UW,5,fhrs_5_en-GB,2021-06-12,Barnet,-0.199829,51.6528,images/test\fhrs_5_en-GB.png
PizzaExpress,Restaurant/Cafe/Canteen,NW7 3TB,5,fhrs_5_en-GB,2021-12-21,Barnet,-0.244727,51.615821,images/test\fhrs_5_en-GB.png
PizzaExpress / Mac & Wings,Restaurant/Cafe/Canteen,NW4 3FZ,5,fhrs_5_en-GB,2022-02-25,Barnet,-0.224534,51.576185,images/test\fhrs_5_en-GB.png
PizzaExpress /Mac & Wings,Restaurant/Cafe/Canteen,EN5 5TD,5,fhrs_5_en-GB,2021-11-27,Barnet,-0.201077,51.657792,images/test\fhrs_5_en-GB.png
Pizzeria Pellone,Restaurant/Cafe/Canteen,N2 9PJ,4,fhrs_4_en-GB,2023-12-18,Barnet,-0.16395,51.587995,images/test\fhrs_4_en-GB.png
Place 2 Be,Restaurant/Cafe/Canteen,NW4 2DR,3,fhrs_3_en-GB,2024-02-22,Barnet,-0.220773,51.587512,images/test\fhrs_3_en-GB.png
Planet Pizza,Restaurant/Cafe/Canteen,N12 9PT,4,fhrs_4_en-GB,2023-07-10,Barnet,-0.175543,51.612815,images/test\fhrs_4_en-GB.png
Plazza Pizza,Takeaway/sandwich shop,N11 3DT,4,fhrs_4_en-GB,2024-10-09,Barnet,-0.152639,51.613805,images/test\fhrs_4_en-GB.png
Polaris Restaurant,Restaurant/Cafe/Canteen,N12 8JX,1,fhrs_1_en-GB,2024-12-03,Barnet,-0.177072,51.615662,images/test\fhrs_1_en-GB.png
Popeye's Fish & Chips,Takeaway/sandwich shop,EN4 9DD,5,fhrs_5_en-GB,2023-12-20,Barnet,-0.160924,51.652539,images/test\fhrs_5_en-GB.png
Popular Two Cafe,Restaurant/Cafe/Canteen,N12 8PT,3,fhrs_3_en-GB,2024-02-29,Barnet,-0.1770335,51.6179649,images/test\fhrs_3_en-GB.png
Porky's,Takeaway/sandwich shop,NW4 1RL,3,fhrs_3_en-GB,2023-12-02,Barnet,-0.226402997970581,51.6038627624512,images/test\fhrs_3_en-GB.png
Potters Pantry,Restaurant/Cafe/Canteen,EN5 5HW,3,fhrs_3_en-GB,2023-10-10,Barnet,-0.180529,51.652467,images/test\fhrs_3_en-GB.png
Premier Chicken,Takeaway/sandwich shop,NW9 7EE,5,fhrs_5_en-GB,2022-06-12,Barnet,-0.238972,51.577149,images/test\fhrs_5_en-GB.png
Pret A Manger,Restaurant/Cafe/Canteen,NW11 8LH,5,fhrs_5_en-GB,2024-08-23,Barnet,-0.195943,51.5720769,images/test\fhrs_5_en-GB.png
Prizreni Café,Restaurant/Cafe/Canteen,NW4 3UX,3,fhrs_3_en-GB,2023-08-30,Barnet,-0.229258,51.582389,images/test\fhrs_3_en-GB.png
Pronto Pizza,Restaurant/Cafe/Canteen,NW4 3NS,5,fhrs_5_en-GB,2023-05-04,Barnet,-0.226427,51.582427,images/test\fhrs_5_en-GB.png
Proper Pizza,Takeaway/sandwich shop,N3 1XY,1,fhrs_1_en-GB,2024-06-25,Barnet,-0.1895877,51.6043979,images/test\fhrs_1_en-GB.png
Qahwah Club,Restaurant/Cafe/Canteen,NW2 1HG,3,fhrs_3_en-GB,2022-06-14,Barnet,-0.212901,51.5578497,images/test\fhrs_3_en-GB.png
Radhuni,Restaurant/Cafe/Canteen,N14 5JR,3,fhrs_3_en-GB,2023-07-25,Barnet,-0.14362,51.632358,images/test\fhrs_3_en-GB.png
RAF Museum Catering,Restaurant/Cafe/Canteen,NW9 5LL,5,fhrs_5_en-GB,2024-02-16,Barnet,-0.238201,51.598952,images/test\fhrs_5_en-GB.png
Rani,Restaurant/Cafe/Canteen,N3 2PR,5,fhrs_5_en-GB,2023-04-04,Barnet,-0.188237,51.604513,images/test\fhrs_5_en-GB.png
RCCT Romanian Culture Charity,Takeaway/sandwich shop,HA8 0LN,5,fhrs_5_en-GB,2022-07-19,Barnet,-0.262599,51.60285,images/test\fhrs_5_en-GB.png
Rea's Place,Restaurant/Cafe/Canteen,NW2 2AT,3,fhrs_3_en-GB,2023-08-16,Barnet,-0.199841,51.56634,images/test\fhrs_3_en-GB.png
Red Onion,Restaurant/Cafe/Canteen,EN4 8SY,3,fhrs_3_en-GB,2023-09-04,Barnet,-0.162646,51.641748,images/test\fhrs_3_en-GB.png
Red Thai Restaurant,Restaurant/Cafe/Canteen,N12 9RA,5,fhrs_5_en-GB,2024-11-20,Barnet,-0.176588,51.61739,images/test\fhrs_5_en-GB.png
Regents Cafe,Restaurant/Cafe/Canteen,N3 3LD,3,fhrs_3_en-GB,2023-11-30,Barnet,-0.199028,51.59495,images/test\fhrs_3_en-GB.png
Reggae Spice,Restaurant/Cafe/Canteen,HA8 0EJ,4,fhrs_4_en-GB,2023-10-26,Barnet,-0.263561,51.602981,images/test\fhrs_4_en-GB.png
Ringo's Peri Peri,Restaurant/Cafe/Canteen,EN5 5SJ,3,fhrs_3_en-GB,2024-03-06,Barnet,-0.1991346,51.6529351,images/test\fhrs_3_en-GB.png
Rise & Shine Cafe,Restaurant/Cafe/Canteen,EN5 5SY,2,fhrs_2_en-GB,2023-05-10,Barnet,-0.202107,51.656603,images/test\fhrs_2_en-GB.png
Romeo & Juliet's,Restaurant/Cafe/Canteen,N2 0DW,4,fhrs_4_en-GB,2023-11-14,Barnet,-0.1804531,51.5858392,images/test\fhrs_4_en-GB.png
Roni's Bakery,Restaurant/Cafe/Canteen,,5,fhrs_5_en-GB,2022-04-27,Barnet,-0.2237626,51.5764202,images/test\fhrs_5_en-GB.png
Royal Chicken And Pizza,Takeaway/sandwich shop,N20 0LH,5,fhrs_5_en-GB,2022-04-25,Barnet,-0.174504,51.627923,images/test\fhrs_5_en-GB.png
Rozafa Mediterranean Restaurant,Restaurant/Cafe/Canteen,N12 0EY,2,fhrs_2_en-GB,2024-11-28,Barnet,-0.178154,51.611821,images/test\fhrs_2_en-GB.png
Safa Grill Chicken,Takeaway/sandwich shop,HA8 7JE,3,fhrs_3_en-GB,2023-09-26,Barnet,-0.278157,51.611838,images/test\fhrs_3_en-GB.png
Saffron,Takeaway/sandwich shop,N3 2PA,3,fhrs_3_en-GB,2024-01-23,Barnet,-0.18816,51.604998,images/test\fhrs_3_en-GB.png
Saffron Juice,Takeaway/sandwich shop,N12 0AP,1,fhrs_1_en-GB,2023-11-15,Barnet,-0.174276992678642,51.6019134521484,images/test\fhrs_1_en-GB.png
Sahar Grill & Chapli Kebab,Takeaway/sandwich shop,NW9 6SG,2,fhrs_2_en-GB,2023-10-27,Barnet,-0.252161,51.588478,images/test\fhrs_2_en-GB.png
Sami's,Restaurant/Cafe/Canteen,NW11 8HB,2,fhrs_2_en-GB,2024-01-08,Barnet,-0.200481,51.573867,images/test\fhrs_2_en-GB.png
Sami's Restaurant,Restaurant/Cafe/Canteen,NW4 4DJ,4,fhrs_4_en-GB,2024-03-21,Barnet,-0.2217278,51.5891514,images/test\fhrs_4_en-GB.png
Sami's Restaurant,Restaurant/Cafe/Canteen,HA8 7AX,5,fhrs_5_en-GB,2021-02-23,Barnet,-0.274851,51.615988,images/test\fhrs_5_en-GB.png
Sam's / Ministry Of Chicken,Restaurant/Cafe/Canteen,NW4 3JH,5,fhrs_5_en-GB,2021-10-15,Barnet,-0.228595,51.583845,images/test\fhrs_5_en-GB.png
Sams Chicken,Takeaway/sandwich shop,NW2 1EX,3,fhrs_3_en-GB,2024-05-10,Barnet,-0.214518,51.55705,images/test\fhrs_3_en-GB.png
Sam's Chicken / Ministry Of Chicken,Takeaway/sandwich shop,N12 8LJ,4,fhrs_4_en-GB,2024-09-24,Barnet,-0.177201,51.613964,images/test\fhrs_4_en-GB.png
San Giorgio,Restaurant/Cafe/Canteen,N12 9RT,5,fhrs_5_en-GB,2022-02-09,Barnet,-0.176344,51.621307,images/test\fhrs_5_en-GB.png
Sarang Restaurant,Restaurant/Cafe/Canteen,NW11 8RR,4,fhrs_4_en-GB,2024-01-17,Barnet,-0.195711,51.571168,images/test\fhrs_4_en-GB.png
Sea Fresh - Fish & Chips,Takeaway/sandwich shop,N14 5DJ,4,fhrs_4_en-GB,2024-09-05,Barnet,-0.141958996653557,51.6309394836426,images/test\fhrs_4_en-GB.png
Sea Life,Takeaway/sandwich shop,EN5 5JB,3,fhrs_3_en-GB,2024-07-24,Barnet,-0.178036,51.651898,images/test\fhrs_3_en-GB.png
Sea Rock Club,Restaurant/Cafe/Canteen,N12 9PT,5,fhrs_5_en-GB,2024-02-07,Barnet,-0.175543,51.612815,images/test\fhrs_5_en-GB.png
Select Lounge,Restaurant/Cafe/Canteen,N12 0EY,5,fhrs_5_en-GB,2022-10-20,Barnet,-0.178154,51.611821,images/test\fhrs_5_en-GB.png
Selekt Chicken,Restaurant/Cafe/Canteen,HA8 7JE,3,fhrs_3_en-GB,2023-05-02,Barnet,-0.278158009052277,51.6118392944336,images/test\fhrs_3_en-GB.png
Selekt Chicken,Restaurant/Cafe/Canteen,NW11 7RR,2,fhrs_2_en-GB,2023-09-26,Barnet,-0.195092,51.571131,images/test\fhrs_2_en-GB.png
Selekt Chicken,Takeaway/sandwich shop,HA8 0LD,2,fhrs_2_en-GB,2024-08-30,Barnet,-0.264904,51.602219,images/test\fhrs_2_en-GB.png
Senator Lounge,Restaurant/Cafe/Canteen,NW4 2BP,4,fhrs_4_en-GB,2024-02-22,Barnet,-0.219039,51.586811,images/test\fhrs_4_en-GB.png
Seventeen Fish Bar,Takeaway/sandwich shop,N20 9QJ,5,fhrs_5_en-GB,2024-07-30,Barnet,-0.178311,51.630267,images/test\fhrs_5_en-GB.png
Shades,Restaurant/Cafe/Canteen,NW11 7TH,4,fhrs_4_en-GB,2024-08-15,Barnet,-0.19843,51.581227,images/test\fhrs_4_en-GB.png
Shah Abbas Restaurant,Restaurant/Cafe/Canteen,N12 9PY,3,fhrs_3_en-GB,2024-06-19,Barnet,-0.1754366,51.6131362,images/test\fhrs_3_en-GB.png
Shahs Halal Food West Hendon Broadway,Restaurant/Cafe/Canteen,NW9 7EE,4,fhrs_4_en-GB,2024-06-21,Barnet,-0.2384605,51.5767349,images/test\fhrs_4_en-GB.png
Shake Shack,Restaurant/Cafe/Canteen,NW4 3FP,5,fhrs_5_en-GB,2022-05-31,Barnet,-0.224534,51.576185,images/test\fhrs_5_en-GB.png
Shake Tastic,Takeaway/sandwich shop,NW7 3NU,4,fhrs_4_en-GB,2023-07-17,Barnet,-0.250861,51.6137,images/test\fhrs_4_en-GB.png
Shakekhan T/A Shaketastic,Takeaway/sandwich shop,N12 8PT,5,fhrs_5_en-GB,2022-11-09,Barnet,-0.177108,51.61774,images/test\fhrs_5_en-GB.png
Shapla Indian Cuisine,Restaurant/Cafe/Canteen,EN5 5UW,2,fhrs_2_en-GB,2023-03-09,Barnet,-0.199829,51.6528,images/test\fhrs_2_en-GB.png
Shiraz Cafe,Restaurant/Cafe/Canteen,N20 9QP,4,fhrs_4_en-GB,2023-08-03,Barnet,-0.1791563,51.630242,images/test\fhrs_4_en-GB.png
Silver Fish And Chips Kebab,Takeaway/sandwich shop,N20 0BA,4,fhrs_4_en-GB,2023-02-10,Barnet,-0.156668,51.630217,images/test\fhrs_4_en-GB.png
Silver Service Cafe,Restaurant/Cafe/Canteen,NW7 1LB,4,fhrs_4_en-GB,2023-11-21,Barnet,-0.207548,51.60552,images/test\fhrs_4_en-GB.png
Sima's Grill,Restaurant/Cafe/Canteen,N3 2DN,5,fhrs_5_en-GB,2021-12-09,Barnet,-0.1888314,51.604387,images/test\fhrs_5_en-GB.png
Slam Burger,Restaurant/Cafe/Canteen,HA8 7AR,4,fhrs_4_en-GB,2024-04-04,Barnet,-0.2753151,51.6146592,images/test\fhrs_4_en-GB.png
Slice,Restaurant/Cafe/Canteen,NW11 9PS,4,fhrs_4_en-GB,2024-05-29,Barnet,-0.209715,51.579808,images/test\fhrs_4_en-GB.png
Sofalino,Restaurant/Cafe/Canteen,N20 9BH,4,fhrs_4_en-GB,2024-03-13,Barnet,-0.175619,51.633615,images/test\fhrs_4_en-GB.png
Soko Burger,Takeaway/sandwich shop,N3 3HP,3,fhrs_3_en-GB,2023-05-09,Barnet,-0.198,51.596481,images/test\fhrs_3_en-GB.png
Soor Lebanese,Restaurant/Cafe/Canteen,NW4 4UJ,3,fhrs_3_en-GB,2024-09-03,Barnet,-0.233721,51.593103,images/test\fhrs_3_en-GB.png
Soor Lounge,Restaurant/Cafe/Canteen,NW4 3AD,5,fhrs_5_en-GB,2022-02-15,Barnet,-0.227494,51.583567,images/test\fhrs_5_en-GB.png
Source Of Life,Restaurant/Cafe/Canteen,EN4 8TD,5,fhrs_5_en-GB,2024-03-26,Barnet,-0.1641702,51.6428436,images/test\fhrs_5_en-GB.png
Souvlikeit Ltd,Takeaway/sandwich shop,EN5 5RU,5,fhrs_5_en-GB,2023-08-29,Barnet,-0.197981,51.652367,images/test\fhrs_5_en-GB.png
Soyo,Restaurant/Cafe/Canteen,HA8 7AX,3,fhrs_3_en-GB,2024-05-31,Barnet,-0.274851,51.615988,images/test\fhrs_3_en-GB.png
Soyo,Restaurant/Cafe/Canteen,NW11 8HB,4,fhrs_4_en-GB,2024-11-26,Barnet,-0.200481,51.573867,images/test\fhrs_4_en-GB.png
Spaccanapoli,Restaurant/Cafe/Canteen,NW9 5HG,5,fhrs_5_en-GB,2022-05-31,Barnet,-0.252599,51.595885,images/test\fhrs_5_en-GB.png
Spicy & Grill Ltd,Restaurant/Cafe/Canteen,NW11 8HB,3,fhrs_3_en-GB,2024-03-11,Barnet,-0.200481,51.573867,images/test\fhrs_3_en-GB.png
Spicy Thai,Restaurant/Cafe/Canteen,N11 3EU,3,fhrs_3_en-GB,2023-07-13,Barnet,-0.149364,51.61477,images/test\fhrs_3_en-GB.png
Spielburger Restaurant,Restaurant/Cafe/Canteen,EN5 1AB,5,fhrs_5_en-GB,2024-05-08,Barnet,-0.188060998916626,51.6466598510742,images/test\fhrs_5_en-GB.png
Spruce & Larch,Restaurant/Cafe/Canteen,NW2 1FE,5,fhrs_5_en-GB,2022-02-22,Barnet,-0.2200105,51.5711976,images/test\fhrs_5_en-GB.png
St John The Baptist,Takeaway/sandwich shop,EN5 4BW,5,fhrs_5_en-GB,2022-05-18,Barnet,-0.204868,51.653318,images/test\fhrs_5_en-GB.png
Starbucks,Restaurant/Cafe/Canteen,NW4 3FP,5,fhrs_5_en-GB,2022-04-08,Barnet,-0.224534,51.576185,images/test\fhrs_5_en-GB.png
Stars Pizza,Takeaway/sandwich shop,NW9 7DJ,4,fhrs_4_en-GB,2023-02-15,Barnet,-0.242367,51.579681,images/test\fhrs_4_en-GB.png
Strawberry Patiserrie,Restaurant/Cafe/Canteen,N12 9QG,5,fhrs_5_en-GB,2024-10-11,Barnet,-0.1762286,51.614891,images/test\fhrs_5_en-GB.png
Subway,Restaurant/Cafe/Canteen,N20 9HJ,5,fhrs_5_en-GB,2022-04-13,Barnet,-0.175051,51.631925,images/test\fhrs_5_en-GB.png
Subway,Takeaway/sandwich shop,HA8 0LR,5,fhrs_5_en-GB,2024-04-18,Barnet,-0.266263,51.601043,images/test\fhrs_5_en-GB.png
Subway,Takeaway/sandwich shop,N2 9PJ,5,fhrs_5_en-GB,2021-10-16,Barnet,-0.16395,51.587995,images/test\fhrs_5_en-GB.png
Subway,Takeaway/sandwich shop,N11 3PW,5,fhrs_5_en-GB,2022-03-25,Barnet,-0.14266,51.611624,images/test\fhrs_5_en-GB.png
Subway,Takeaway/sandwich shop,NW7 3HU,5,fhrs_5_en-GB,2023-07-04,Barnet,-0.266371,51.632337,images/test\fhrs_5_en-GB.png
Subway,Takeaway/sandwich shop,NW4 4BT,5,fhrs_5_en-GB,2022-02-25,Barnet,-0.228453,51.589723,images/test\fhrs_5_en-GB.png
Sukaria,Takeaway/sandwich shop,EN4 8TB,3,fhrs_3_en-GB,2023-03-02,Barnet,-0.16303,51.641566,images/test\fhrs_3_en-GB.png
Sun & Sand Lounge,Restaurant/Cafe/Canteen,N3 1TR,5,fhrs_5_en-GB,2021-06-17,Barnet,-0.196675002574921,51.600040435791,images/test\fhrs_5_en-GB.png
Sunny Hill Park Cafe,Restaurant/Cafe/Canteen,NW4 4XA,5,fhrs_5_en-GB,2023-12-12,Barnet,-0.233044,51.597886,images/test\fhrs_5_en-GB.png
Sunshine Garden Cafe,Restaurant/Cafe/Canteen,EN4 8RN,3,fhrs_3_en-GB,2023-10-27,Barnet,-0.171066,51.64982,images/test\fhrs_3_en-GB.png
Super Wok,Restaurant/Cafe/Canteen,NW4 1RR,2,fhrs_2_en-GB,2024-05-17,Barnet,-0.223112,51.590083,images/test\fhrs_2_en-GB.png
Surfin Poke,Restaurant/Cafe/Canteen,NW11 8HB,5,fhrs_5_en-GB,2024-07-18,Barnet,-0.200481,51.573867,images/test\fhrs_5_en-GB.png
Sushi Daily,Takeaway/sandwich shop,NW7 1GU,5,fhrs_5_en-GB,2023-02-28,Barnet,-0.210481,51.607696,images/test\fhrs_5_en-GB.png
Sushi Daily,Takeaway/sandwich shop,NW4 3FQ,5,fhrs_5_en-GB,2024-02-02,Barnet,-0.224534,51.576185,images/test\fhrs_5_en-GB.png
Sushi Delight (Jinli Express) Colindale,Restaurant/Cafe/Canteen,NW4 4JB,5,fhrs_5_en-GB,2024-08-16,Barnet,-0.233061,51.592616,images/test\fhrs_5_en-GB.png
Sushi Gourmet,Takeaway/sandwich shop,N12 9RE,5,fhrs_5_en-GB,2022-07-20,Barnet,-0.17627,51.6179094,images/test\fhrs_5_en-GB.png
Sushi Haven,Takeaway/sandwich shop,NW11 9NN,5,fhrs_5_en-GB,2022-03-23,Barnet,-0.207422,51.578299,images/test\fhrs_5_en-GB.png
Sushi Haven Hendon,Restaurant/Cafe/Canteen,NW4 2EA,4,fhrs_4_en-GB,2024-01-09,Barnet,-0.220455,51.586032,images/test\fhrs_4_en-GB.png
Sushi Mania,Restaurant/Cafe/Canteen,HA8 7AR,3,fhrs_3_en-GB,2024-07-30,Barnet,-0.27553,51.61447,images/test\fhrs_3_en-GB.png
Sushimania,Restaurant/Cafe/Canteen,N20 0EW,2,fhrs_2_en-GB,2024-09-12,Barnet,-0.175303,51.629968,images/test\fhrs_2_en-GB.png
Sushimania,Restaurant/Cafe/Canteen,N12 0NL,5,fhrs_5_en-GB,2024-11-08,Barnet,-0.175379,51.611859,images/test\fhrs_5_en-GB.png
Sushimania Golders Green,Restaurant/Cafe/Canteen,NW11 8HB,2,fhrs_2_en-GB,2024-11-19,Barnet,-0.200481,51.573867,images/test\fhrs_2_en-GB.png
Sweet N Delish,Restaurant/Cafe/Canteen,EN4 8TD,4,fhrs_4_en-GB,2024-02-16,Barnet,-0.1638884,51.6427679,images/test\fhrs_4_en-GB.png
T.AMO Bubble Tea,Restaurant/Cafe/Canteen,NW7 3LH,4,fhrs_4_en-GB,2023-10-16,Barnet,-0.2468665,51.6146139,images/test\fhrs_4_en-GB.png
T4 COLINDALE,Restaurant/Cafe/Canteen,NW9 5HG,5,fhrs_5_en-GB,2023-12-19,Barnet,-0.251254,51.5952061,images/test\fhrs_5_en-GB.png
Ta Va,Restaurant/Cafe/Canteen,N3 2LJ,3,fhrs_3_en-GB,2023-07-25,Barnet,-0.19403,51.600817,images/test\fhrs_3_en-GB.png
Table Du Marche,Restaurant/Cafe/Canteen,N2 8AG,5,fhrs_5_en-GB,2023-04-18,Barnet,-0.164936,51.590744,images/test\fhrs_5_en-GB.png
Taboon,Takeaway/sandwich shop,NW11 9NN,2,fhrs_2_en-GB,2023-05-18,Barnet,-0.207422,51.578299,images/test\fhrs_2_en-GB.png
Taco Bell,Restaurant/Cafe/Canteen,NW9 4AX,5,fhrs_5_en-GB,2022-01-07,Barnet,-0.2504253,51.594661,images/test\fhrs_5_en-GB.png
Tafil Grill,Restaurant/Cafe/Canteen,N2 9AB,4,fhrs_4_en-GB,2024-04-30,Barnet,-0.172694,51.599246,images/test\fhrs_4_en-GB.png
Tahdig Resturant,Restaurant/Cafe/Canteen,HA8 0LT,5,fhrs_5_en-GB,2024-08-30,Barnet,-0.265378,51.601524,images/test\fhrs_5_en-GB.png
Tang's Takeaway,Takeaway/sandwich shop,NW7 3JR,5,fhrs_5_en-GB,2022-05-30,Barnet,-0.254624,51.621013,images/test\fhrs_5_en-GB.png
Tania Spyce,Takeaway/sandwich shop,N12 0NB,3,fhrs_3_en-GB,2024-04-22,Barnet,-0.158813,51.612571,images/test\fhrs_3_en-GB.png
Taro Japanese Restaurant,Restaurant/Cafe/Canteen,N3 2LJ,4,fhrs_4_en-GB,2024-03-27,Barnet,-0.19403,51.600817,images/test\fhrs_4_en-GB.png
Taste Of Nawab,Restaurant/Cafe/Canteen,N10 1LR,4,fhrs_4_en-GB,2023-07-19,Barnet,-0.147603,51.5995,images/test\fhrs_4_en-GB.png
Taste Of Raj,Takeaway/sandwich shop,HA8 9BX,4,fhrs_4_en-GB,2023-09-28,Barnet,-0.257046,51.610582,images/test\fhrs_4_en-GB.png
Tasties Snack Bar,Restaurant/Cafe/Canteen,N3 1XP,3,fhrs_3_en-GB,2024-01-23,Barnet,-0.191331,51.603347,images/test\fhrs_3_en-GB.png
Tasty Grill,Restaurant/Cafe/Canteen,NW4 1RR,4,fhrs_4_en-GB,2023-11-16,Barnet,-0.223112,51.590083,images/test\fhrs_4_en-GB.png
Tea & Toast,Restaurant/Cafe/Canteen,EN4 8RN,3,fhrs_3_en-GB,2023-03-10,Barnet,-0.171066,51.64982,images/test\fhrs_3_en-GB.png
Teddy Bear Bubble Tea,Takeaway/sandwich shop,NW4 2DY,5,fhrs_5_en-GB,2021-07-24,Barnet,-0.2207921,51.5868155,images/test\fhrs_5_en-GB.png
Tehran Lounge,Restaurant/Cafe/Canteen,N3 3JY,5,fhrs_5_en-GB,2022-02-15,Barnet,-0.197193,51.598626,images/test\fhrs_5_en-GB.png
Tehran Pizza & Burgers,Takeaway/sandwich shop,NW2 1NT,3,fhrs_3_en-GB,2024-06-18,Barnet,-0.210764,51.567064,images/test\fhrs_3_en-GB.png
Tehroon (Naan Dagh Kabab Dagha),Restaurant/Cafe/Canteen,NW11 7ES,3,fhrs_3_en-GB,2024-08-13,Barnet,-0.198453,51.579555,images/test\fhrs_3_en-GB.png
Tennessee Express,Takeaway/sandwich shop,N10 1LR,4,fhrs_4_en-GB,2024-01-09,Barnet,-0.147603,51.5995,images/test\fhrs_4_en-GB.png
TFL High Barnet,Restaurant/Cafe/Canteen,EN5 5RP,2,fhrs_2_en-GB,2023-10-06,Barnet,-0.194768,51.650663,images/test\fhrs_2_en-GB.png
Thai House,Restaurant/Cafe/Canteen,EN4 8RQ,4,fhrs_4_en-GB,2024-06-13,Barnet,-0.170937,51.649422,images/test\fhrs_4_en-GB.png
Thai Kitchen,Restaurant/Cafe/Canteen,N12 8NR,4,fhrs_4_en-GB,2024-04-25,Barnet,-0.179861,51.611398,images/test\fhrs_4_en-GB.png
That's Amore,Restaurant/Cafe/Canteen,NW11 7ES,5,fhrs_5_en-GB,2023-06-21,Barnet,-0.198453,51.579555,images/test\fhrs_5_en-GB.png
The 108,Restaurant/Cafe/Canteen,NW2 1LT,4,fhrs_4_en-GB,2024-03-06,Barnet,-0.225738,51.570475,images/test\fhrs_4_en-GB.png
The Arati,Restaurant/Cafe/Canteen,EN5 5BY,4,fhrs_4_en-GB,2022-12-20,Barnet,-0.175437,51.651111,images/test\fhrs_4_en-GB.png
The Best Grill Greek,Restaurant/Cafe/Canteen,EN4 8SX,3,fhrs_3_en-GB,2023-05-23,Barnet,-0.1629386,51.6428018,images/test\fhrs_3_en-GB.png
The Best Kebab,Takeaway/sandwich shop,NW7 1LB,4,fhrs_4_en-GB,2023-06-12,Barnet,-0.207548,51.60552,images/test\fhrs_4_en-GB.png
The Black Orchid Thai Cuisine,Restaurant/Cafe/Canteen,N20 0NL,3,fhrs_3_en-GB,2023-07-20,Barnet,-0.165801,51.621961,images/test\fhrs_3_en-GB.png
The Brunch Suite,Restaurant/Cafe/Canteen,HA8 7JS,4,fhrs_4_en-GB,2024-04-04,Barnet,-0.27607,51.6142634,images/test\fhrs_4_en-GB.png
The Burger Bar,Restaurant/Cafe/Canteen,NW11 0EA,5,fhrs_5_en-GB,2022-09-05,Barnet,-0.199621,51.582136,images/test\fhrs_5_en-GB.png
The Classic Greek,Restaurant/Cafe/Canteen,N20 9HJ,3,fhrs_3_en-GB,2024-06-25,Barnet,-0.175051,51.631925,images/test\fhrs_3_en-GB.png
The Dumpling House,Restaurant/Cafe/Canteen,NW11 0AD,4,fhrs_4_en-GB,2023-09-27,Barnet,-0.2001553,51.5861549,images/test\fhrs_4_en-GB.png
The Engine Rooms,Restaurant/Cafe/Canteen,N2 0NL,5,fhrs_5_en-GB,2024-07-11,Barnet,-0.162292685733203,51.5848837045463,images/test\fhrs_5_en-GB.png
The Good Earth,Restaurant/Cafe/Canteen,NW7 4RN,5,fhrs_5_en-GB,2024-11-07,Barnet,-0.245474994182587,51.6166610717773,images/test\fhrs_5_en-GB.png
The Green Man,Takeaway/sandwich shop,HA8 7AR,4,fhrs_4_en-GB,2023-05-10,Barnet,-0.27553,51.61447,images/test\fhrs_4_en-GB.png
The Juice King,Restaurant/Cafe/Canteen,EN5 5HW,4,fhrs_4_en-GB,2023-01-18,Barnet,-0.1797835,51.6518856,images/test\fhrs_4_en-GB.png
The Kanteen,Restaurant/Cafe/Canteen,NW4 3FP,5,fhrs_5_en-GB,2023-02-08,Barnet,-0.224534,51.576185,images/test\fhrs_5_en-GB.png
The Lost Jungle Ltd,Takeaway/sandwich shop,HA8 8DD,2,fhrs_2_en-GB,2023-06-20,Barnet,-0.292389005422592,51.6267127990723,images/test\fhrs_2_en-GB.png
The Oak Chinese,Takeaway/sandwich shop,N11 3EU,5,fhrs_5_en-GB,2023-03-09,Barnet,-0.149364,51.61477,images/test\fhrs_5_en-GB.png
The Olea,Restaurant/Cafe/Canteen,EN5 5SZ,4,fhrs_4_en-GB,2023-12-19,Barnet,-0.201524,51.656738,images/test\fhrs_4_en-GB.png
The Open Door Centre,Restaurant/Cafe/Canteen,EN5 4LA,5,fhrs_5_en-GB,2021-09-15,Barnet,-0.204202994704247,51.6580924987793,images/test\fhrs_5_en-GB.png
The Pizza Authority,Takeaway/sandwich shop,NW4 3FP,5,fhrs_5_en-GB,2022-06-06,Barnet,-0.224534,51.576185,images/test\fhrs_5_en-GB.png
The Pizza Club,Restaurant/Cafe/Canteen,NW2 3EB,3,fhrs_3_en-GB,2024-03-13,Barnet,-0.215635,51.557265,images/test\fhrs_3_en-GB.png
The Pizza People,Restaurant/Cafe/Canteen,NW7 3LH,5,fhrs_5_en-GB,2021-10-22,Barnet,-0.246751,51.614637,images/test\fhrs_5_en-GB.png
The Popular Cafe,Restaurant/Cafe/Canteen,N20 9HH,4,fhrs_4_en-GB,2024-05-22,Barnet,-0.174648,51.630444,images/test\fhrs_4_en-GB.png
The Salt Beef Bar,Restaurant/Cafe/Canteen,NW11 0AL,5,fhrs_5_en-GB,2022-01-02,Barnet,-0.200084,51.587952,images/test\fhrs_5_en-GB.png
The Salvation Army,Restaurant/Cafe/Canteen,NW4 4AE,4,fhrs_4_en-GB,2022-07-24,Barnet,-0.223581,51.587321,images/test\fhrs_4_en-GB.png
The Sorting Office,Restaurant/Cafe/Canteen,NW11 0LR,5,fhrs_5_en-GB,2024-07-13,Barnet,-0.201968,51.580077,images/test\fhrs_5_en-GB.png
The Strudel Cafe,Restaurant/Cafe/Canteen,N3 2SY,4,fhrs_4_en-GB,2024-10-15,Barnet,-0.18934,51.595304,images/test\fhrs_4_en-GB.png
The Tiffin Tin,Takeaway/sandwich shop,N20 9QJ,5,fhrs_5_en-GB,2023-08-24,Barnet,-0.178311,51.630267,images/test\fhrs_5_en-GB.png
The Village Greek,Restaurant/Cafe/Canteen,EN5 5BY,5,fhrs_5_en-GB,2021-11-27,Barnet,-0.175437,51.651111,images/test\fhrs_5_en-GB.png
The Warehouse,Takeaway/sandwich shop,NW4 4AG,1,fhrs_1_en-GB,2024-02-28,Barnet,-0.2219175,51.5879425,images/test\fhrs_1_en-GB.png
The Whale Tea,Restaurant/Cafe/Canteen,N12 9QH,4,fhrs_4_en-GB,2023-03-21,Barnet,-0.1763683,51.6152325,images/test\fhrs_4_en-GB.png
Theo's Cafe And Grill,Restaurant/Cafe/Canteen,EN5 5JG,4,fhrs_4_en-GB,2022-11-22,Barnet,-0.179151,51.650782,images/test\fhrs_4_en-GB.png
Theo's Kitchen,Restaurant/Cafe/Canteen,N10 1LR,4,fhrs_4_en-GB,2023-01-31,Barnet,-0.147603,51.5995,images/test\fhrs_4_en-GB.png
Three Restaurant And Bar,Restaurant/Cafe/Canteen,NW4 3FN,5,fhrs_5_en-GB,2021-06-29,Barnet,-0.224534,51.576185,images/test\fhrs_5_en-GB.png
Tikka Massala,Takeaway/sandwich shop,NW9 7EE,5,fhrs_5_en-GB,2022-10-23,Barnet,-0.238972,51.577149,images/test\fhrs_5_en-GB.png
Tintico Ltd,Takeaway/sandwich shop,N3 2RY,5,fhrs_5_en-GB,2024-05-23,Barnet,-0.193232,51.600912,images/test\fhrs_5_en-GB.png
Tiny's,Restaurant/Cafe/Canteen,N12 0DY,1,fhrs_1_en-GB,2023-10-17,Barnet,-0.175544,51.60848,images/test\fhrs_1_en-GB.png
Tirana,Restaurant/Cafe/Canteen,NW4 3YA,5,fhrs_5_en-GB,2023-03-10,Barnet,-0.2279357,51.5828758,images/test\fhrs_5_en-GB.png
T-Off Catering @ South Herts Golf Club,Restaurant/Cafe/Canteen,N20 8QU,5,fhrs_5_en-GB,2022-02-02,Barnet,-0.187922,51.632376,images/test\fhrs_5_en-GB.png
Tofu Vegan Golders Green,Restaurant/Cafe/Canteen,NW11 7PT,5,fhrs_5_en-GB,2024-07-11,Barnet,-0.193742007017136,51.5713272094727,images/test\fhrs_5_en-GB.png
Tootoomoo,Restaurant/Cafe/Canteen,N20 9LN,3,fhrs_3_en-GB,2023-02-09,Barnet,-0.176118,51.633056,images/test\fhrs_3_en-GB.png
Top Wings / Top Notch Pizza,Restaurant/Cafe/Canteen,NW11 8DL,1,fhrs_1_en-GB,2024-11-12,Barnet,-0.196952,51.564227,images/test\fhrs_1_en-GB.png
Tops Fish Bar,Takeaway/sandwich shop,EN4 8SX,3,fhrs_3_en-GB,2023-09-01,Barnet,-0.163065,51.642825,images/test\fhrs_3_en-GB.png
Toscana,Restaurant/Cafe/Canteen,NW4 3XP,5,fhrs_5_en-GB,2022-06-02,Barnet,-0.2293954,51.5827355,images/test\fhrs_5_en-GB.png
Tov Falafel,Restaurant/Cafe/Canteen,HA8 7AX,5,fhrs_5_en-GB,2023-09-05,Barnet,-0.274851,51.615988,images/test\fhrs_5_en-GB.png
Travelodge London Brent Cross,Restaurant/Cafe/Canteen,NW9 7BW,5,fhrs_5_en-GB,2024-04-25,Barnet,-0.233686998486519,51.5727806091309,images/test\fhrs_5_en-GB.png
Trotters Restaurant,Restaurant/Cafe/Canteen,NW9 5AB,5,fhrs_5_en-GB,2022-05-10,Barnet,-0.258974,51.594173,images/test\fhrs_5_en-GB.png
Tru Chicken,Restaurant/Cafe/Canteen,N3 1XT,5,fhrs_5_en-GB,2023-04-11,Barnet,-0.190458,51.603864,images/test\fhrs_5_en-GB.png
Tuck In Cafe,Restaurant/Cafe/Canteen,N12 0EY,5,fhrs_5_en-GB,2022-11-22,Barnet,-0.178154,51.611821,images/test\fhrs_5_en-GB.png
TukTuk,Restaurant/Cafe/Canteen,NW11 8HR,5,fhrs_5_en-GB,2021-10-05,Barnet,-0.200544,51.573382,images/test\fhrs_5_en-GB.png
Turkish Gobble,Restaurant/Cafe/Canteen,N3 2BJ,3,fhrs_3_en-GB,2023-06-20,Barnet,-0.191978,51.602323,images/test\fhrs_3_en-GB.png
Twenty Events,Restaurant/Cafe/Canteen,N20 0PT,5,fhrs_5_en-GB,2024-05-29,Barnet,-0.176355,51.625713,images/test\fhrs_5_en-GB.png
Two Brothers Restaurant,Restaurant/Cafe/Canteen,N3 1DP,2,fhrs_2_en-GB,2024-01-05,Barnet,-0.195959001779556,51.5996704101563,images/test\fhrs_2_en-GB.png
UK Favourite Pizza And Chicken,Takeaway/sandwich shop,NW9 6RR,4,fhrs_4_en-GB,2023-11-28,Barnet,-0.250905,51.587362,images/test\fhrs_4_en-GB.png
Uncle Tony's Taverna,Restaurant/Cafe/Canteen,N3 2SB,5,fhrs_5_en-GB,2023-04-20,Barnet,-0.193119,51.600497,images/test\fhrs_5_en-GB.png
Unique,Restaurant/Cafe/Canteen,N11 3DA,5,fhrs_5_en-GB,2024-06-18,Barnet,-0.157333,51.613106,images/test\fhrs_5_en-GB.png
Unique Cafe,Restaurant/Cafe/Canteen,NW11 8HB,4,fhrs_4_en-GB,2022-05-11,Barnet,-0.2001995,51.5737341,images/test\fhrs_4_en-GB.png
Unitas Youth Zone,Restaurant/Cafe/Canteen,HA8 0DT,5,fhrs_5_en-GB,2024-01-18,Barnet,-0.257479012012482,51.6005935668945,images/test\fhrs_5_en-GB.png
Urban Grind Artisan Cafe,Restaurant/Cafe/Canteen,EN5 5BX,5,fhrs_5_en-GB,2022-02-11,Barnet,-0.1756194,51.6506598,images/test\fhrs_5_en-GB.png
Valeriana,Takeaway/sandwich shop,N20 0RA,4,fhrs_4_en-GB,2024-04-04,Barnet,-0.174928,51.627076,images/test\fhrs_4_en-GB.png
Veg Chennai Srilalitha Restaurant,Restaurant/Cafe/Canteen,N3 2BU,3,fhrs_3_en-GB,2024-07-23,Barnet,-0.190658,51.603202,images/test\fhrs_3_en-GB.png
Venezia,Restaurant/Cafe/Canteen,NW4 1BN,1,fhrs_1_en-GB,2024-03-26,Barnet,-0.220959,51.589754,images/test\fhrs_1_en-GB.png
Vero Caffe,Restaurant/Cafe/Canteen,N12 7HX,4,fhrs_4_en-GB,2024-02-16,Barnet,-0.191127,51.615007,images/test\fhrs_4_en-GB.png
Vibe Cafe,Restaurant/Cafe/Canteen,EN5 1ES,3,fhrs_3_en-GB,2024-12-03,Barnet,-0.186852,51.646531,images/test\fhrs_3_en-GB.png
Vibez Caribbean Restaurant,Restaurant/Cafe/Canteen,N3 2LN,3,fhrs_3_en-GB,2023-05-09,Barnet,-0.194821,51.600173,images/test\fhrs_3_en-GB.png
Village Takeaway,Takeaway/sandwich shop,EN4 8SY,4,fhrs_4_en-GB,2023-08-01,Barnet,-0.162646,51.641748,images/test\fhrs_4_en-GB.png
Villaggio Restaurante,Restaurant/Cafe/Canteen,EN5 4QS,5,fhrs_5_en-GB,2024-08-23,Barnet,-0.201808,51.653559,images/test\fhrs_5_en-GB.png
Vino's,Takeaway/sandwich shop,N20 0RZ,4,fhrs_4_en-GB,2024-04-12,Barnet,-0.153291,51.623006,images/test\fhrs_4_en-GB.png
Vujon Takeaway,Takeaway/sandwich shop,N11 1JJ,4,fhrs_4_en-GB,2024-03-12,Barnet,-0.142388,51.619363,images/test\fhrs_4_en-GB.png
VyNam,Restaurant/Cafe/Canteen,N3 1DE,3,fhrs_3_en-GB,2024-02-13,Barnet,-0.194265,51.601099,images/test\fhrs_3_en-GB.png
Wagamama,Restaurant/Cafe/Canteen,,5,fhrs_5_en-GB,2024-08-06,Barnet,-0.2237626,51.5764202,images/test\fhrs_5_en-GB.png
Wagamama,Restaurant/Cafe/Canteen,N12 0GL,5,fhrs_5_en-GB,2023-09-13,Barnet,-0.173568,51.604808,images/test\fhrs_5_en-GB.png
Walk & Eat Cafe,Restaurant/Cafe/Canteen,HA8 7AN,3,fhrs_3_en-GB,2024-10-24,Barnet,-0.27313,51.611494,images/test\fhrs_3_en-GB.png
Walli's,Takeaway/sandwich shop,NW4 1RR,3,fhrs_3_en-GB,2023-09-20,Barnet,-0.223112,51.590083,images/test\fhrs_3_en-GB.png
Wamimichi Noodle Bar,Restaurant/Cafe/Canteen,NW4 3NL,4,fhrs_4_en-GB,2023-06-22,Barnet,-0.226621,51.582268,images/test\fhrs_4_en-GB.png
Wazobia  Restaurant,Restaurant/Cafe/Canteen,NW4 3JH,5,fhrs_5_en-GB,2024-05-16,Barnet,-0.228595,51.583845,images/test\fhrs_5_en-GB.png
Whetstone Cafe,Restaurant/Cafe/Canteen,N20 9LN,3,fhrs_3_en-GB,2023-11-17,Barnet,-0.176118,51.633056,images/test\fhrs_3_en-GB.png
White Fish,Restaurant/Cafe/Canteen,NW4 2AD,5,fhrs_5_en-GB,2022-06-15,Barnet,-0.219176,51.586256,images/test\fhrs_5_en-GB.png
White House Express & Deli,Restaurant/Cafe/Canteen,NW4 2EA,5,fhrs_5_en-GB,2022-07-20,Barnet,-0.220455,51.586032,images/test\fhrs_5_en-GB.png
Wild Bean Cafe,Restaurant/Cafe/Canteen,N20 0BB,5,fhrs_5_en-GB,2023-08-10,Barnet,-0.157921001315117,51.6297454833984,images/test\fhrs_5_en-GB.png
Wingate And Finchley Football Club,Restaurant/Cafe/Canteen,N12 0PD,4,fhrs_4_en-GB,2024-12-02,Barnet,-0.172783,51.606027,images/test\fhrs_4_en-GB.png
Wings,Restaurant/Cafe/Canteen,EN5 5HW,3,fhrs_3_en-GB,2023-05-23,Barnet,-0.180529,51.652467,images/test\fhrs_3_en-GB.png
Wok And Slice / Vegan Curry Club,Restaurant/Cafe/Canteen,N3 2PR,3,fhrs_3_en-GB,2023-11-16,Barnet,-0.188207887380062,51.6044102220899,images/test\fhrs_3_en-GB.png
Wokco,Takeaway/sandwich shop,N2 9PN,5,fhrs_5_en-GB,2022-07-21,Barnet,-0.1636567,51.5891974,images/test\fhrs_5_en-GB.png
Wonder Food,Takeaway/sandwich shop,N11 3EU,5,fhrs_5_en-GB,2024-01-03,Barnet,-0.149364,51.61477,images/test\fhrs_5_en-GB.png
Woodhouse Cafe,Restaurant/Cafe/Canteen,N12 0RS,5,fhrs_5_en-GB,2022-01-24,Barnet,-0.162815,51.611474,images/test\fhrs_5_en-GB.png
Woodhouse Kebab,Takeaway/sandwich shop,N12 9AY,5,fhrs_5_en-GB,2022-01-24,Barnet,-0.16029,51.612487,images/test\fhrs_5_en-GB.png
Woodhouse Tandoori,Takeaway/sandwich shop,N12 9BD,3,fhrs_3_en-GB,2023-04-26,Barnet,-0.159204,51.612892,images/test\fhrs_3_en-GB.png
Wraps & Wings/Wicked Burger/Wicked Wings/EggsQuisite,Takeaway/sandwich shop,N20 0RA,4,fhrs_4_en-GB,2023-11-23,Barnet,-0.174928,51.627076,images/test\fhrs_4_en-GB.png
Xian Takeaway,Takeaway/sandwich shop,N12 9RH,5,fhrs_5_en-GB,2022-07-26,Barnet,-0.176431,51.618772,images/test\fhrs_5_en-GB.png
Yakov's Kitchen,Restaurant/Cafe/Canteen,HA8 8TB,4,fhrs_4_en-GB,2023-08-17,Barnet,-0.26941,51.626519,images/test\fhrs_4_en-GB.png
Yellow River,Takeaway/sandwich shop,NW9 7AA,5,fhrs_5_en-GB,2022-05-17,Barnet,-0.23766,51.575996,images/test\fhrs_5_en-GB.png
Yi Man Tang Chinese Restaurant & Takeaway,Restaurant/Cafe/Canteen,N12 0EY,5,fhrs_5_en-GB,2023-10-26,Barnet,-0.178154,51.611821,images/test\fhrs_5_en-GB.png
Yiran Food House,Restaurant/Cafe/Canteen,NW4 2EL,5,fhrs_5_en-GB,2023-11-03,Barnet,-0.220121,51.587196,images/test\fhrs_5_en-GB.png
Yo! To Go! @Tesco,Takeaway/sandwich shop,N12 0SH,5,fhrs_5_en-GB,2024-04-16,Barnet,-0.156384,51.60694,images/test\fhrs_5_en-GB.png
Yokoso Japan,Restaurant/Cafe/Canteen,EN5 5SJ,4,fhrs_4_en-GB,2024-02-21,Barnet,-0.1993155,51.6530336,images/test\fhrs_4_en-GB.png
You Me Sushi,Restaurant/Cafe/Canteen,N3 2BG,5,fhrs_5_en-GB,2024-01-09,Barnet,-0.192693,51.601758,images/test\fhrs_5_en-GB.png
You Me Sushi,Restaurant/Cafe/Canteen,EN5 5UR,5,fhrs_5_en-GB,2024-11-13,Barnet,-0.2018554,51.6545966,images/test\fhrs_5_en-GB.png
Yuan Chinese Cuisine,Restaurant/Cafe/Canteen,NW4 4EB,2,fhrs_2_en-GB,2024-04-04,Barnet,-0.225214,51.589845,images/test\fhrs_2_en-GB.png
Yum Yum's Cafe,Restaurant/Cafe/Canteen,HA8 7HE,4,fhrs_4_en-GB,2022-01-12,Barnet,-0.279442,51.611101,images/test\fhrs_4_en-GB.png
Yummy Yam,Restaurant/Cafe/Canteen,NW2 1HD,3,fhrs_3_en-GB,2024-12-13,Barnet,-0.213488,51.557574,images/test\fhrs_3_en-GB.png
Yvette's Kitchen,Restaurant/Cafe/Canteen,N12 0PD,5,fhrs_5_en-GB,2022-03-22,Barnet,-0.172783,51.606027,images/test\fhrs_5_en-GB.png
Zams Chicken And Pizza,Takeaway/sandwich shop,HA8 0EJ,2,fhrs_2_en-GB,2024-07-26,Barnet,-0.263561,51.602981,images/test\fhrs_2_en-GB.png
Zareen Event,Restaurant/Cafe/Canteen,HA8 7AW,1,fhrs_1_en-GB,2024-01-16,Barnet,-0.275554,51.613454,images/test\fhrs_1_en-GB.png
Zaza Artisan Cafe,Restaurant/Cafe/Canteen,NW9 6AG,4,fhrs_4_en-GB,2023-07-20,Barnet,-0.2399872,51.5781741,images/test\fhrs_4_en-GB.png
Zen Buddha,Restaurant/Cafe/Canteen,HA8 7AU,3,fhrs_3_en-GB,2023-02-16,Barnet,-0.275329,51.615186,images/test\fhrs_3_en-GB.png
ZOPPEH,Takeaway/sandwich shop,N2 8AN,5,fhrs_5_en-GB,2024-10-18,Barnet,-0.168562,51.593912,images/test\fhrs_5_en-GB.png
